County,Market Name,Location,Address Line 1,City,State,Zip,Contact,Phone,Market Link,Operation Hours,Operation Season,Operating Months,FMNP,SNAP,FCC Issued,FCC Accepted,Latitude,Longitude,Georeference
Bronx,Harvest Home Jacobi Hospital Fri Farmers Market,1400 Pelham Parkway,1400 Pelham Parkway,Bronx,NY,10461,Maritza Owens,2128283361,http://www.harvesthomefm.org,Fri  8am-4pm,June 25-November 19,M,Y,Y,N,Y,40.85738,-73.84631,"(40.85738, -73.84631)"
Clinton,Prays Family Farm Stand-Plattsburgh,605 State Route 3 Plattsburgh,605 State Route 3,Plattsburgh,NY,12944,Darcy Pray,5188347437,,Daily 9am-4pm,Year-round,YR,N,N,N,Y,44.6948,-73.5069,"(44.6948, -73.5069)"
Rensselaer,Veggie Mobile Sprout-O'Neil Apts,2121 6th Ave. Troy,2121 6th Ave.,Troy,NY,12180,Audrey Bridge,5182748685,http://www.capitalroots.org,Wed 3:30pm-4:15pm,Year-round,YR,Y,Y,Y,Y,42.73436,-73.68587,"(42.73436, -73.68587)"
Wayne,Lyons Farmers' Market,Village Square 32 Church St.,32 Church Street,Lyons,NY,14489,Linda Guest,3159455526,http://www.lyonsny.com/farmers-market.html,Saturday  9am-12pm,June 19-October 30,M,Y,N,N,Y,43.06336,-76.99243,"(43.06336, -76.99243)"
Cayuga,Auburn Sat Farmers' Co-op Market,96 State Street  Curley's Restaurant Pkg Lot,96 State Street,Auburn,NY,13021,Mark Soper,3157048609,http://www.auburnfarmerscoopmarketinc.com,Sat  7am-2pm,June 5-October 30,M,Y,Y,Y,Y,42.93406,-76.56985,"(42.93406, -76.56985)"
Ulster,Saugerties Farmers' Market,115 Main St.,115 Main Street,Saugerties,NY,12477,Judith Spektor,9177415524,http://www.saugertiesfarmersmarket.com,Saturday  10am-2pm,May 29-October 30,P/M,Y,Y,N,Y,42.07901,-73.94894,"(42.07901, -73.94894)"
New York,97th Street Greenmarket,125 W 97th St. btwn Amsterdam & Columbus Aves.,West 97th St and Columbus Ave,New York,NY,10025,Siobahn Keys,2127887476,http://www.grownyc.org/greenmarket/manhattan/west-97,Friday  8am-2pm,Year-round,YR,Y,Y,N,Y,40.79356,-73.96701,"(40.79356, -73.96701)"
Dutchess,Poughkeepsie Plenty Fresh Market Farm Stand,29 N Hamilton Street  Family Partnership Center Poughkeepsie,29 N Hamilton Street,Poughkeepsie,NY,12601,Stacy Dedring,8454543792,http://www.dutchessoutreach.org,Tue-Thu  11:30am-3:30pm,May 1-November 26,P/M,Y,Y,N,Y,41.70459,-73.92197,"(41.70459, -73.92197)"
Otsego,Oneonta Farmers' Market,Muller Plaza 205 Main St. (Rt. 7),205 Main Street,Oneonta,NY,13820,Meg Kennedy,6074342407,http://www.oneontafarmersmarket.org,Saturday  9am-12pm,May 1-October 31,P/M,Y,N,N,Y,42.45417,-75.06173,"(42.45417, -75.06173)"
Nassau,Deep Roots Farmers Market,100 Garvies Point Rd Glen Cove,100 Garvies Point Rd,Glen Cove,,11542,Amy Peters,5163185487,,Saturday 9am-1pm,June 5-November 20,M,Y,N,N,Y,40.85889,-73.64328,"(40.85889, -73.64328)"
Monroe,The Marketplace Mall,1 Miracle Mile Drive,1 Miracle Mile Drive,Rochester,NY,14623,Claire Canavan,5854246220,http://www.themarketplacemall.com,Wednesday 3pm-7pm,June 2-September 29,M,N,N,N,Y,43.08465,-77.63273,"(43.08465, -77.63273)"
Ulster,Kingston YMCA Farm Stand,507 Broadway,507 Broadway,Kingston,NY,12401,Kaycee Wimbish,8453322927,http://www.kingstonymcafarmproject.org,"Tuesday  10-12:30pm, Thursday  3:30pm-6pm",June 3-October 28,M,Y,Y,Y,Y,41.92805,-74.0007,"(41.92805, -74.0007)"
Kings,Harvest Home Coney Island Farm Stand,Ocean Parkway btwn Ave. Z & Shore PKWY.,Ocean Pkwy and Avenue Z,Brooklyn,NY,11235,Maritza Owens,2128283361,http://www.harvesthomefm.org,Fri  8am-4pm,June 18-November 19,M,Y,Y,N,Y,40.58669,-73.96578,"(40.58669, -73.96578)"
Orleans,Roberts Farm Market,11170 Maple Ridge Rd. Medina,11170 Maple Ridge Rd.,Medina,NY,14103,Margaret Roberts,7165601200,http://www.robertsfarmmarket.com,"Mon-Sat 8am-6pm, Jan-Mar: Tue-Sat 9a-5p",Year-round,YR,N,N,N,Y,43.20679,-78.40098,"(43.20679, -78.40098)"
Kings,Borough Park Greenmarket,4910 14th Ave. btwn 49th & 50th Sts.,14th Ave and 49th St,Brooklyn,NY,11219,Siobahn Keys,2127887476,http://www.grownyc.org/greenmarket,Thursday  8am-3pm,July 8-November 18,M,Y,Y,N,Y,40.6337,-73.98992,"(40.6337, -73.98992)"
Albany,Altamont Orchards Farm Stand,6654 Dunnsville Road Altamont,6654 Dunnsville Road,Altamont,NY,12009,Jim Abbruzzese,5188616515,http://www.altamontorchards.com,"Mon-Fri  10am-5pm, Sat-Sun  10am-4:30pm",June 14-Nov 24,M,Y,N,N,Y,42.72256,-74.01493,"(42.72256, -74.01493)"
Schenectady,Veggie Mobile-Schenectady Day Nursery,25 Lafayette St Schenectady,25 Lafayette St,Schenectady,NY,12307,Audrey Bridge,5182748685,http://www.captialroots.org,Monday 4pm-4:45pm,Year-round,YR,Y,Y,Y,Y,42.81479,-73.93633,"(42.81479, -73.93633)"
Westchester,White Plains (International) Wed Farmers' Market,125 Court St.  btwn Martine Ave. & Main St.,125 Court St,White Plains,NY,10601,Sebastien Bensidoun,4845603696,http://www.whiteplainsfarmersmarket.com,Wednesday  8:30am-3:30pm,April 21-November 24,P/M,Y,N,N,Y,41.02944,-73.76659,"(41.02944, -73.76659)"
Chemung,Grove Park Farmers' Market,4th St. & Walnut Ave. Elmira,Walnut Ave and West 4th St,Elmira,NY,14901,Matthew Glenn,6075464535,,Monday  3pm-6pm,June 7-October 25,M,Y,N,N,Y,42.0921,-76.82013,"(42.0921, -76.82013)"
Putnam,Cold Spring Farmers' Market,Boscobel House & Gardens  1601 Rt 9D Garrison,1601 State Route 9D,Garrison,NY,10516,Colin Wright,9179570695,http://www.csfarmmarket.org,Sat  8:30am-1pm,Year-round,YR,Y,Y,N,Y,41.41403,-73.93809,"(41.41403, -73.93809)"
Nassau,Restoration Farm Farm Stand,140 Bethpage-Sweet Hollow Road,140 Bethpage-Sweet Hollow Road,Old Bethpage,NY,11804,Caroline Fanning,7183094220,http://www.restorationfarm.com,"Tue/Thu  3pm-6pm, Saturday  9am-1pm",May 22-October 30,M/X/W,Y,N,N,Y,40.76181,-73.44488,"(40.76181, -73.44488)"
Niagara,Newfane Methodist Farmers' Market,2699 Main St. Newfane,2699 Main St.,Newfane,NY,14108,Amy Luckman,7167787011,,Wed  4:30pm-7pm,July 7-September 29,M,Y,N,N,Y,43.28365,-78.70879,"(43.28365, -78.70879)"
Erie,MAP Mobile Market-Buffalo Promise,"3251 Bailey Ave Buffalo,  at Dartmouth Ave Vacant Lot",3251 Bailey Ave,Buffalo,NY,14215,Danielle Rovillo,7168825327,http://www.mass-ave.org,Tuesday 3pm-5pm,June 1-October 26,M,Y,Y,N,Y,42.9433,-78.8134,"(42.9433, -78.8134)"
Rensselaer,Veggie Mobile-Van Rensselaer Heights,460 Forbes Ave. Rensselaer,460 Forbes Avenue,Rensselaer,NY,12144,Audrey Bridge,5182748685,http://www.capitalroots.org,Thu 10:45am-11:15am,Year-round,YR,Y,Y,Y,Y,42.65953,-73.73008,"(42.65953, -73.73008)"
Suffolk,Babylon Village Farmers' Market,"LIRR Babylon Station parking lot, 51 South Railorad Ave @ N. Carll Ave",51 Railroad Avenue,Babylon,NY,11702,Lona Graepel,6319442661,http://www.longislandfarmersmarkets.com,Sunday  8am-12:30pm,May 2-November 21,P/M,Y,N,N,Y,40.69992,-73.3245,"(40.69992, -73.3245)"
Cortland,Cortland Saturday Farmers' Market,Main St. btwn Court & Orchard Sts.,Main St and Orchard St,Cortland,NY,13045,Laura Morak,6077588331,,Saturday  8am-2pm,May 22-October 30,M,Y,Y,N,Y,42.60028,-76.18044,"(42.60028, -76.18044)"
Herkimer,Little Falls Farmers' & Flea Market,M&T Bank parking lot  Albany St.,Albany Street and 2nd Street,Little Falls,NY,13365,Mary Davis,3158662619,,Saturday  8am-12pm,May 1-October 30,P/M,Y,N,N,Y,43.04284,-74.85828,"(43.04284, -74.85828)"
Madison,Cazenovia WINTER Farmers' Market,American Legion Hall 26 Chenango St,26 Chenango Street,Cazenovia,NY,13035,Tricia Park,3157202141,,1st&3rd Saturdays  10am-3pm,Year-round,YR,N,N,N,Y,42.92467,-75.85168,"(42.92467, -75.85168)"
Monroe,Curbside Market-Kennedy Towers,666 South Plymouth Ave. Rochester,666 South Plymouth Ave,Rochester,NY,14608,Camille Verbofsky,5854135077,http://www.foodlinkny.org,Mon 3:30pm-4:30pm,May 31-November 22,M,Y,Y,N,Y,43.14251,-77.61894,"(43.14251, -77.61894)"
Albany,Empire State Plaza Wed Farmers' Market,"Empire State Plaza, (Winter inside South Concourse TBD)",170 State St,Albany,NY,12210,Nicholas DeBlois,5184863966,https://empirestateplaza.ny.gov/empire-state-plaza-farmers-market,Wednesday  10am-2pm,Year-round,YR,Y,Y,N,Y,42.65068,-73.758,"(42.65068, -73.758)"
Orange,Kirby Farm Hemlock Grove Farm Stand,25 Kinne Lane Middletown,25 Kinne Lane,Middletown,NY,10940,Charles F. Kirby,8453552718,,Daily  8am-6pm,Year-round,YR,Y,N,N,Y,41.40479,-74.50332,"(41.40479, -74.50332)"
Cortland,Virgil Farmers' Market,"Hollenbecks Cider Mill, 1265 NY Rte 392 Cortland",1266 State Route 392,Virgil,NY,13045,Sara Sirois,5088643715,,Saturday  9am-1pm,June 5-October 30,M,Y,N,N,Y,42.51058,-76.19184,"(42.51058, -76.19184)"
Kings,Grand Army Plaza Greenmarket,Flatbush Ave. & Prospect Park West,Flatbush Ave and Grand Army Plaza,Brooklyn,NY,11238,Siobahn Keys,2127887476,http://www.grownyc.org/greenmarket/brooklyn-grand-army-plaza,Saturday  8am-4pm,Year-round,YR,Y,Y,N,Y,40.67412,-73.9695,"(40.67412, -73.9695)"
New York,Harvest Home East Harlem Farmers' Market,E 104th St. & Third Ave.,East 104th St and Third Ave,New York,NY,10029,Maritza Owens,2128283361,http://www.harvesthomefm.org,Thursday  8am-4pm,July 8-November 18,M,Y,Y,N,Y,40.79024,-73.94564,"(40.79024, -73.94564)"
Ontario,Curbside Market-Elmcrest Apts,99 Lewis St. Geneva,99 Lewis St.,Geneva,NY,14456,Camille Verbofsky,5854135077,http://www.foodlinkny.org,Fri 2:30pm-3:30pm,June 4-November 26,M,Y,Y,N,Y,42.87091,-76.9846,"(42.87091, -76.9846)"
Westchester,Larchmont Farmers' Market,"122 Myrtle Blvd. , Metro North lot off Chatsworth Ave.",Metro-North parking deck off Chatsworth Avenue,Larchmont,NY,10538,Mahalia Dees,9149234837,http://www.downtoearthmarkets.com,Saturday  8:30am-1pm,April 24-December 18,P/M/X,Y,Y,Y,Y,40.93322,-73.75951,"(40.93322, -73.75951)"
Rensselaer,Veggie Mobile Sprout-Barker Park,Corner 3rd & State St. Troy,3rd and State St.,Troy,NY,12180,Audrey Bridge,5182748685,http://www.capitalroots.org,Tue 11:30am-12pm,Year-round,YR,Y,Y,Y,Y,42.73006,-73.69055,"(42.73006, -73.69055)"
Tompkins,Dryden Farmers' Market,"Dryden Agway Hardware Store, 59 West Main St.",59 West Main St.,Dryden,NY,13053,Kelly Ritter,6078448663,,Saturday  9am-1pm,June 12 - September 25,M,Y,N,N,Y,42.49034,-76.30358,"(42.49034, -76.30358)"
Lewis,Lewis Co. General Hospital Farmers' Market,"7785 N. State St.  Lowville, Children's Clinic  parking lot",7785 North State St,Lowville,NY,13367,Darcy Zehr,3153765225,http://www.lcgh.net,Thursday  11am-3pm,June 10-October 5,M,Y,N,N,Y,43.79599,-75.49832,"(43.79599, -75.49832)"
Fulton,Johnstown Farmers' Market,"Shirley J Luck Senior Center, 109 E. Main St. Johnstown",109 E. Main Street,Johnstown,NY,12095,Michael Tillson,5188829306,http://www.fmfma.org,Tuesday  3pm-6pm,June 29-October 16,M,Y,N,N,Y,43.00636,-74.37421,"(43.00636, -74.37421)"
Suffolk,Wyandanch Plaza Farmers' Market,Delano Stewart Plaza at Wyandanch Village,Delano Stewart Plana at Wyandanch Village,Wyandanch,NY,11798,Kerry Gillick-Goldberg,5164553179,http://wyandanchplaza.org,Saturday  1pm-4pm,July 10-October 19,M,Y,N,N,Y,40.75205,-73.36441,"(40.75205, -73.36441)"
Albany,The Gade Farm Farm Stand,2479 Western Avenue Altamont,2479 Western Avenue,Altamont,NY,12009,Amy Castillo,5188698019,http://www.gadefarm.com,"Sunday  9am-4pm, Mon-Sat 9am-6pm",Year-round,YR,Y,N,N,Y,42.71055,-73.92593,"(42.71055, -73.92593)"
New York,Morningside Park Farmers' Market,265 Manhattan Ave. @W 110th St. Manhattan,265 Manhattan Ave.,New York,NY,10025,Mahalia Dees,9149234837,http://www.downtoearthmarkets.com,Saturday 10am-3pm,May15-December 18,P/M/X,Y,Y,N,Y,40.80173,-73.95915,"(40.80173, -73.95915)"
New York,Lower East Side  GrowNYC Farm Stand,Grand Ave. btwn Pitt & Willett Sts.,Grand St and Pitt St,New York,NY,10002,Siobahn Keys,2127887476,https://www.grownyc.org/farmstands,Thursday  8am-3pm,July 8-November 25,M,Y,Y,N,Y,40.71523,-73.9843,"(40.71523, -73.9843)"
Bronx,Riverdale Y Sunday Farmers' Market,4545 Independence Ave. Bronx,649 W 237th St,Bronx,NY,10463,Shira Silverman,7188771270,,Sunday  9am-2pm,April 11-December 19,P/M/X,Y,N,N,Y,40.888442,-73.912784,"(40.888442, -73.912784)"
Saratoga,Arnolds Farm Fresh Produce Farm Stand,1319 Sacandaga Rd. West Charlton,1319 Sacandaga Rd,West Charlton,NY,12010,Jason Arnold,5182699562,http://www.arnoldsproduce.com,"Daily 10am-6pm, Fri  10am-7pm",June 1-November 24,M,Y,N,N,Y,42.96962,-74.02911,"(42.96962, -74.02911)"
Schenectady,Schenectady Greenmarket,Franklin St and Jay St. near City Hall,Franklin St and Jay St,Schenectady,NY,12305,Cheryl Whilby,5189860318,http://www.schenectadygreenmarket.org,Sunday  10am-2pm,April 11-November 28,P/M,Y,Y,Y,Y,42.81372,-73.94015,"(42.81372, -73.94015)"
Dutchess,Z Farms Farm Stand,355 Poplar Hill Rd.  Dover Plains,355 Poplar Hill Road,Dover Plains,NY,12522,Zachary Elwood,8456254798,http://www.zfarmsorganic.com,"Daily 10am-6pm, closed Wednesday",Year-round,YR,N,Y,N,Y,41.75631,-73.55278,"(41.75631, -73.55278)"
Queens,Queens County Farm Museum-Borough Hall,120-55 Queens Boulevard,120-55 Queens Boulevard,Queens,NY,11424,Anne Mastrogiacomo,7183473276,http://www.queensfarm.org,Thursday  10am-3pm,July 1-November 4,M,Y,N,N,Y,40.71395,-73.82972,"(40.71395, -73.82972)"
Oswego,Grindstone Farm Stand,780 County Route 28,780 County Route 28,Pulaski,NY,13142,Ella Gibbs,3152984139,,Friday 11am-5pm,Year-round,YR,Y,Y,N,Y,43.50657,-76.10799,"(43.50657, -76.10799)"
Montgomery,Damin Farm Stand,8075 State Highway 5 St. Johnsville,8075 State Highway 5,St. Johnsville,NY,13452,Barb Damin,5185682643,,Daily  9am-6pm,Year-round,YR,Y,Y,N,Y,43.00497,-74.72233,"(43.00497, -74.72233)"
Saratoga,Gansevoort Farmers' Market,Gansevoort Village Park Catherine St.,Main St. at Catherine St.,Gansevoort,NY,12831,Linda Gifford,5187961686,,Tuesday  3pm-6pm,June 15-October 26,M,Y,N,N,Y,43.19612,-73.65167,"(43.19612, -73.65167)"
Erie,Clinton Bailey Thurs Farmers' Market,1443-1517 Clinton St. Buffalo,Bailey Ave and Clinton St,Buffalo,NY,14206,Sharon Baldi,7162080003,http://www.clintonbaileymarket.com,Thurday  4am-5pm,May 1-October 31,P/M,Y,Y,N,Y,42.87206,-78.81997,"(42.87206, -78.81997)"
Yates,Tomion's Farm Market,200 Route 14 A  Penn Yan,200 Route 14A,Penn Yan,NY,14527,Alan & Crystal Tomion,5853702061,http://www.tomionsfarmmarket.com,"Mon-Sat  9am-5pm, Sun  9am-4pm",May 17-October 31,P/M,Y,Y,N,Y,42.75335,-77.06852,"(42.75335, -77.06852)"
Erie,MAP Mobile Market-Neighboorhood Health Center NW,155 Lawn Ave Buffalo,155 Lawn Ave,Buffalo,NY,14207,Danielle Rovillo,7168825327,http://www.mass-ave.org,Wednesday 10am-12pm,June 2-October 27,M,Y,Y,N,Y,42.9506,-78.8895,"(42.9506, -78.8895)"
Niagara,Human Farms & Greenhouse,2853 Hess Rd. Appleton,2853 Hess Rd,Appleton,NY,14008,JoMarie Human,7165312820,,Daily 9am-6pm,June 1-December 31,M/X,Y,Y,N,Y,43.27537,-78.64954,"(43.27537, -78.64954)"
Franklin,JCEO MM-Alice Center,45 6th St Malone,45 6th St,Malone,NY,12953,Richard LaVigne,5183194028,http://www.jceo.org,Wednesday 10am-11am,June 2-September 29,M,Y,Y,N,Y,44.86017,-74.29201,"(44.86017, -74.29201)"
Oneida,City of Utica Farmers' Market,Chancellor Park Elizabeth St.,Bleeker St and 1st St,Utica,NY,13501,Lori Babiarz,3152233973,,Wednesday  8am-5pm,June 30-October 27,M,Y,Y,Y,Y,43.10043,-75.22483,"(43.10043, -75.22483)"
Albany,Veggie Mobile-Whitney Young Health Ctr,920 Lark Drive Albany,920 Lark Drive,Albany,NY,12207,Audrey Bridge,5182748685,http://www.capitalroots.org,Tue 11am-12pm,Year-round,YR,Y,Y,Y,Y,42.66215,-73.74859,"(42.66215, -73.74859)"
Monroe,Curbside Market-Beechwood Neighborhood,441 Parsells Ave Rochester,441 Parsells Ave,Rochester,NY,14609,Camille Verbofsky,5854135077,http://www.foodlinkny.org,"Thu 3pm-4pm, closed July 1",June 3-November 25,M,Y,Y,N,Y,43.1658,-77.56665,"(43.1658, -77.56665)"
Monroe,Curbside Market-Fairport Apartments,1030 Whitney Road E Fairport,1030 Whitney Road E,Fairport,NY,14450,Camille Verbofsky,5854135077,http://www.foodlinkny.org,"Thu 10:45am-12pm, closed July 1",June 3-November 25,M,Y,Y,N,Y,43.10913,-77.43938,"(43.10913, -77.43938)"
Monroe,Curbside Market-The Hamilton Apts,185 Mt. Hope Ave. Rochester,185 Mount Hope Avenue,Rochester,NY,14620,Camille Verbofsky,5854135077,http://www.foodlinkny.org,"Sat 10:15am-11:15am, closed June 19, July 3 & Sept 4",June 5-November 27,M,Y,Y,N,Y,43.14573,-77.61013,"(43.14573, -77.61013)"
Seneca,Seneca Falls Farmers' Market,People's Park  15 Water St.,Water St and Bridge St,Seneca Falls,NY,13148,Gregg Zellers,3153384359,http://www.senecamarket.com,Tuesday  3pm-7pm,June 15-October 12,M,Y,Y,Y,Y,42.91008,-76.80086,"(42.91008, -76.80086)"
Onondaga,Syracuse Eastside Neighborhood Market,Westcott Community Ctr 826 Euclid Ave,826 Euclid Ave,Syracuse,NY,13210,Jake Losowski,3154788634,https://westcottcc.org/syracuse-eastside-farmers-market,Wednesday  2pm-6pm,June 2-October 27,M,Y,N,N,Y,43.03662,-76.1192,"(43.03662, -76.1192)"
Bronx,BronxWorks Farm Stand,1130 Grand Concourse,1130 Grand Concourse,Bronx,NY,10456,Rachel Gill,7185083156,,Thursday  10am-4pm,July 9-November 18,M,Y,N,N,Y,40.83256,-73.9192,"(40.83256, -73.9192)"
Albany,Voorheesville Farmers' Market,"First United Methodist Church lot, 68 Maple Ave.",68 Maple Ave,Voorheesville,NY,12186,Dianne Luci,5187654536,,Wed  3:30pm-6:30pm,June 16-September 29,M,Y,N,N,Y,42.64892,-73.92991,"(42.64892, -73.92991)"
Westchester,Fable: From Farm to Table Farm Stand,1311 Kitchawan Rd.  Ossining,1311 Kitchawan Road,Ossining,NY,10562,Tom Deacon,9148620205,http://www.fablefoods.com,Fri/Sat/Sun  11am-3pm,year-round,YR,N,N,N,Y,41.21059,-73.81496,"(41.21059, -73.81496)"
Kings,Park Slope Farmers' Market,289 4th Street at 5th Ave.  near PS 51 Brooklyn,289 4th Street,Brooklyn,NY,11215,Mahalia Dees,9149234837,http://www.downtoearthmarkets.com,Sunday 10am-3pm,May 16-December 19,P/M/X,Y,Y,N,Y,40.6722,-73.98379,"(40.6722, -73.98379)"
New York,Rockefeller Center Fri Greenmarket,Rockefeller Plaza at 50th St.,Rockefeller Plaza and West 50th St,New York,NY,10112,Siobahn Keys,2127887476,http://www.grownyc.org/greenmarket,Friday  8am-5pm,July 23-August 27,M,Y,Y,N,Y,40.75914,-73.97873,"(40.75914, -73.97873)"
Bronx,Norwood GrowNYC Farm Stand,E Gun Hill Rd. & Dekalb Ave.,Dekalb Ave. and East Gun Hill Rd.,Bronx,NY,10467,Siobahn Keys,2127887476,https://www.grownyc.org/farmstands,Thursday  8:30am-4pm,Year-round,YR,Y,Y,N,Y,40.88223,-73.88048,"(40.88223, -73.88048)"
Albany,Veggie Mobile-Arbor Hill/Oak Street Park,Oak Street & Second Street Albany,Second Street & Oak Street,Albany,NY,12210,Audrey Bridge,5182748685,http://www.capitalroots.org,Thu 12:15pm-1pm,Year-round,YR,Y,Y,Y,Y,42.6629,-73.76094,"(42.6629, -73.76094)"
St. Lawrence,Circle G Farm Farm Stand,705 CR 7 at Turner Rd. Hammond,705 County Route 7,Hammond,NY,13646,George Blatchley,3155782419,,Sunday  1pm-5pm,June 6-October 3,M,Y,N,N,Y,44.47353,-75.55463,"(44.47353, -75.55463)"
Franklin,JCEO MM-Akwesasne Generations Park,30 Margaret Margaret Terrace Memorial Way Generations Park Akwesasne (Hogansburg),Margaret Terrace Memorial Way,Hogansburg,NY,12195,Richard LaVigne,5183194028,http://www.jceo.org,Thu 11:45am-2pm,June 3-September 30,M,Y,Y,N,Y,44.98041,-74.66642,"(44.98041, -74.66642)"
New York,Columbia Sun Greenmarket,2910 Broadway btwn W114th & W115th Sts.,Broadway and West 115th St,New York,NY,10027,Siobahn Keys,2127887476,http://www.grownyc.org/greenmarket,Sunday  8am-3pm,Year-round,YR,Y,Y,N,Y,40.8073,-73.9643,"(40.8073, -73.9643)"
Queens,Sunnyside Greenmarket,41-15 Skillman Ave. at 42nd St,Skillman Ave and 42nd St,Sunnyside,NY,11104,Siobahn Keys,2127887476,http://www.grownyc.org/greenmarket/queens/sunnyside,Saturday  8am-2pm,Year-round,YR,Y,Y,N,Y,40.74694,-73.92139,"(40.74694, -73.92139)"
Columbia,Martin's Farm Fresh Farm Stand,820 State Route 66 Hudson,820 State Route 66,Hudson,NY,12534,Adam Martin,5188288781,,Mon-Sat  9am-5pm,May 25-November 1,P/M,Y,N,N,Y,42.27318,-73.72226,"(42.27318, -73.72226)"
Suffolk,Flanders Farm Fresh Food Market,"Crohan Community Senior Center, 655 Flanders Road (Rt 24) Flanders",655 Flanders Rd,Flanders,NY,11901,Nancy Lynott,6317022417,http://www.southamptontownny.gov,Saturday  10am-1pm,July 10-October 23,M,Y,Y,N,Y,40.90952,-72.63662,"(40.90952, -72.63662)"
Tompkins,Ithaca Farmers' Market (Steamboat Sat),"Steamboat Landing, 545 Third St. Extension off Rt. 13",545 Third Street,Ithaca,NY,14850,Kelly Sauve,6072737109,http://www.ithacamarket.com,"Saturday  9am-3pm, hours change 11/6",April 3-December 18,P/M/X,Y,Y,Y,Y,42.44958,-76.50785,"(42.44958, -76.50785)"
Delaware,Pakatakan Farmers' Market,"Round Barn of Halcottville, 46676 State Hwy 30",46676 State Highway 30,Halcottville,NY,12438,Tanya Moyer,5186734242,,Saturday  9am-1pm,May 15-November 27,P/M,Y,N,N,Y,42.20103,-74.59909,"(42.20103, -74.59909)"
Nassau,Cedarmore Farmers Market-Baldwin LIRR,"Baldwin Train Station Parking Lot #BA 12 , btwn Milburn & Brookside Ave.",Lot #BA12 Sunrise Hwy,Baldwin,NY,115510,Debra Wheat-Williams,5163783415,http://www.freeportfarmersmarket.org/,Sat  11:30am-3:30pm,July 17-October 30,M,Y,Y,N,Y,40.6566,-73.6221,"(40.6566, -73.6221)"
Nassau,The Napolitano Family Farm Stand,3434 Hempstead Turnpike Levittown,3434 Hempstead Turnpike,Levittown,NY,11756,Daniel Napolitano,6462834682,http://www.napolitanofamilyfarm.com,Saturday 10am-2pm,June 5-October 30,M,Y,N,N,Y,40.72556,-73.50916,"(40.72556, -73.50916)"
Franklin,JCEO MM-Trails at Malone,156 Falling Leave Dr. Malone,166 Falling Leave Dr.,Malone,NY,12953,Richard LaVigne,5183194028,http://www.jceo.org,Wednesday 10am-12pm,June 2-September 29,M,Y,Y,N,Y,44.83505,-74.2986,"(44.83505, -74.2986)"
Saratoga,Saratoga Farmers' Market-Saturday,"Wilton Mall (Bon-ton Parking lot), 3065 NY-50 Wilton",3065 Route 50,Wilton,NY,12866,Emily Meagher,5187083698,http://www.saratogafarmersmarket.org,Saturday  9am-1pm,Year-round,YR,Y,Y,Y,Y,43.1054,-73.74047,"(43.1054, -73.74047)"
Orange,Warwick Valley Farmers' Market,"South St. parking lot, In the Historic Village",South St and Bank St,Warwick,NY,10990,Cheryl Rogowski,8457720305,http://www.warwickvalleyfarmersmarket.org,Sunday  9am-2pm,May 9-November 21,P/M,Y,Y,N,Y,41.25656,-74.35858,"(41.25656, -74.35858)"
Erie,Downtown Buffalo Country Thursday Market,350 Main St. outside btwn Court & Church Streets,350 Main St. outside btwn Court & Church Streets,Buffalo,NY,14203,Taylor Potenza,7168563150,https://buffaloplace.com/play/our-events/#countrymarket,Thursday  10am-2:30pm,May 13-October 21,P/M,Y,Y,N,Y,42.8844,-78.8754,"(42.8844, -78.8754)"
Schoharie,Barber Family Farm Stand,3617 State Route 30 Middleburgh,3617 State Route 30,Fulton,NY,12122,Sarah Hooper,5188275454,http://www.barbersfarm.com,"Wed-Sun 9am-5:30pm, Winter hours change",Year-round,YR,Y,Y,N,Y,42.58123,-74.39189,"(42.58123, -74.39189)"
Washington,Granville Rt. 22 Farmers' Market,88 Quaker St. Moutain View Commons,88 Quaker St,Granville,NY,12832,Cyd Groff,5186421653,,Monday  2pm-5pm,June 7-October 18,M,Y,N,N,Y,43.39845,-73.2658,"(43.39845, -73.2658)"
Franklin,JCEO MM-Franklin Co Courthouse,355 W Main St.  Malone,355 W Main St.,Malone,NY,12953,Richard LaVigne,5183194028,http://www.jceo.org,Tue  12pm-2pm,June 1-September 28,M,Y,Y,N,Y,44.84882,-74.29518,"(44.84882, -74.29518)"
Albany,Veggie Mobile-North Albany YMCA,616 N. Pearl St. Albany,616 North Pearl Street,Albany,NY,12204,Audrey Bridge,5182748685,http://www.capitalroots.org,Wed 4:45pm-5:45pm,Year-round,YR,Y,Y,Y,Y,42.67368,-73.73953,"(42.67368, -73.73953)"
Oneida,Vienna Farmers' Market,7812 State Rte 13  Blossvale,7812 State Rte 13,Blossvale,NY,13471,Jessica Johnson-Travers,3158866824,http://www.vfm-ny.com,Thursday  3pm-6:30pm,May 27-October 7,P/M,Y,Y,Y,Y,43.24004,-75.70196,"(43.24004, -75.70196)"
Bronx,La Familia Verde Farmers' Market,"Tremont Park on Tremont Ave., btwn LaFontaine & Arthur Aves.",East Tremont Ave and Arthur Ave,Bronx,NY,10457,Aleyna Rodriguez,7185831765,http://www.lafamiliaverde.org,Tuesday  8am-2pm,July 13-November 16,M,Y,N,N,Y,40.84643,-73.89334,"(40.84643, -73.89334)"
Chenango,Pires Farmers' Market,6066 State Hwy 12  Norwich,6066 State Highway 12,Norwich,NY,13815,Richard Williams,6073342676,,"Mon-Fri  9am-5pm, Sat 9am-4pm Sun 10am-2pm",May 1-November 30,P/M,Y,Y,N,Y,42.54525,-75.52498,"(42.54525, -75.52498)"
Sullivan,Sullivan Fresh Market on the Move-Loch Sheldrake,"Route 52 & Hasbrouck Rd. , Lock Sheldrake public parking lot",Hasbrouck Rd.@ CR52,Lock Sheldrake,NY,12788,Melinda Meddaugh,8452926180,,Wednesday  3pm-5pm,June 2-October 27,M,Y,Y,N,Y,41.75888,-74.60189,"(41.75888, -74.60189)"
Monroe,Brighton WINTER Farmers' Market,Brookside Center  220 Idlewood Rd. Rochester,220 Idlewood Road,Rochester,NY,14618,Sue Gardner-Smith,5852698918,http://www.brightonfarmersmarket.org,Sunday  1pm-4pm,November 28-December 19,X/W,N,Y,N,Y,43.11275,-77.56809,"(43.11275, -77.56809)"
Niagara,Schwab Farm Stand,9035 Rochester Rd. Gasport,9035 Rochester Rd,Gasport,NY,14067,Sharon Brent,7165600853,http://www.schwabsfarm.com,"Mon-Fri  8am-7pm, Sat/Sun  9am-5pm",Year-round,YR,Y,Y,N,Y,43.20425,-78.52308,"(43.20425, -78.52308)"
Monroe,Kirby's Farm Market,9739 Ridge Road Brockport,9739 Ridge Rd,Brockport,NY,14420,Linda Kirby,5856372600,http://www.kirbysfm.com,"Mon-Sat  10am-6pm, Sun  10am-5pm",May 1-December 24,P/M/X,Y,N,N,Y,43.25194,-77.98451,"(43.25194, -77.98451)"
Erie,Clinton Bailey Sun Farmers' Market,1443-1517 Clinton St. Buffalo,Bailey Ave and Clinton St,Buffalo,NY,14206,Sharon Baldi,7162080003,http://www.clintonbaileymarket.com,Sunday 7am-5pm,May 1-October 31,P/M,Y,Y,N,Y,42.87206,-78.81997,"(42.87206, -78.81997)"
Kings,4th Ave. Sunset Park Greenmarket,60 4th Ave. btwn 59th & 60th Sts.,4th Ave and 60th St,Brooklyn,NY,11220,Siobahn Keys,2127887476,http://www.grownyc.org/greenmarket,Saturday  8am-3pm,July 3-November 20,M,Y,Y,N,Y,40.64081,-74.01836,"(40.64081, -74.01836)"
Monroe,Curbside Market-Cameron Community Ministries,"48 Camerson St Rochester, closed June 19, July 3 & Sept 4",48 Camerson St,Rochester,NY,14606,Camille Verbofsky,5854135077,http://www.foodlinkny.org,Sat 9am-11am,June 5-November 27,M,Y,Y,N,Y,43.16572,-77.63942,"(43.16572, -77.63942)"
Orange,Healthy Orange Farmers' Market,"130 Broadway (lawn next to DMV bldg), btwn Johnston & Landers St. Newburgh",131 Broadway,Newburgh,NY,12550,Jeffrey Woody,8458636455,http://www.healthyorange.com,Tuesday  10am-2pm,July 6-October 26,M,Y,Y,N,Y,41.50009,-74.01254,"(41.50009, -74.01254)"
Bronx,TFFJ Fresh Farm Market-Bronx,100 W Mosholu Pkwy South,100 W Mosholu Pkwy South,Bronx,NY,10468,Katherine Soll,9292411029,http://www.teensforfoodjustice.org,Thursday 3pm-6pm,Year-Round,YR,N,Y,N,Y,40.88007,-73.88593,"(40.88007, -73.88593)"
Monroe,Curbside Market-RCSD School #33,500 Webster Ave Rochester,500 Webster Ave,Rochester,NY,14609,Camille Verbofsky,5854135077,http://www.foodlinkny.org,"Sat 12pm-2pm, closed June 19, July 3 & Sept 4",June 5-November 27,M,Y,Y,N,Y,43.16969,-77.57192,"(43.16969, -77.57192)"
Chautauqua,Cherry Creek Farmers' Market,6813 Main Street,6813 Main Street,Cherry Creek,NY,14723,Tina Armstrong,7162006946,,Wed  2pm-5:30pm,July 7-October 1,M,Y,N,N,Y,42.29547,-79.09978,"(42.29547, -79.09978)"
Kings,Saratoga Farm Stand,1965-1971 Fulton St. Brooklyn,1965 Fulton Street,Brooklyn,NY,11233,Melony Samuels,7187733551,,Saturday  9am-2pm,July 10-November 20,M,Y,Y,N,Y,40.67849,-73.9162,"(40.67849, -73.9162)"
Allegany,Fillmore Farmers' Market,Fillmore Central School,35 South Genesee Street,Fillmore,NY,14735,Debra Wagoner,5856108836,,Friday  5pm-8pm,June 5-October 2,M,Y,N,Y,Y,42.46481,-78.11218,"(42.46481, -78.11218)"
Herkimer,Juliano's Farm Market,2365 State Route 5 Utica,2365 State Route 5,Utica,NY,13502,Deborah E Juliano,3157230022,,"Mon-Fri  7:30am-6pm, Sat 7:30am-10pm Sun  7:30am-4pm",April 22-October 31,P/M,Y,N,N,Y,43.09608,-75.14626,"(43.09608, -75.14626)"
Otsego,Cooperstown Saturday Farmers' Market,101 Main St. in Pioneer Alley near Keybank,101 Main St,Cooperstown,NY,13326,Ellen Pope,6075478881,http://www.cooperstownfarmersmarket.org,"Saturday  9am-2pm, 10am-2pm (Jan-Apr)",Year-round,YR,Y,Y,Y,Y,42.70001,-74.92526,"(42.70001, -74.92526)"
Queens,Forest Hills Greenmarket,106-28 Queens Blvd. at 70th Ave. near Post Office,106-28 Queens Blvd.,Queens,NY,11375,Siobahn Keys,2127887476,http://www.grownyc.org/greenmarket/queens/forest-hills,Sunday  8am-2pm,Year-Round,YR,Y,Y,N,Y,40.72193,-73.84676,"(40.72193, -73.84676)"
Erie,Holland Farmers' Market,"25 North Main St. Holland, Municipal lot Next to Fire Dept",25 North Main St.,Holland,NY,14080,Marg Wnek,7165379590,http://www.thehollandmkt.com,Sunday  8:30am-1pm,May 2-October 31,P/M,Y,N,N,Y,42.64149,-78.54248,"(42.64149, -78.54248)"
Essex,Drinkwine Produce Farm Stand,Route 9N & 22 Street Road Ticonderoga,Route 9N and 22 Street Road,Ticonderoga,NY,12883,Henry Drinkwine,5185856346,,"Mon-Sat  10am-6pm, Sun 11am-6pm",July 10-October 30,M,Y,N,N,Y,43.88032,-73.44955,"(43.88032, -73.44955)"
Suffolk,Montauk Farmers' Market,Village Green 743 Montauk Hwy,742 Montauk Hwy,Montauk,NY,11954,Byor Kay Kim-Tyler,9179228656,,Thursday  9am-2pm,June 3-September 9,M,Y,Y,N,Y,41.03436,-71.94424,"(41.03436, -71.94424)"
Ontario,Geneva Lakefront Childcare Center Farm Stand,61 Elizabeth Blackwell St.  Geneva,61 Elizabeth Blackwell St.,Geneva,NY,14456,Cassandra Salo,3157810014,,Tuesday  3pm-6pm,June 8-September 28,M,Y,N,N,Y,42.86515,-76.98162,"(42.86515, -76.98162)"
Monroe,Curbside Market-Waring Road Plaza,Monroe WIC  250 Waring Rd. Rochester,250 Waring Rd,Rochester,NY,14609,Camille Verbofsky,5854135077,http://www.foodlinkny.org,Wed 11:30am-12:45pm,June 2-November 24,M,Y,Y,N,Y,43.1836,-77.56554,"(43.1836, -77.56554)"
New York,Fort Washington Greenmarket,701 W 168th at Fort Washington Ave.,Fort Washington Ave and West 168th St,New York,NY,10032,Siobahn Keys,2127887476,http://www.grownyc.org/greenmarket,Tuesday  8am-4pm,June 1-November 23,M,Y,Y,N,Y,40.84217,-73.94229,"(40.84217, -73.94229)"
Tompkins,Mar-San Farm Stand,583 Sheldon Rd.  Freeville,583 Sheldon Rd.  Freeville,Freeville,NY,13068,Margaret Tracy,6073474617,,Mon/Wed/Thu  8am-6pm,June 1-November 1,M,Y,N,N,Y,42.5272,-76.41507,"(42.5272, -76.41507)"
Greene,Fromer Market Gardens Farm Stand,6120 Main St.  Tannersville,6120 Main Street,Tannersville,NY,12485,Samantha Metz,5185895050,http://www.fromermarketgardens.com,"Sat  9am-3pm, Wed  3pm-6pm",Year-round,YR,Y,Y,N,Y,42.19546,-74.13889,"(42.19546, -74.13889)"
Wayne,Newark Farmers' Market,100 Church St.,303 East Avenue,Newark,NY,14513,Andrew Bodine,3158791121,,Thursday  4pm-7pm,June 17-October 28,M,Y,N,N,Y,43.04412,-77.09252,"(43.04412, -77.09252)"
Kings,Isabahlia Farm Stand-Rockaway Ave,514 Rockaway Avenue Brooklyn,514 Rockaway Avenue,Brooklyn,NY,11212,Brenda Thompson-Duchene,7184983174,http://www.isabahlialoefinc.org,Fri/Sat  8am-3pm,June 25-October 30,M,Y,Y,N,Y,40.66751,-73.91021,"(40.66751, -73.91021)"
Queens,Amjoy Farmers Market Rosedale,S. Conduit Ave,South Conduit Ave and 149th Ave,Rosedale,NY,11422,Joy Ibinedion,3476353302,,Saturday 9am-4pm,July 17-November 13,M,Y,N,N,Y,40.66535,-73.72831,"(40.66535, -73.72831)"
Columbia,City of Hudson WINTER Farmers' Market,"601 Union St. Hudson, sidewalk",601 Union St.,Hudson,NY,12534,Marilyn Cederoth,5189650552,http://www.hudsonfarmersmarketny.com,Saturday  10am-1pm,"December 4-April 15, 2022",X/W/P,N,N,N,Y,42.24738,-73.78535,"(42.24738, -73.78535)"
Kings,Brownsville Pitkin  GrowNYC Farm Stand,Pitkin Ave. & Thomas Boyland St.,Pitkin Avenue and Thomas Boyland Street,Brooklyn,NY,11212,Siobahn Keys,2127887476,https://www.grownyc.org/farmstands,Saturday  9am-2pm,July 10-November 20,M,Y,Y,N,Y,40.66926,-73.91356,"(40.66926, -73.91356)"
Delaware,Catskill Cattle Farm Stand,"96 Laurel Bank Ave, Deposit",96 Laurel Bank Ave,Deposit,NY,13754,Lonny Schaefer,6074675762,http://www.catskillcattle.com,"Daily  11am-6pm, Nov-Apr by appt only",Year-round,YR,Y,N,N,Y,42.06673,-75.40725,"(42.06673, -75.40725)"
Rensselaer,Veggie Mobile Sprout-Edward A. Kane Apts,115th Street & 2nd Ave Troy,5 115th Street,Troy,NY,12182,Audrey Bridge,5182748685,http://www.capitalroots.org,Thu 11am-11:30am,Year-round,YR,Y,Y,Y,Y,42.7748,-73.67761,"(42.7748, -73.67761)"
Nassau,Kennedy Plaza Long Beach Farmers' Market -Wed,1 West Chester St. Long Beach,1 West Chester St,Long Beach,NY,11561,Debbie Grattan,5163307149,http://www.ligreenmarket.org,Wed  9am-2pm,June 2-November 17,M,Y,N,N,Y,40.58943,-73.66592,"(40.58943, -73.66592)"
St. Lawrence,Massena Farmers and Artisans Co-op-Sunday,Tractor Supply 105 Harte Haven Plaza,105 Harte Haven Plaza,Massena,NY,13662,Matt Martin,3158428052,,Sunday 10am-2pm,July 11-October 31,M,N,Y,N,Y,44.92199,-74.88432,"(44.92199, -74.88432)"
Chautauqua,Roberto Fred Farm Stand,10655 Temple Rd Dunkirk,10655 Temple Rd,Dunkirk,NY,14048,Roberto Fred,7163667200,,Daily  9am-6pm,June 1-November 30,M,Y,Y,N,Y,42.464201,-79.361694,"(42.464201, -79.361694)"
Nassau,Rockville Centre Farmers' Market,"Sunrise Hwy & Longbeach Rd. , Village of Rockville Centre",Sunrise Hwy and Long Beach Rd,Rockville Centre,NY,11570,Ethel Terry,6313233653,http://www.longislandgrowersmarket.com,Sunday  7am-12pm,June 6-December 26,M/X,Y,N,N,Y,40.65712,-73.6321,"(40.65712, -73.6321)"
Otsego,Oneonta WINTER Farmers' Market,"Foothills Performing Arts & Civic Center, 24 Market St., Oneonta",196 Main Street,Oneonta,NY,13820,Betty Lee,6072671807,http://www.oneontafarmersmarket.com,Saturday  9am-12pm,Nov 7-April 24,X/W/P,N,N,N,Y,42.45397,-75.06188,"(42.45397, -75.06188)"
Sullivan,Livingston Manor Farmers' Market,Main Street Livingston Manor,Main Street Green Space Lawn,Livingston Manor,NY,12758,Maria Bivins,8457072723,,Sunday 10am-2pm,May 30-October 16,M,Y,N,N,Y,41.90119,-74.82754,"(41.90119, -74.82754)"
Erie,Chiavetta's Potatoes & Greenhouse Farm Stand,9784 South Main St. Angola,9784 South Main St,Angola,NY,14006,Michael Chiavetta,7165490458,,Daily  9am-6pm,August 1-October 31,M,Y,Y,N,Y,42.61859,-79.01784,"(42.61859, -79.01784)"
New York,Tucker Square Saturday Greenmarket,125 Columbus Ave btwn W 65th & W 66th Sts.,Columbus and West 66th St,New York,NY,10023,Siobahn Keys,2127887476,http://www.grownyc.org/greenmarket/manhattan/tuckerthursday,Saturday  8am-5pm,Year-round,YR,Y,Y,N,Y,40.77361,-73.98158,"(40.77361, -73.98158)"
Madison,Mosher Farms Farm Stand,3214 Fargo Rd Bouckville,3214 Fargo Rd,Bouckville,NY,13310,Stephanie Mosher,3157964913,http://www.mosherfarms.com,"Mon-Sat  9am-6pm, Sunday  9am-5pm",June 10-October 31,M,Y,N,N,Y,42.87972,-75.57175,"(42.87972, -75.57175)"
Cattaraugus,Enchanted Mountains Farmers Market,1900 Constituion Ave Olean,1900 Constituion Ave,Olean,NY,14760,Tammy Gardner,7165435475,,Friday  2pm-6pm,May 28-October 22,P/M,Y,Y,N,Y,42.08304,-78.45343,"(42.08304, -78.45343)"
Washington,Braydon's Garden Farm Stand,3 East High Street,328 North Main St,Salem,NY,12865,Lisa Hunt,5187426647,http://www.braydonsgarden.com,Daily  8am-8pm,Year-round,YR,Y,N,N,Y,43.18091,-73.3259,"(43.18091, -73.3259)"
Jefferson,Bushgardens Farm Stand,10371 NYS Route 26 Carthage,10371 NYS Route 26,Carthage,NY,13619,Chris Bush,3157836745,,"Daily  6am-6pm, Except Wed  3pm-6pm",May 15-November 1,P/M,Y,N,N,Y,43.91954,-75.58686,"(43.91954, -75.58686)"
Monroe,Curbside Market-Cornerstone Pointe,3 GBC Parkway Greece,3 GBC Parkway,Greece,NY,14626,Camille Verbofsky,5854135077,http://www.foodlinkny.org,Thu 11:15am-12:15pm,June 3-November 25,M,Y,Y,N,Y,43.21335,-77.69366,"(43.21335, -77.69366)"
Orange,Newburgh Mall Farmers' Market,Newburgh Mall Parking lot  1401 Route 300,1401 Route 300,Newburgh,NY,12550,Debbie Gaito,8455641400,http://www.newburghmall.com,Saturday  10am-2pm,July 17-October 16,M,Y,N,N,Y,41.51758,-74.0714,"(41.51758, -74.0714)"
Dutchess,Hudson Valley Farmers Market,227 Pitcher Lane Red Hook,227 Pitcher Lane,Red Hook,NY,12571,Norman Greig,9144742404,,Saturday 9am-3pm,Year-round,YR,N,N,N,Y,42.02825,-73.8549,"(42.02825, -73.8549)"
New York,Tribeca Greenmarket Wednesday,315 Greenwich St. at Chambers St,Greenwich St and Chambers St,New York,NY,10023,Siobahn Keys,2127887476,http://www.grownyc.org/greenmarket,Wednesday  8am-3pm,Year-Round,YR,Y,Y,N,Y,40.71629,-74.01095,"(40.71629, -74.01095)"
Chemung,Wisner Park Farmers' Market,Wisner Park 200 N Main Street Elmira,200 N Main St,Elmira,NY,14901,Kate Boland,6077340341,http://www.wisnermarket.org,Thursday  10am-2pm,May 27-September 30,P/M,Y,Y,Y,Y,42.08943,-76.80801,"(42.08943, -76.80801)"
Dutchess,Hyde Park Farmers' Market,4390 Albany Post Rd. (Rt 9),4390 Route 9,Hyde Park,NY,12538,Dot Chenevert,8452299336,http://www.hydeparkfarmersmarket.org,Saturday  9am-2pm,June 5-October 30,M,Y,N,N,Y,41.7913,-73.93615,"(41.7913, -73.93615)"
Westchester,Perez Farm Stand-Mount Vernon,Lusiadas Restaurant  Mount Vernon NY,6 Roosevelt Square,Mount Vernon,NY,10550,Jose Monteiro,9149062830,,Thursday  9am-2pm,June 17-October 28,M,Y,N,N,Y,40.9126,-73.83856,"(40.9126, -73.83856)"
Niagara,Niagara Falls City Wednesday Market,19th St. & Pine Ave.,1800-1808 Pine Ave,Niagara Falls,NY,14301,Victor Muto,7167540798,,Wednesday  9am-3pm,Year-round,YR,Y,N,N,Y,43.09513,-79.03972,"(43.09513, -79.03972)"
Cortland,Cortland Tues Farmers Market,Main St. btwn Court & Orchard Sts.,Main St and Orchard St,Cortland,NY,13045,Laura Morak,6077588331,,Tuesday  8am-2pm,May 18-October 26,P/M,Y,Y,N,Y,42.60028,-76.18044,"(42.60028, -76.18044)"
Kings,Cortelyou Greenmarket,Cortelyou Rd. btwn Argyle & Rugby Rds.,1399 Cortelyou Rd,Brooklyn,NY,11226,Siobahn Keys,2127887476,https://www.grownyc.org/farmstands,Sunday  8am-2pm,Year-round,YR,Y,Y,N,Y,40.64044,-73.96617,"(40.64044, -73.96617)"
Onondaga,Central NY Thursday Regional Market Authority,2100 Park St. Syracuse,2100 Park Street,Syracuse,NY,13208,Rachael Ristau,3154228647,http://www.cnyrma.com,Thursday  7am-2pm,Year-round,YR,Y,Y,Y,Y,43.07269,-76.16835,"(43.07269, -76.16835)"
Albany,Constantine Farm Stand,566 Albany Shaker Rd.  Albany,566 Albany Shaker Road,Albany,NY,12211,Emily Szesnat,5184588294,http://www.constantinefarms.com,Daily  9am-5pm,July 15-October 1,M,Y,N,N,Y,42.71722,-73.78613,"(42.71722, -73.78613)"
Kings,Williamsburg Greenmarket,33 Lee Ave. at Taylor St.,199 Taylor St,Brooklyn,NY,11211,Siobahn Keys,2127887476,http://www.grownyc.org/greenmarket,Thursday  8am-4pm,July 1-November 18,M,Y,Y,N,Y,40.70643,-73.96211,"(40.70643, -73.96211)"
Rensselaer,East Greenbush Farmers' Market,"East Greenbush Library, 10-20 Community Way",10 Community Way,East Greenbush,NY,12061,Shannon Romanowski,5184772570,http://www.eastgreenbushlibrary.org,Wednesday  4pm-7pm,June 9-September 29,M,Y,N,N,Y,42.619,-73.69488,"(42.619, -73.69488)"
Rockland,Nyack Farmers' Market,119 Main St. Municipal Parking Lot,Main St and Franklin St,Nyack,NY,10960,Roger Cohen,8453532221,http://www.nyackchamber.org,Thursday  8am-2pm,Year-round,YR,Y,Y,N,Y,41.09154,-73.9216,"(41.09154, -73.9216)"
Monroe,Curbside Market-Manhattan Sq Family Medicine,454 E Broad St Rochester 14607,454 E Broad St,Rochester,NY,14607,Camille Verbofsky,5854135077,http://www.foodlinkny.org,"Thu 1:15pm-2:30pm, closed July 1",June 3-November 25,M,Y,Y,N,Y,43.15531,-77.59957,"(43.15531, -77.59957)"
Cayuga,Dragonfly Hill Farm Farm Stand,3984 Austin Rd Moravia,3984 Austin Rd,Moravia,NY,13118,Rebecca Davis,3155188163,,Daily 9am-5pm,Year-round,YR,N,N,N,Y,42.6992,-76.47732,"(42.6992, -76.47732)"
Genesee,Genesee Country Tuesday Farmers' Market,Bank St. at Alva Place Batavia,Bank St and Alva Place,Batavia,NY,14020,Sharon Brent,7165600853,,Tuesday 9am-4pm,June 4-October 29,M,Y,Y,Y,Y,42.99905,-78.18151,"(42.99905, -78.18151)"
Monroe,Curbside Market-Keeler Apts,501 Seneca Manor Dr. Rochester,501 Seneca Manor Dr.,Rochester,NY,14621,Camille Verbofsky,5854135077,http://www.foodlinkny.org,Wed 2:30pm-4pm,June 2-November 24,M,Y,Y,N,Y,43.19395,-77.60168,"(43.19395, -77.60168)"
Monroe,Curbside Market-Charlotte Harbortower II,60 River St. Rochester,60 River Street,Rochester,NY,14612,Camille Verbofsky,5854135077,http://www.foodlinkny.org,"Fri 2:45pm-4pm, closed June 18 & July 2",June 4-November 26,M,Y,Y,N,Y,43.2444,-77.61607,"(43.2444, -77.61607)"
Kings,Bensonhurst Greenmarket,8118 18th Ave. btwn 81st & 82nd Sts.,8100 18th Ave,Brooklyn,NY,11214,Siobahn Keys,2127887476,http://www.grownyc.org/greenmarket,Sunday  9am-4pm,May 30-November 21,M,Y,Y,N,Y,40.60958,-73.99944,"(40.60958, -73.99944)"
Orange,Newburgh Farmers Market,95-107 Broadway,95-107 Broadway,Newburgh,NY,12550,Sember Weinman,8452314424,http://www.facebook.com/newburghnyfarmersmarket,Saturday  9am-2pm,June 12-November 20,M,Y,Y,Y,Y,41.49992,-74.0112,"(41.49992, -74.0112)"
Albany,Farmers' Market at the Crossings,580 Albany Shaker Rd. Loudonville,580 Albany Shaker Rd,Colonie,NY,12211,Laura Archambault,5187832760,http://www.colonie.org,Saturday  9am-1pm,May 15-September 25,P/M,Y,N,N,Y,42.71016,-73.78029,"(42.71016, -73.78029)"
Kings,Harvest Home Brower Park Farm Stand,Prospect Place & Brooklyn Ave. Next to Brooklyn Childrens Museum,Prospect Place and Brooklyn Ave.,Brooklyn,NY,11213,Maritza Owens,2128283361,http://www.harvesthomefm.org,Thursday  8am-4pm,June 17-November 18,M,Y,Y,N,Y,40.674,-73.94454,"(40.674, -73.94454)"
Broome,Vestal Farmers' Market,"Library parking lot, near museum, 320 Vestal Pkwy East (Rt. 434)",320 Vestal Pkwy East,Vestal,NY,13850,MaKenzie Darrow,6072065742,http://www.facebook.com/VestalFarmersMarket,Sat/Wed  9am-1pm,May 29-November 25,P/M,Y,N,N,Y,42.087322,-76.045678,"(42.087322, -76.045678)"
New York,Harvest Home Harlem Hospital Farmers' Market,"506 Lenox Ave. , Btwn W 135th & W 137th Sts.",137th Street and Lennox Avenue,New York,NY,10037,Maritza Owens,2128283361,http://www.harvesthomefm.org,Friday  8am-5pm,June 18-November 19,M,Y,Y,N,Y,40.81539,-73.93985,"(40.81539, -73.93985)"
Cortland,Dave's Veggies Farm Market,5178 NYS Route 41 Homer,5178 NY-41,Homer,NY,13077,David Root,6075430226,,"Daily  10am-6pm, Sep-Oct  12pm-6pm",May 8-October 31,P/M,Y,Y,N,Y,42.659118,-76.203042,"(42.659118, -76.203042)"
Rensselaer,Veggie Mobile Sprout-Burns Apts,720 Federal St. Troy,720 Federal Street,Troy,NY,12180,Audrey Bridge,5182748685,http://www.capitalroots.org,Thu  12:30pm-1:15pm,Year-round,YR,Y,Y,Y,Y,42.733148,-73.684555,"(42.733148, -73.684555)"
Ontario,Curbside Market-80 Parrish St. Apt,80 Parrish Street Canandaigua,80 Parrish Street,Canandaigua,NY,14424,Camille Verbofsky,5854135077,http://www.foodlinkny.org,Tue 11:15am-12:15am,June 1-November 23,M,Y,Y,N,Y,42.8789,-77.27981,"(42.8789, -77.27981)"
Lewis,Lowville Farmers' Market,Lewis County Fairgrounds 5485 Bostwick St.,5485 Bostwick Street,Lowville,NY,13367,Rhonda Farney,3153466759,,Saturday  8am-2pm,June 5-October 30,M,Y,N,N,Y,43.79484,-75.48769,"(43.79484, -75.48769)"
Rockland,Palisades Indoor WINTER Farmers' Market,"Palisades Community Center, 675 Oak Tree Rd",675 Oak Tree Rd,Palisades,NY,10964,Carol Baxter,8453593988,http://www.palisadesfm.org,Saturday  9am-1pm,December 7-May,W/P,N,N,N,Y,41.011524,-73.917671,"(41.011524, -73.917671)"
Westchester,Pleasantville Farmers' Market,"Memorial Plaza parking lot, off Manville Rd. next to Train Station",Manville Rd and Wheeler Ave,Pleasantville,NY,10570,Steven Bates,9142054545,http://www.pleasantvillefarmersmarket.org,Saturday  8:30am-1pm,Year-round,YR,Y,Y,N,Y,41.13526,-73.79218,"(41.13526, -73.79218)"
Saratoga,Veggie Mobile Sprout-John S. Moore,2 Harris Ave. Mechanicville,2 Harris Avenue,Mechanicville,NY,12118,Audrey Bridge,5182748685,http://www.capitalroots.org,Fri 3pm-3:30pm,Year-round,YR,Y,Y,Y,Y,42.89934,-73.69122,"(42.89934, -73.69122)"
Chautauqua,Westfield Farmers and Artisans Market,Moore Park Rt 20 and Rt 394,Rt 20 and Rt 394,Westfield,NY,14787,Kathleen Mayer,7167530367,http://www.westfieldny.com/farmers-market,Saturday  9am-2pm,May 29-September 25,P/M,N,N,N,Y,42.32203,-79.57812,"(42.32203, -79.57812)"
Fulton,Gloversville Farmers' Market,Elm Street Pavilion,9 Elm Street,Gloversville,NY,12078,Michael Tillson,5188829306,http://www.fmfma.org,Sat  8:30am-12:30pm,May 8-October 16,P/M,Y,N,N,Y,43.052604,-74.345796,"(43.052604, -74.345796)"
New York,Harvest Home Lenox Ave. Farmers' Market,Lenox Ave. btwn W 117th & W 118th Sts. New York,150 Lenox Avenue,New York,NY,10027,Maritza Owens,2128283361,http://www.harvesthomefm.org,Saturday  8am-4pm,June 26-November 20,M,Y,Y,N,Y,40.80295,-73.9489,"(40.80295, -73.9489)"
Herkimer,Salisbury Farmers' Market,"126 State Route 29A Salibury Center, Town Hall Parking Lot",126 State Route 29A,Salisbury Center,NY,13329,Gina Thompson,3154299102,,Friday  9am-1pm,May 28-October 8,P/M,Y,N,N,Y,43.14304,-74.78544,"(43.14304, -74.78544)"
New York,Abingdon Square Greenmarket,601 Hudson St. at W 12th St.,Hudson St and W 12 St,New York,NY,10014,Siobahn Keys,2127887476,http://www.grownyc.org/greenmarket/manhattan/abingdon-square,Saturday  8am-2pm,Year-round,YR,Y,Y,N,Y,40.73755,-74.00568,"(40.73755, -74.00568)"
Saratoga,Ballston Spa Saturday Farmers' Market,"Brookside Museum, 6 Charlton st.",6 Charlton st.,Ballston Spa,NY,12020,Nora Osuchowski,5185989222,https://www.ballston.org/category/farmers-market,Saturday  9am-12pm,June 12-September 25,M,Y,N,N,Y,43.00221,-73.85507,"(43.00221, -73.85507)"
Clinton,Rouses Point Farmers' Market,Dodge Memorial Library 144 Lake St.,144 Lake Street,Rouses Point,NY,12979,Jim Rabideau,5182983878,,Friday  3pm-7pm,June 18-September 24,M,Y,N,N,Y,44.99038,-73.36434,"(44.99038, -73.36434)"
Monroe,Village of Fairport Farmers' Market,"58 S. Main St. parking lot, behind Bank of America",58 South Main St,Fairport,NY,14450,Bryan White,,http://www.fairportny.com,Saturday  7am-12pm,May 8-November 20,P/M,Y,N,N,Y,43.09992,-77.44214,"(43.09992, -77.44214)"
Monroe,Curbside Market-Glenwood Gardens,41 Kestrel St. Rochester,41 Kestrel St,Rochester,NY,14613,Camille Verbofsky,5854135077,http://www.foodlinkny.org,Tue  3:30pm-4pm,June 1-November 23,M,Y,Y,N,Y,43.175465,-77.644124,"(43.175465, -77.644124)"
Kings,Red Hook Farm Stand I,"560 Columbia St. , Near the BASIS Independent School",560 Columbia St,Brooklyn,NY,11231,Saara Nafici,3475136774,http://www.added-value.org/farmers-market,Saturday  10am-3pm,June 19-November 20,M,Y,Y,N,Y,40.67237,-74.00884,"(40.67237, -74.00884)"
Nassau,Kennedy Plaza Long Beach Farmers' Market-Sat,1 West Chester St. Long Beach,1 West Chester St,Long Beach,NY,11561,Debbie Grattan,5163307149,http://www.ligreenmarket.org,Saturday  9am-2pm,May 29-November 20,P/M,Y,N,N,Y,40.58943,-73.66592,"(40.58943, -73.66592)"
Allegany,Belmont Farmers' Market,5429 NYS Route 19N,5429 NYS Route 19 N,Belmont,NY,14813,Debra Wagoner,5856108836,,Thursday  11am-4pm,June 3-October 14,M,Y,Y,Y,Y,42.2356,-78.05212,"(42.2356, -78.05212)"
Bronx,Eastchester GrowNYC Farm Stand,E 229th St at Schieffelin Ave Bronx,E 229th St at Schieffelin Ave,Bronx,NY,10466,Siobahn Keys,2127887476,http://www.grownyc.org,Thursday 9:30am-3pm,July 8-November 18,M,Y,Y,N,Y,40.88504,-73.84314,"(40.88504, -73.84314)"
Sullivan,Barryville Farmers' Market,3405 NY -97,3405 NY -97,Barryville,NY,12719,John Pizzolato,8455570913,,Saturday  10am-1pm,May 22-October 23,P/M,Y,N,N,Y,41.47847,-74.91539,"(41.47847, -74.91539)"
Erie,Elmwood Village Farmers' Market,Bidwell Parkway corner of Elmwood Ave.,Elmwood Ave and Bidwell Pkwy,Buffalo,NY,14222,James Chichocki,7168810707,http://www.elmwoodmarket.org,Saturday  8am-1pm,May 8-November 27,P/M,Y,Y,N,Y,42.92371,-78.87702,"(42.92371, -78.87702)"
Schoharie,Schoharie Co. Festival Sat Farmers' Market,"McCarthy Tire Center parking lot, 942 E. Main Rt. 7E Cobleskill",942 E. Main Rt. 7E,Cobleskill,NY,12043,Donna Olsen,5182842609,,Saturday  10am-2pm,July 10-October 9,M,Y,Y,N,Y,42.68005,-74.46673,"(42.68005, -74.46673)"
New York,Soul to Soul Community Farm Stand,Adam Clayton Powell Jr. Blvd between 110th and 111th St.,1809 Adam Clayton Powell Jr. Blvd,New York,NY,10026,Marlow White,6464984764,,Thu-Fri  11am-5pm,Year-Round,YR,Y,Y,N,Y,40.79967,-73.95481,"(40.79967, -73.95481)"
Monroe,Curbside Market-Dunn Towers,100 Dunn Tower Dr. Rochester,100 Dunn Tower Drive,Rochester,NY,14606,Camille Verbofsky,5854135077,http://www.foodlinkny.org,"Thu 11am-12pm, closed July 1",June 3-November 25,M,Y,Y,N,Y,43.16924,-77.69727,"(43.16924, -77.69727)"
Cayuga,Auburn Thu Farmers' Co-op Market,96 State Street  Curley's Restaurant Pkg Lot,96 State Street,Auburn,NY,13021,Mark Soper,3157048609,http://www.auburnfarmerscoopmarketinc.com,Thu 7am-2pm,June 3-October 28,M,Y,Y,Y,Y,42.93401,-76.57007,"(42.93401, -76.57007)"
Onondaga,Baltimore Woods WINTER Farmers' Market,"Baltimore Woods Nature Center, 4007 Bishop Hill Road",4007 Bishop Hill Road,Marcellus,NY,13108,Sue Jones,3156731350,,2nd Saturday  10am-1pm,November-April,M/X/W/P,N,N,N,Y,42.964885,-76.344609,"(42.964885, -76.344609)"
Franklin,JCEO MM-Owls Head,Old Catholic Church 	197 Rte 27 Owls Head,197 ounty Route27,Owls Head,NY,12969,Richard LaVigne,5183194028,http://www.jceo.org,Wed  12:30pm-2:00pm,June 2-September 29,M,Y,Y,N,Y,44.69206,-74.11341,"(44.69206, -74.11341)"
Niagara,Lockport Community WINTER Farmers' Market,210 Walnut St.,210 Walnut Street,Lockport,NY,14094,Jessica Dittly,7164340212,http://www.lockportcommunitymarket.com,1st & 3rd Saturday  10am-2pm,November 7-May 15,M/X/W/P,N,Y,N,Y,43.16982,-78.68755,"(43.16982, -78.68755)"
Ulster,Seed Song Farm Stand,160 Esopus Ave Kingston,160 Esopus Ave,Kingston,NY,12401,Creek Iverson,8453831528,http://www.seedsongfarm.org,"Daily 10am-6pm, Winter hours change November",Year-round,YR,N,N,N,Y,41.9556,-74.0067,"(41.9556, -74.0067)"
Onondaga,Downtown Syracuse Farmers' Market,Clinton Square,Clinton St and Water St,Syracuse,NY,13202,Charles McFadden,3154228284,http://www.downtownsyracuse.com,Tuesday  8am-2pm,June 8-October 12,M,Y,Y,N,Y,43.05054,-76.15354,"(43.05054, -76.15354)"
Madison,Cazenovia Farmers Market,Emory and Greene St.  Village Green,48 Albany St. Memorial Park,Cazenovia,NY,13035,Anna Marie Newland,3156559243,http://www.cazenoviachamber.com,Saturday  9am-2pm,May 8-October 23,P/M,Y,N,N,Y,42.92975,-75.85456,"(42.92975, -75.85456)"
Albany,Veggie Mobile-South Mall Towers,101 S. Pearl St. Albany,101 South Pearl Street,Albany,NY,12207,Audrey Bridge,5182748685,http://www.capitalroots.org,Fri  11am-12:15pm,Year-round,YR,Y,Y,Y,Y,42.6465,-73.75482,"(42.6465, -73.75482)"
Dutchess,Pawling Farmers' Market,Pawling Village Green Charles Colman Blvd.,154 Charles Colman Blvd.,Pawling,NY,12564,Betsy Montgomery,9149418762,http://www.pawlingfarmersmarket.org,Saturday  9am-1pm,June 12-September 25,M,Y,N,N,Y,41.56315,-73.60143,"(41.56315, -73.60143)"
Erie,Huntington Farm Stand II,11503 Main Street Clarence,11503 Main Street,Clarence,NY,14031,Dan Huntington,7163930590,,Daily  11am-7pm,June 10-October 15,M,Y,N,N,Y,42.98909,-78.55762,"(42.98909, -78.55762)"
Allegany,White Valley Farm Stand,381 Heselton Rd. Whitesville,381 Heselton Road,Whitesville,NY,14897,Justin Ellison,5858086061,,Sat/Sun  10pm-5pm,June 1-November 1,M,Y,N,N,Y,42.01631,-77.84727,"(42.01631, -77.84727)"
Chenango,Oxford WINTER Farmers' Market,"St. Paul's Parish House Comm Ctr, 34 Main St. Oxford",34 Main St.,Oxford,NY,13830,Mina Takahashi,6072266843,,1st Saturday  10am-1pm,November-April,M/X/W/P,N,N,N,Y,42.440234,-75.594121,"(42.440234, -75.594121)"
Orleans,Panek's Pickin' Patch,13420 W County House Rd  Albion,13420 W County House Rd.,Albion,NY,14411,Guinevere Panek,5855902356,http://www.panekspickinpatch.com,Daily  9am-6pm,June 5-October 31,M,Y,N,N,Y,43.21866,-78.2551,"(43.21866, -78.2551)"
Kings,6th Ave. Sunset Park Greenmarket,602 44th St. at 6th Ave.,44th Street at 6th Avenue,Brooklyn,NY,11220,Siobahn Keys,2127887476,http://www.grownyc.org/greenmarket,Saturday  8am-3pm,Year-round,YR,Y,Y,N,Y,40.64711,-74.00463,"(40.64711, -74.00463)"
Seneca,Waterloo Rotary Farmers' Market,"22 Locust Street, parking lot near Save a Lot",22 Locust Street,Waterloo,NY,13165,Patti Paine,3152243826,http://www.waterloofarmmarket.com,Saturday  9am-1pm,June 19-October 2,M,Y,Y,Y,Y,42.90253,-76.86587,"(42.90253, -76.86587)"
Putnam,R & G Produce Farm Stand,997 NY Route 22 Brewster,997 NY Route 22,Brewster,NY,10509,Mike Miller,5182095391,,Saturday  8am-3pm,May 29-November 20,P/M,Y,Y,N,Y,41.39785,-73.60218,"(41.39785, -73.60218)"
Kings,Hattie Carthan Community Farmers' Market,363-365 Clifton Place Brooklyn,365 Clifton Pl,Brooklyn,NY,11216,David Greaves,2125617327,http://www.hattiecarthancommunitymarket.com,"Sat  9am-3pm, Thu  1pm-6pm",July 10-November 21,M,Y,Y,N,Y,40.68965,-73.94879,"(40.68965, -73.94879)"
Franklin,JCEO MM-Waverly Municipal Lot,"6 North Main St St Regis Falls, Municipal Complex",6 North Main St,St. Regis Falls,NY,,Richard LaVigne,5183194028,http://www.jceo.org,Tues 9:30am-11:30am,June 2-October 13,M,Y,Y,N,Y,44.67281,-74.54355,"(44.67281, -74.54355)"
New York,57th Street Wednesday Greenmarket,475 W 57th St. @ 58th St.,891 Tenth Ave,New York,NY,10019,Siobahn Keys,2127887476,http://www.grownyc.org/greenmarket,Wednesday 8am-5pm,June 5-November 20,P/M,Y,Y,N,Y,40.7695,-73.98841,"(40.7695, -73.98841)"
Cattaraugus,Perfectly Blended Farm Farm Stand,3819 Riceville Rd. Machias,3819 Riceville Rd,Machias,NY,14101,Melissa Keller,7162580645,http://www.perfectlyblendedfarm.com,Sat  10am-2pm,May 1-October 30,P/M,Y,N,N,Y,42.43378,-78.51896,"(42.43378, -78.51896)"
Ulster,Heart of the Hudson Valley Farmers' Market,Cluett-Schantz Park 1801-1805 Rt 9W Milton,1801-1805 Rt 9W,Milton,NY,12547,Sheila Mannese,8456167824,http://www.hhvfarmersmarket.com,Saturday  9am-2pm,June 19-October 2,M,Y,N,N,Y,41.65312,-73.96193,"(41.65312, -73.96193)"
Onondaga,Skaneateles Farmers' Market-Thursday,1 East Austin St. Austin Park Pavilion,One E. Austin St,Skaneateles,NY,13152,Sue Murphy,3157279320,http://www.townofskaneateles.com,Thu  3:30pm-6:30pm,May 27-September 14,P/M,Y,N,N,Y,42.95089,-76.4309,"(42.95089, -76.4309)"
Clinton,JCEO MM-Churubusco Senior Center,23 Smith St. Churubusco,23 Smith St.,Churubusco,NY,12934,Richard LaVigne,5183194028,http://www.jceo.org,Monday 10am-11:45am,June 7-September 27,M,Y,Y,N,Y,44.95591,-73.92805,"(44.95591, -73.92805)"
Monroe,Rochester Public Market -Tuesday,280 N. Union St. off East Main St.,280 North Union St.,Rochester,NY,14609,Cindy De Coste,5854286907,http://www.cityofrochester.gov/publicmarket,Tuesday  6am-1pm,Year-round,YR,Y,Y,Y,Y,43.1657,-77.59016,"(43.1657, -77.59016)"
Westchester,TaSH Farmers' Market,Patriots Park Route 9  Sleepy Hollow,Patriots Park Route 9,Sleepy Hollow,NY,10591,Linda Eder,9144717437,http://www.tashfarmersmarket.org,Saturday  8:30am-1:30pm,May 29-December 4,P/M/W,Y,Y,N,Y,41.08525,-73.85924,"(41.08525, -73.85924)"
Suffolk,Bethel Hobbs Community Farm Stand,178 Oxhead Rd.  Centereach,178 Oxhead Road,Centereach,NY,11720,Ann Pellegrino,6317741556,http://www.hobbsfarm.info,Saturday  10am-3pm,June 12-October 9,P/M,Y,N,N,Y,40.872,-73.09635,"(40.872, -73.09635)"
Rensselaer,Veggie Mobile-Renwyck Place,18 4th Ave. Rensselaer,18 4th Ave,Rensselaer,NY,12144,Audrey Bridge,5182748685,http://www.capitalroots.org,Thu 11:30am-12pm,Year-round,YR,Y,Y,Y,Y,42.63925,-73.73936,"(42.63925, -73.73936)"
Orange,West Point/Town of Highlands Farmers' Market,"Main St. Municipal lot Highland Falls, across from Visitor's Center",Main St and Cozzens Ave,Highlands,NY,10928,Joanne Devereaux,8454466969,,Sunday  9am-2pm,June 13-October 31,M,Y,N,N,Y,41.3723,-73.96434,"(41.3723, -73.96434)"
Queens,Forest Park  GrowNYC Farm Stand,Myrtle Ave. and Park Lane South Richmond Hill,Myrtle Ave,Richmond Hill,NY,11418,Siobahn Keys,2127887476,https://www.grownyc.org/farmstands,Saturday 8:30am-3pm,July 10-November 20,M,Y,Y,N,Y,40.70109,-73.84191,"(40.70109, -73.84191)"
Schenectady,Schenectady WINTER Greenmarket,"Proctors Theater, 432 State St.",432 State St.,Schenectady,NY,12305,Erika Baer,5189860318,https://www.schenectadygreenmarket.com,Sunday  10am-2pm,"December 5-April 24, 2022",X/W/P,N,Y,N,Y,42.812373,-73.941802,"(42.812373, -73.941802)"
Orange,Sleepy Hills Orchard Farm Stand,1328 Route 284 Johnson,1328 Route 284,Johnson,NY,10933,Amy King,8457263797,http://www.sleepyhillsorchard.com,Daily  9am-6pm,July 8-November 24,M,Y,N,N,Y,41.35818,-74.50442,"(41.35818, -74.50442)"
Monroe,Irondequoit Farmers' Market,Town Hall Lawn  1280 Titus Ave. Rochester,1280 Titus Ave,Rochester,NY,14617,Don Sinton,5853366073,http://www.irondequoit.org,Thursday  4pm-8pm,May 27-October 14,P/M,Y,Y,Y,Y,43.21118,-77.58154,"(43.21118, -77.58154)"
Monroe,Brockport Farmers' Market,Market St. off Main St. Brockport,Main St and Market St,Brockport,NY,14420,Charlene Veltz,5857503382,http://www.brockportny.org/community/farmers-market,Sunday  8am-1pm,June 20-October 31,M,Y,N,N,Y,43.21556,-77.9385,"(43.21556, -77.9385)"
Jefferson,Clayton Chamber of Commerce Farmers' Market,Village Park Circle 425 Mary St.,425 Mary Street,Clayton,NY,13624,Tricia Bannister,3156863771,http://www.1000islands-clayton.com,Thursday  10am-4pm,June 3-October 14,M,Y,N,N,Y,44.23992,-76.08508,"(44.23992, -76.08508)"
Rensselaer,Veggie Mobile Sprout-Patroons  Dorp Apts,Fowler Ave. & First St. Rensselaer,fowler ave and first street,Rensselaer,NY,12144,Audrey Bridge,5182748685,http://www.capitalroots.org,Tue 3:15pm-4pm,Year-round,YR,Y,Y,Y,Y,42.65482,-73.73432,"(42.65482, -73.73432)"
Steuben,Bath Wednesday Farmers' Market,Pulteney Square Park Steuben St.,Steuben St and Liberty St,Bath,NY,14810,Hazel Buck,6077943494,,Wednesday  9am-2pm,May 5-October 27,P/M,Y,Y,N,Y,42.33353,-77.31842,"(42.33353, -77.31842)"
Monroe,Curbside Market-Rochester View Apartments,4365 W Henrietta Road Henrietta,4365 W Henrietta Road,Henrietta,NY,14467,Camille Verbofsky,5854135077,http://www.foodlinkny.org,Wed 3pm-4pm,June 2-November 24,M,Y,Y,N,Y,43.06563,-77.64833,"(43.06563, -77.64833)"
Westchester,Bowen Farm Stand,14 N Columbus Ave. Mt. Vernon,14 North Columbus Ave.,Mount Vernon,NY,10553,Ruth Crosby,9144821749,,Tue-Sat  10am-8pm,July 15-November 30,M,Y,N,N,Y,40.9125,-73.82372,"(40.9125, -73.82372)"
Erie,Common Roots Urban Farm Stand,309 Peckham St  Buffalo,309 Peckham St,Buffalo,NY,14206,Terra Dumas,7162929109,http://www.commonrootsurbanfarm.com,"Sat  11am-3pm, Wed  4pm-6pm",June 5-October 2,M,Y,Y,N,Y,42.88783,-78.84284,"(42.88783, -78.84284)"
Tompkins,Freeville Farmers Market,43 Main St Freeville,43 Main St.,Freeville,NY,13068,Lily Gershon,7328220415,,Sunday  12pm-2pm,May 16-September 19,P/M,Y,N,N,Y,42.51179,-76.35084,"(42.51179, -76.35084)"
Niagara,Becken Farms Farm Stand,2585 Upper Mt. Rd Sanborn,2585 Upper Mt. Rd,Sanborn,NY,14132,Elaine Becken,7163164951,,"Wed-Sat  9am-6pm, Sun  11am-4pm",May 1-October 31,P/M,Y,Y,N,Y,43.16823,-78.90518,"(43.16823, -78.90518)"
Albany,South End Healthy Farmers' Market,Warren St between Phillip and Grand  Albany,20 Warren Street,Albany,NY,12202,Tom McPheeters,5184519849,,Thursday  3pm-8pm,April 29-October 28,P/M,Y,Y,N,Y,42.64326,-73.7599,"(42.64326, -73.7599)"
Franklin,JCEO MM-Citizen Advocates,125 Finney Blvd Malone,125 Finney Blvd,Malone,NY,12953,Richard LaVigne,5183194028,http://www.jceo.org,Friday 10am-11:30am,June 4-October 1,M,Y,Y,N,Y,44.84193,-74.30111,"(44.84193, -74.30111)"
New York,PS 57  GrowNYC Farm Stand,115th St. and 3rd Ave.,115th St. and 3rd Ave,New York,NY,10029,Siobahn Keys,2127887476,https://www.grownyc.org/farmstands,Wed  9:30am-4pm,July 7-November 24,M,Y,Y,N,Y,40.79727,-73.94051,"(40.79727, -73.94051)"
Bronx,Parkchester Greenmarket,1878 Cross Bx Service Rd South Bronx,White Plains Rd & Westchester Avet,Bronx,NY,10472,Siobahn Keys,2127887476,http://www.grownyc.org/greenmarket,Friday  8am-4pm,June 18-November 26,M,Y,Y,N,Y,40.83319,-73.86257,"(40.83319, -73.86257)"
Nassau,The Garden at St. Francis Farm Stand,1692 Bellmore Ave  N. Bellmore,1692 Bellmore Ave,North Bellmore,NY,11710,Chris McCabe,5166791184,http://www.stfrancisbellmore.org/the-garden,Sunday  11am-2pm,June 30-October 31,M,Y,N,N,Y,40.68156,-73.53528,"(40.68156, -73.53528)"
Erie,MAP Mobile Market-Belle Center,The Belle Center,104 Maryland Street,Buffalo,NY,14201,Danielle Rovillo,7168825327,,Friday 10am-12pm,June 4-December 31,M/X,Y,Y,N,Y,42.89424,-78.88836,"(42.89424, -78.88836)"
Suffolk,Rocky Point Farmers' & Artisan Market,Old Depot Park Prince & Broadway,115 Prince Road,Rocky Point,NY,11778,Virginia Heslin,6317445787,,Sunday  8am-1pm,June 6-November 21,M,Y,N,N,Y,40.94927,-72.92391,"(40.94927, -72.92391)"
Dutchess,Share the Bounty Farm Stand,"Hudson River Healthcare , 3360 Route 343 Amenia",3360 Route 343,Amenia,NY,12501,Edward Frederick,8452067526,,Tuesday  9am-1pm,June 30-October 30,M,Y,N,N,Y,41.85035,-73.55065,"(41.85035, -73.55065)"
Sullivan,Sullivan Fresh Monticello Farmers' Market,10 Jefferson St Monticello,512 Broadway,Monticello,NY,12701,Melinda Meddaugh,8452926180,http://www.sullivancce.org,Monday 10:30pm-1pm,July 5-September 27,M,Y,Y,Y,Y,41.65611,-74.69106,"(41.65611, -74.69106)"
Oneida,Remsen Farmers' Market,9639 Main St.,9639 Main Street,Remsen,NY,13438,Erin Corrigan,3157902435,,Saturday  9am-1pm,June 5-October 2,M,Y,Y,N,Y,43.32853,-75.18683,"(43.32853, -75.18683)"
Queens,Queens County Farm Museum Farm Stand,73-50 Little Neck Parkway Floral Park,73-50 Little Neck Parkway,Queens,NY,11004,Anne Mastrogiacomo,7183473276,http://www.queensfarm.org,"Wed-Fri  11am-3pm, Sat-Sun  11am-5pm",May 12-November 7,P/M,Y,Y,N,Y,40.74818,-73.72124,"(40.74818, -73.72124)"
Columbia,Kinderhook Farmers' Market,Kinderhook Village Square 1 Hudson St,US Route 9 and Hudson St,Kinderhook,NY,12106,Kim Voltz,5187559293,http://www.kinderhookfarmersmarket.com,Sat  8:30am-12:30pm,May 8-October 9,P/M,Y,N,N,Y,42.3954,-73.69817,"(42.3954, -73.69817)"
Monroe,Rochester Public Market -Thursday,280 N. Union St. off East Main St.,280 North Union St.,Rochester,NY,14609,Cindy De Coste,5854286907,http://www.cityofrochester.gov/publicmarket,Thursday  6am-1pm,Year-round,YR,Y,Y,Y,Y,43.1657,-77.59016,"(43.1657, -77.59016)"
Oswego,Godfrey's Last Stand Farm Stand,1232 State Route 264  Phoenix,1232 State Route 264,Phoenix,NY,13135,Roberta and Josephine Godfrey,3155937291,,Daily  10am-5pm,May 1-December 20,P/M/X,Y,Y,N,Y,43.31155,-76.29001,"(43.31155, -76.29001)"
Kings,McGolrick Park Farmers' Market,"130 Russell St. Brooklyn, Center Pavillion in McGolrick Park",130 Russell Street,Brooklyn,NY,11222,Mahalia Dees,9149234837,http://www.downtoearthmarkets.com,Sunday  10am-3pm,May 16-December 18,P/M/X,Y,Y,N,Y,40.72483,-73.94432,"(40.72483, -73.94432)"
Queens,Cunningham Park Farmers' Market,"196-10 Union Tpke, Fresh Meadows, NE corner parking lot near 196th Pl",196-10 Union Turnpike,Fresh Meadows,NY,11366,Mahalia Dees,9149234837,http://www.downtoearthmarkets.com,Sunday  9am-2pm,May 9-December 19,P/M/X,Y,Y,N,Y,40.73056,-73.77346,"(40.73056, -73.77346)"
Delaware,Franklin Farmers' Market,Chapel Hall 25 Institute St.,25 Institute St.,Franklin,NY,13775,Brian Brock,5187060612,,Sunday  10am-2pm,May 30-October 10,M,Y,N,N,Y,42.33901,-75.1672,"(42.33901, -75.1672)"
Jefferson,Watertown Farm & Craft Market,"317 Washington Street , State Office Building Plaza",317 Washington Street,Watertown,NY,13601,Kylie Peck,3157884400,http://www.watertownny.com,Wed 7am-3pm,May 26-October 6,P/M,Y,Y,N,Y,43.97173,-75.91116,"(43.97173, -75.91116)"
Montgomery,Clancy Farms Farm Stand,265 Heiser Road Fort Plain,265 Heiser Road,Fort Plain,NY,13339,David Clancy,5189934806,,"Mon-Fri  11am-4pm, Sat  1pm-5pm",June 14-October 15,M,Y,N,N,Y,42.91494,-74.62885,"(42.91494, -74.62885)"
Chautauqua,Abers Acres Farm Stand,884 Route 394  Kennedy,884 Rte. 394,Kennedy,NY,14747,Sue Abers,7162672431,http://www.abersacres.com,"Daily 9am-6:30pm, Nov-May 10am-5pm",Year-round,YR,Y,Y,N,Y,42.14495,-79.10996,"(42.14495, -79.10996)"
Schenectady,Veggie Mobile-Hometown Health Ctr,1044 State Street Schenectady,1044 State Street,Schenectady,NY,12307,Audrey Bridge,5182748685,http://www.capitalroots.org,Mon 2pm-2:45pm,Year-round,YR,Y,Y,Y,Y,42.8014,-73.9278,"(42.8014, -73.9278)"
Franklin,JCEO MM-Rainbow Park,"2454 Chateaugay St Fort Covington, Fire Dept Parking lot",2478 Rte 37,Fort Covington,NY,12937,Richard LaVigne,5183194028,http://www.jceo.org,Tue  10am-12pm,June 1-September 28,M,Y,Y,N,Y,44.98837,-74.49625,"(44.98837, -74.49625)"
Saratoga,Clifton Park Farmers' Market,971 Rt. 146 Shenendehowa Methodist Church Clifton Park,971 State Route 146,Clifton Park,NY,12065,Emily Meagher,5187083698,http://www.saratogafarmersmarket.org,Monday  2pm-5pm,June 7-October 25,M,Y,N,N,Y,42.8688,-73.80859,"(42.8688, -73.80859)"
Wyoming,Plato Dale Farm Stand,5401 Curriers Road  Arcade NY,5401 Curriers Road,Arcade,NY,14009,Kent Miller,5854571358,http://platodalefarm.com,9am-6pm  Daily,Year-Round,YR,Y,N,N,Y,42.63228,-78.4172,"(42.63228, -78.4172)"
Otsego,Cooperstown Tuesday Farmers' Market,101 Main Street in Pioneer Alley near Keybank,101 Main Street,Cooperstown,NY,13326,Ellen Pope,6075478881,http://www.cooperstownfarmersmarket.org,Tuesday  12pm-5pm,July 1-September 30,M,Y,Y,Y,Y,42.70063,-74.92524,"(42.70063, -74.92524)"
Wayne,Ginegaw Farmers' Market,1980 Walworth Penfield Rd.,1980 Walworth Penfield Rd.,Walworth,NY,14568,Jacqueline VanLare,3159861400,http://www.townofwalworthny.gov,Tuesday  2:30pm-6:00pm,June 15-October 12,M,Y,N,N,Y,43.1391,-77.28549,"(43.1391, -77.28549)"
Rockland,Haverstraw Farmers' Market,40 New Main St. Haverstraw Village Hall,New Main St and Maple Ave,Haverstraw,NY,10927,Elaine Fernandez,8454290300,https://voh-ny.com/faq,Sunday  9am-1pm,June 13-October 31,M,Y,N,N,Y,41.19639,-73.96645,"(41.19639, -73.96645)"
Washington,Fort Edward Farmers' Market,Broadway Lanes 359 Broadway Route 4,359 Broadway,Fort Edward,NY,12828,Linda Gifford,5187961686,,Friday  10am-1pm,June 18-October 29,M,Y,N,N,Y,43.28393,-73.58721,"(43.28393, -73.58721)"
Queens,Ditmars Park GrowNYC Farm Stand,Ditmars Park on Steinway St. Long Island City,22-00 Steinway St.,Queens,NY,11105,Siobahn Keys,2127887476,https://www.grownyc.org/farmstands,Saturday  9:30am-2pm,July 10-November 20,M,Y,Y,N,Y,40.77165,-73.90699,"(40.77165, -73.90699)"
Suffolk,Islip Farmers' Market,"Town Hall Pkg lot , 655 Montauk Hwy Rt 27A",655 Main Street,Islip,NY,11751,Ethel Terry,6313233653,http://www.longislandgrowersmarket.com,Saturday 7am-12pm,June 5-November 20,M,Y,N,N,Y,40.72975,-73.21077,"(40.72975, -73.21077)"
Saratoga,Veggie Mobile Sprout-Mechanicville Sr Center,178 North Main Street Mechanicville,178 North Main Street,Mechanicville,NY,12118,Audrey Bridge,5182748685,http://www.capitalroots.org,Fri 2pm-2:45pm,Year-round,YR,Y,Y,Y,Y,42.90829,-73.68374,"(42.90829, -73.68374)"
Greene,Stoneledge Farm Stand,145 Garcia Lane Leeds,145 Garcia Lane,Leeds,NY,12451,Candice Kavakos,5188199966,http://www.stoneledge.farm,Sat/Sun  9am-3pm,January 4-October 10,W/P/M,Y,N,N,Y,42.27878,-73.95216,"(42.27878, -73.95216)"
Clinton,JCEO MM-Akwasasne Housing Authority,29 Business Park Rd Hoagansburg,29 business Park Rd,Hoagansburg,NY,12195,Richard LaVigne,5183194028,http://www.jceo.org,THU 10am-11:30am,June 3-September 30,M,Y,Y,N,Y,44.97626,-74.67137,"(44.97626, -74.67137)"
Tompkins,Jasper Meadows Farm Stand,"26 Palmear Road, Freeville",26 Palmear Road,Freeville,NY,13068,Charles and Madalyn Alridge,6077084327,,Mon/Wed/Fri 4pm-8pm,May 15-October 31,M,Y,N,N,Y,42.52078,-76.35776,"(42.52078, -76.35776)"
New York,Stuyvesant Town Greenmarket,East 14th St. Loop & Ave A South end of oval,1 Stuyvesant Oval,New York,NY,10009,Siobahn Keys,2127887476,http://www.grownyc.org/greenmarket,Sun  9:30am-4pm,May 16-December 19,P/M/X,Y,Y,N,Y,40.73146,-73.97875,"(40.73146, -73.97875)"
Wayne,Sodus Farmers' Market,Sodus Methodist Church 58 W. Main St.,58 West Main St,Sodus,NY,14551,Sandy Hall,3154838029,http://www.sutmc.org/sodus-farmers-market,Wed  2:30pm-6pm,July 16-October 13,M,Y,Y,Y,Y,43.23615,-77.06587,"(43.23615, -77.06587)"
Rensselaer,Veggie Mobile Sprout-Lansingburgh Apts,41 114th Street Troy,41 114th Street,Troy,NY,12182,Audrey Bridge,5182748685,http://www.capitalroots.org,Wed 2:30pm-3:15pm,Year-round,YR,Y,Y,Y,Y,42.77223,-73.67258,"(42.77223, -73.67258)"
Westchester,Hilltop Hanover Farm Farm Stand,1271 Hanover St Yorktown Heights,1271 Hanover St,Yorktown heights,NY,10598,Sophie Vranian,9149622368,http://www.hilltophanoverfarm.org,"Friday  1pm-6pm, Sat  10am-4pm",April 23-November 20,P/M,Y,N,N,Y,41.25159,-73.7724,"(41.25159, -73.7724)"
Orange,Soons Orchards Farm Stand,23 Soons Circle  New Hampton,23 Soons Circle,New Hampton,NY,10958,Sharon Soons,8453745471,http://www.soonsorchards.com,Daily  9am-6pm,Year-round,YR,Y,N,N,Y,41.40258,-74.40356,"(41.40258, -74.40356)"
Erie,MAP Mobile Market-Jericho Road Barton,Jericho Road Community Health Center - Barton Clinic,184 Barton Street,Buffalo,NY,14213,Danielle Rovillo,7168825327,,Tuesdays 11am-1pm,June 1-October 31,M,Y,Y,N,Y,42.9179,-78.89466,"(42.9179, -78.89466)"
Albany,Veggie Mobile Sprout-St. Sophia/Holy Wisdom,426 Whitehall Road Albany,440 Whitehall Road,Albany,NY,12208,Audrey Bridge,5182748685,http://www.capitalroots.org,Wed 12:15pm-12:35pm,Year-round,YR,Y,Y,Y,Y,42.65244,-73.81416,"(42.65244, -73.81416)"
Dutchess,Beacon Farmers' Market,223 Main St.,Veteran's Place,Beacon,NY,12508,Sember Weinman,8452314424,http://www.beaconfarmersmarket.org,Sunday  10am-3pm,May 2-November 21,P/M,Y,Y,Y,Y,41.50377,-73.96848,"(41.50377, -73.96848)"
St. Lawrence,Canton Tuesday Farmers' Market,Village Green Park 17 Park st at Main St.,Main St and Park St,Canton,NY,13617,Sonja Jenson,3156058133,,Tuesday  9am-2pm,May 11-October 26,P/M,Y,Y,N,Y,44.59564,-75.16921,"(44.59564, -75.16921)"
Sullivan,Liberty Farmers' Market,119 N Main Street   Creekside Park,119 N Main St,Liberty,NY,12754,Eugene Thalmann,6313327948,,Friday 3pm-6pm,June 18-September 17,M,Y,Y,Y,Y,41.80129,-74.74684,"(41.80129, -74.74684)"
Bronx,Harvest Home Hunts Point Farmers' Market,"Monsignor Del Valle Park, E. 163 St between Southern & Bruckner Blvds.",925 Hunts Point Ave.,Bronx,NY,10474,Maritza Owens,2128283361,http://www.harvesthomefm.org,Wednesday  8am-4pm,June 16-November 24,M,Y,Y,N,Y,40.82073,-73.89088,"(40.82073, -73.89088)"
New York,Chelsea Farmers' Market,"383 W 23rd St. btw 8th & 9th Aves., Sidewal on North side of 23rd St.",383 W 23rd Street,New York,NY,10011,Mahalia Dees,9149234837,http://www.downtoearthmarkets.com,Saturday  9am-3pm,May 15-December 18,P/M/X,Y,Y,N,Y,40.74633,-74.00081,"(40.74633, -74.00081)"
Queens,Rockaway Youth Task Force Farm Stand,310 Beach 58th Street,310 Beach 58th Street,Far Rockaway,NY,11691,Jazmine Outlaw,7188680386,http://www.rytf.org,Saturday  9am-3pm,July 3-November 27,M,Y,Y,N,Y,40.59453,-73.78803,"(40.59453, -73.78803)"
Sullivan,Rock Hill Farmers' Market,223 Rock Hill Drive,223 Rock Hill Drive,Rock Hill,NY,12775,Melinda Meddaugh,8452926180,http://www.rockhillfarmersmarket.com,Saturday  10am-1pm,June 5-September 25,M,Y,N,N,Y,41.62515,-74.59634,"(41.62515, -74.59634)"
Dutchess,Judson Farm Market FS,Route 22 Wingdale,Route 22,Wingdale,NY,12594,Richard Judson,8458326286,,Daily  10am-6pm,July 10-November 5,M,Y,N,N,Y,41.62978,-73.57399,"(41.62978, -73.57399)"
Cayuga,Centurion Farm Stand,287 Creek Road Locke,287 Creek Road,Locke,NY,13092,Jeff Saeli,6075925810,,Thu/Fri/Sat  9am-7pm,May 1-November 30,P/M,Y,N,N,Y,42.6309,-76.45455,"(42.6309, -76.45455)"
Dutchess,Arlington Farmers' Market,"Vassar College Alumni Lawn , 123 Raymond Ave. Poughkeepsie",123 Raymond Ave,Poughkeepsie,NY,12603,Bob Legacy,9144747533,http://www.arlingtonhasit.org,Thursday  2pm-6pm,June 3-October 28,M,Y,N,N,Y,41.68187,-73.89636,"(41.68187, -73.89636)"
Nassau,Anna House Farm Stand at Belmont Park,"2150 Hempstead Tpke Elmont, Gate 6 driveway",2150 Hempstead Turnpike,Elmont,NY,11003,Eleanor Poppe,5162165196,http://www.rtcany.org,Tuesday  10am-2pm,July 6-October 26,M,Y,N,N,Y,40.70922,-73.7216,"(40.70922, -73.7216)"
Kings,Brooklyn Grange Farm Stand @ SSP,"850 3rd Ave, rooftop  Brooklyn",850 3rd Ave,Brooklyn,NY,11232,Calliope Bosen,7744542967,http://www.brooklyngrangefarm.org,Sunday 10am-3pm,May 30-October 31,M,Y,Y,N,Y,40.6594,-74.0044,"(40.6594, -74.0044)"
Columbia,City of Hudson Farmers' Market,DMV parking lot Sixth & Columbia Sts.,Columbia St and North 6th St,Hudson,NY,12534,Brandon Bjerke,5186105859,http://www.hudsonfarmersmarketny.com,Saturday  9am-1pm,April 24-November 20,P/M,Y,Y,Y,Y,42.24866,-73.78369,"(42.24866, -73.78369)"
Kings,Cypress Hills  GrowNYC Farm Stand,Fulton St. btwn Richmond & Logan Sts.,Fulton St. and Logan St.,Brooklyn,NY,11208,Siobahn Keys,2127887476,https://www.grownyc.org/farmstands,Friday  10am-5pm,July 9-November 19,M,Y,Y,N,Y,40.68206,-73.87788,"(40.68206, -73.87788)"
Albany,Delaware Community Farmers' Market,"Delaware Branch Library, 331 Delaware Ave. Albany",331 Delaware Ave,Albany,NY,12209,Louise McNeilly,5184320516,,"Tuesdays  4pm-7pm, Oct-Nov  3pm-6pm",June 22-November 9,M,Y,Y,Y,Y,42.64305,-73.77824,"(42.64305, -73.77824)"
Kings,Woodhull Hospital GrowNYC Farm Stand,Marcus Garvey Blvd. and Broadway,Marcus Garvey Boulevard and Broadway,Brooklyn,NY,11206,Siobahn Keys,2127887476,https://www.grownyc.org/farmstands,Wednesday  9am-2pm,July 7-November 24,M,Y,Y,N,Y,40.70029,-73.94111,"(40.70029, -73.94111)"
Warren,Glens Falls WINTER Farmers' Market,"Cool Insuring Arena, 1 Civic Center Plaza",1 Civic Center Plaza,Glens Falls,NY,12801,Richard Sandora,5187920438,http://www.glensfallsfarmersmarket.com,Saturday  8am-12pm,"November 6-April 30, 2022",M/X/W/P,N,Y,N,Y,43.30817,-73.6419,"(43.30817, -73.6419)"
New York,57th Street Saturday Greenmarket,475 W 57th St. @ 58th St.,891 Tenth Ave,New York,NY,10019,Siobahn Keys,2127887476,http://www.grownyc.org/greenmarket,Saturday  8am-5pm,June 2-November 24,M,Y,Y,N,Y,40.76943,-73.98835,"(40.76943, -73.98835)"
Genesee,Genesee Country Thursday Farmers' Market,Bank St. at Alva Place Batavia,Bank St and Alva Place,Batavia,NY,14020,Sharon Brent,7165600853,,Thursday 9am-7pm,June 4-October 29,M,Y,Y,Y,Y,42.99905,-78.18151,"(42.99905, -78.18151)"
Rensselaer,Kristy's Barn Farm Stand,2385 Brookview Rd. Castleton,2385 Brookview Road,Castleton,NY,12033,Kenneth Johnson,5184776250,http://www.kristysbarn.com,"Mon-Fri 9am-7pm, Sat/Sun  10am-6pm",May 1-November 30,P/M,Y,N,N,Y,42.56495,-73.70495,"(42.56495, -73.70495)"
Monroe,Curbside Market-Long Pond Sr Housing,1230 Long Pond Road Greece,1230 Long Pond Road,Rochester,NY,14626,Camille Verbofsky,5854135077,http://www.foodlinkny.org,Tue 10am-11am,June 3-November 25,M,Y,Y,N,Y,43.2122,-77.69579,"(43.2122, -77.69579)"
Saratoga,My Other Garden Farm Stand,2192 Cook Road Ballston Lake,2192 Cook Road,Ballston Lake,NY,12019,Maria Matthews,5188825416,,"Daily 10am-6pm, closed Tuesday",June 1-November 30,M,Y,N,N,Y,42.97542,-73.99127,"(42.97542, -73.99127)"
Westchester,New Rochelle Farmers' Market,"20 Sicard Ave, Thomas Paine Cottage Museum",20 Sicard Ave,New Rochelle,NY,10804,Mahalia Dees,9149234837,http://www.downtoearthmarkets.com,Friday  9am-2pm,June 11-November 19,M,Y,Y,Y,Y,40.93407,-73.79099,"(40.93407, -73.79099)"
New York,Tucker Square Thursday Greenmarket,125 Columbus Ave btwn W 65th & W 66th Sts.,Columbus and West 66th St,New York,NY,10023,Siobahn Keys,2127887476,http://www.grownyc.org/greenmarket,Thursday  8am-5pm,Year-round,YR,Y,Y,N,Y,40.77362,-73.98156,"(40.77362, -73.98156)"
Schenectady,Veggie Mobile-Ten Eyck Apts,375 Broadway Schenectady,375 Broadway,Schenectady,NY,12305,Audrey Bridge,5182748685,http://www.capitalroots.org,Fri 3:15pm-4pm,Year-round,YR,Y,Y,Y,Y,42.80919,-73.94511,"(42.80919, -73.94511)"
Rockland,Perez Farm Stand-Monsey,40 Robert Pitt Dr Monsey,40 Robert Pitt Dr,Monsey,NY,10952,Javier or Estella Perez,9569037539,,Sunday  9am-3pm,July 4-November 21,M,Y,N,N,Y,41.11129,-74.06488,"(41.11129, -74.06488)"
Suffolk,East Hampton Farmers' Market,Herrick Park adjacent to the Reutershan Parking Lot East Hampton Village,60 Spinner Lane,East Hampton,NY,11937,Katherine Plumb,6318718185,,"Friday  9am-2pm, Sun  9am-2pm (to Dec 12)",May 28-September 3,P/M,Y,Y,N,Y,40.9779,-72.17646,"(40.9779, -72.17646)"
Westchester,Pleasantville WINTER Farmers' Market,"Pleasantville Middle School, 40 Romer Ave",40 Romer Ave,Pleasantville,NY,10570,Steven Bates,9142054545,http://www.pleasantvillefarmersmarket.org,Saturday  8:30am-1pm,December 7-March 28,X/W,N,Y,N,Y,41.134501,-73.785274,"(41.134501, -73.785274)"
Monroe,Curbside Market-EL Towers,"Southview Towers, 500 South Ave. Rochester",500 South Ave,Rochester,NY,14620,Camille Verbofsky,5854135077,http://www.foodlinkny.org,Tue  3pm-4pm,June 1-November 23,M,Y,Y,N,Y,43.1465,-77.60524,"(43.1465, -77.60524)"
Niagara,North Tonawanda City Sat Farmers' Market,Robinson Rd. & Payne Ave.,310 Robinson Road,North Tonawanda,NY,14120,Donna Braun,7166958555,,Saturday  7am-1pm,Year-round,YR,Y,Y,N,Y,43.03377,-78.87021,"(43.03377, -78.87021)"
Tompkins,Ithaca Farmers' Market (East Hill Wed),East Hill Plaza 380 Pine Tree Rd.,380 Pine Tree Road,Ithaca,NY,14850,Kelly Sauve,6072737109,http://www.ithacamarket.com,Wednesday  4pm-7pm,May 5-October 27,P/M,Y,Y,Y,Y,42.4385,-76.46559,"(42.4385, -76.46559)"
Onondaga,Bayberry Plaza Farmers' Market,Kinney lot 7608 Oswego Rd. Liverpool,7608 Oswego Rd,Liverpool,NY,13090,Kathy Parrotta,3156521463,http://www.bayberryplaza.com,Wednesday  8am-2pm,May 5-October 27,P/M,Y,N,N,Y,43.13779,-76.22602,"(43.13779, -76.22602)"
Rensselaer,Veggie Mobile Sprout-Church of the Redeemer,1249 3rd Street Rensselaer,1249 3rd Street,Rensselaer,NY,12144,Audrey Bridge,5182748685,http://www.capitalroots.org,Thu 3pm-3:45pm,Year-round,YR,Y,Y,Y,Y,42.65038,-73.73443,"(42.65038, -73.73443)"
Onondaga,Emmi's Farm Market-Baldwinsville,1482 West Genesee Rd Baldwinsville,1482 West Genesee Rd.,Baldwinsville,NY,13027,Anthony Emmi,3156357529,http://www.emmifarms.com,"Mon-Thu  10am-6pm, Fri-Sat  9am-6pm, Sun  10am-3pm",June 10-October 15,M,Y,N,N,Y,43.16899,-76.40302,"(43.16899, -76.40302)"
Erie,Kenmore Farmers' Market,2919 Delaware Ave. Buffalo,2919 Delaware Ave,Buffalo,NY,14217,Lauren Willett-Benson,7162289068,,Sunday  9am-1pm,June 13-October 17,M,Y,N,N,Y,42.96362,-78.8698,"(42.96362, -78.8698)"
Allegany,Wagoner Bees & Produce Farm Stand,11137 Wayne Rd.  Fillmore,11137 Wayne Rd.,Fillmore,ny,14735,Terry Wagoner,5856108836,,Mon-Wed  1pm-5pm,May 20-November 1,P/M,Y,Y,N,Y,42.48057,-78.09042,"(42.48057, -78.09042)"
Bronx,170 Farm Stand,1406 Townsend Ave. and 170th St.,1406 Townsend Ave. and 170th Street,Bronx,NY,10452,Theresa Conk,7187168000,http://www.newsettlement.org/170FarmStand,Wed  2:30-6:30pm,July 14-November 24,M,Y,Y,N,Y,40.84009,-73.9166,"(40.84009, -73.9166)"
Erie,Clarence Hollow Farmers' Market,10717 Main St. Bike Path pkng lot Clarence,10717 Main St,Clarence,NY,14031,Cheryl Anthony,7167591075,http://www.clarencefarmersmarket.com,Saturday  8am-1pm,June 5-October 30,M,Y,N,N,Y,42.9808,-78.58904,"(42.9808, -78.58904)"
Kings,Urban Oasis Farmers' Market,"Kingsboro Psychiatric Center, 681 Clarkson Ave. btwn Troy Ave & 43rd St.",681 Clarkson Ave,Brooklyn,NY,11203,Michelle Almonte,7182217132,,Wed  2pm-5:30pm,June 30-November 3,M,Y,N,N,Y,40.65621,-73.93741,"(40.65621, -73.93741)"
Bronx,Harvest Home St. Marys Park Farm Stand,E 149th St. & Eagle Ave,646 E 149th St,Bronx,NY,10455,Maritza Owens,2128283361,http://www.harvesthomefm.org,Thursday  8am-4pm,July 8-November 18,M,Y,Y,N,Y,40.81099,-73.91173,"(40.81099, -73.91173)"
Erie,Four Corners Farmers' Market,9470 Clarence Center Rd,9470 Clarence Center Road,Clarence Center,NY,14032,Deborah Tangelder,7168661100,,Saturday 9am-2pm,June 5-October 16,M,Y,N,N,Y,43.01059,-78.63751,"(43.01059, -78.63751)"
Madison,Dizzy Lizzie's Farm Farm Stand,3823 Sanderson Rd Erieville,3823 Sanderson Rd,Erieville,NY,13061,Elizabeth Blackburn,3156627565,http://www.dizzylizziesfarm.com,Tuesday  12pm-3pm,May 4-October 12,M,Y,N,N,Y,42.83934,-75.74399,"(42.83934, -75.74399)"
Cattaraugus,Olean Area Farmers' Market,"Lincoln Park Pavillion, 100 E. State St Olean",400 N. Union St.,Olean,NY,14760,Stephanie Beneg,7163745257,http://www.oleanfarmersmarket.com,Saturday  8am-1pm,May 1-October 30,P/M,Y,Y,N,Y,42.08329,-78.42987,"(42.08329, -78.42987)"
St. Lawrence,Martin's Farm Stand,11 Needham Rd. Potsdam,11 Needham Rd.,Potsdam,NY,13676,Daniel Martin,3152651246,http://www.martinsfarmstand.com,Mon-Sat  10am-6pm,May 6-December 1,P/M,Y,Y,N,Y,44.67107,-74.90401,"(44.67107, -74.90401)"
Essex,Mountain Weavers' Farm Store,4322 Main Street Port Henry,4322 Main Street,Port Henry,NY,12974,Andrea Connor,5185463355,http://www.mountainweaversfarmstore.com,Tuesday-Saturday 10am-5pm,Year-Round,YR,Y,Y,N,Y,44.04849,-73.45958,"(44.04849, -73.45958)"
Monroe,Curbside Market-DePaul Ridgeview,109 Marburger St. Rochester,109 Marburger Street,Rochester,NY,14621,Camille Verbofsky,5854135077,http://www.foodlinkny.org,Wed 4:15pm-5:15pm,June 2-November 24,M,Y,Y,N,Y,43.19375,-77.6078,"(43.19375, -77.6078)"
Albany,Veggie Mobile-Creighton Storey Homes,158 3rd Street Albany,158 3rd Street,Albany,NY,12202,Audrey Bridge,5182748685,http://www.capitalroots.org,Thu 5pm-5:45pm,Year-round,YR,Y,Y,Y,Y,42.66205,-73.7578,"(42.66205, -73.7578)"
Ontario,Geneva Lakefront Farmers' Market,"Finger Lakes Welcome Center, 35 Lake Front Dr.",35 Lake Front Dr.,Geneva,NY,14456,Liz Toner,3157895005,,Saturday  8am-1:30pm,June 12-October 9,M,Y,N,N,Y,42.869,-76.98106,"(42.869, -76.98106)"
Erie,Clinton Bailey Fri Farmers' Market,1443-1517 Clinton St. Buffalo,Bailey Ave and Clinton St,Buffalo,NY,14206,Sharon Baldi,7162080003,http://www.clintonbaileymarket.com,Friday 7am-5pm,May 1-October 31,P/M,Y,Y,N,Y,42.87206,-78.81997,"(42.87206, -78.81997)"
New York,Domino Park Greenmarket,15 River St Brooklyn,15 River St,Brooklyn,NY,11211,Siobahn Keys,2127887476,https://www.grownyc.org,Sunday 9am-3pm,July 11-November 21,M,Y,N,N,Y,40.71655,-73.96656,"(40.71655, -73.96656)"
Suffolk,Country Fresh Tanger Outlets Farmers' Market,152 The Arches Circle  Deer Park,152 The Arches Circle,Deer Park,NY,11747,Mary Schneider,6316735844,,Saturday  10am-3pm,June 5-October 30,M,Y,N,N,Y,40.76307,-73.30507,"(40.76307, -73.30507)"
Schuyler,Montour Falls Farmers' Market,"Firemans Field, State Route 224 Montour Falls",State Route 224,Montour Falls,NY,14685,Jessica Westlake,,http://www.montourfallsfarmersmarket.com,Thursday  4pm-7pm,June 10-October 8,M,Y,Y,N,Y,42.34629,-76.84783,"(42.34629, -76.84783)"
Erie,MAP Mobile Market-Veterans One Stop,1280 Main St (floor 2) Buffalo,1280 Main St,Buffalo,NY,14209,Danielle Rovillo,7168825327,http://www.mass-ave.org,Friday 12am-1pm,June 4-October 29,M,Y,Y,N,Y,42.90861,-78.86713,"(42.90861, -78.86713)"
Oneida,Wormont Woolies Farm Stand,8998 Summit Rd.  Cassville,8998 Summit Rd.,Cassville,NY,13318,Katherine Worden,3157251716,https://wormontwoolies.square.site,Daily 2pm-5pm,Year-round,YR,N,N,N,Y,42.95876,-75.29667,"(42.95876, -75.29667)"
Franklin,JCEO MM-Methodist Church,3909 NY 374 Lyons Mt.,3909 NY 374,Lyons Mt.,NY,12952,Richard LaVigne,5183194028,http://www.jceo.org,Friday 10am-12pm,June 4-October 1,M,Y,Y,N,Y,44.73223,-73.91025,"(44.73223, -73.91025)"
New York,Union Square Wednesday Greenmarkets,"31 Union Square W, NW side of Park",Broadway and East 17th St,New York,NY,10003,Siobahn Keys,2127887476,https://www.grownyc.org/greenmarket,Wednesday  8am-6pm,Year-round,YR,Y,Y,N,Y,40.7371,-73.99032,"(40.7371, -73.99032)"
Albany,Veggie Mobile-Steamboat Square Apts,20 Rensselaer St. Albany,20 Rensselaer Street,Albany,NY,12202,Audrey Bridge,5182748685,http://www.capitalroots.org,Wed 11am-11:45am,Year-round,YR,Y,Y,Y,Y,42.64093,-73.75363,"(42.64093, -73.75363)"
Bronx,Harvest Home N Central Bronx Farmers' Market,E. Mosholu Parkway N. & Jerome Ave.,Jerome Ave and East Mosholu Pkwy North,Bronx,NY,10467,Maritza Owens,2128283361,http://www.harvesthomefm.org,Wednesday  8am-4pm,June 16-November 24,M,Y,Y,N,Y,40.88046,-73.88385,"(40.88046, -73.88385)"
Monroe,Curbside Market-AJHC Woodward,480 Genesee St. Rochester,480 Genesee Street,Rochester,NY,14611,Camille Verbofsky,5854135077,http://www.foodlinkny.org,Wed  3:30pm-4:30pm,June2-November 25,M,Y,Y,N,Y,43.14061,-77.63585,"(43.14061, -77.63585)"
Steuben,Bath Saturday Farmers' Market,Pulteney Park  Steuben St.,Steuben St and Liberty St,Bath,NY,14810,Phillip Glosick,6077763577,,Saturday  9am-2pm,May 8-October 30,P/M,Y,N,N,Y,42.33353,-77.31842,"(42.33353, -77.31842)"
Steuben,Corning Farmers' Market,"1 Riverfront Plaza Gaffer District, Riverfront Centennial Park",Centennial Park East Tioga Ave,Corning,NY,14830,Marshall Ferrari,6079376292,http://www.gafferdistrict.com,Thursday  10am-3pm,June 3-October 28,M,Y,N,N,Y,42.1443,-77.05339,"(42.1443, -77.05339)"
Monroe,Curbside Market-Charlotte Harbortower I,4575 Lake Ave. Rochester,4575 Lake Avenue,Rochester,NY,14612,Camille Verbofsky,5854135077,http://www.foodlinkny.org,"Fri 1:15pm-2:30pm, closed June 18 & July 2",June 4-November 26,M,Y,Y,N,Y,43.25492,-77.61411,"(43.25492, -77.61411)"
Broome,Russell Farms Farm Stand,2909 Old Vestal Rd Vestal,2909 Old Vestal Rd,Vestal,NY,13850,Allison Russell,6079725793,http://www.russell-farm.com,Daily 8am-6pm,September 1-Nov 30,M,N,N,N,Y,42.1009,-76.0078,"(42.1009, -76.0078)"
Cortland,Plunkett Farms Farm Stand,2180 Tower Road Cortland,2180 Tower Road,Cortland,NY,13045,John and Carla Plunkett,6077530001,,"Daily 9am-5pm, *please call before visit",July 1-October 31,M,Y,N,N,Y,42.55495,-76.13123,"(42.55495, -76.13123)"
Madison,Village of Hamilton Farmers' Market,Village Green 3 Broad St.,Broad St and Payne St,Hamilton,NY,13346,Kim Taranto,3158241111,http://www.hamilton-ny.gov,Saturday  8am-1pm,May 15-October 23,P/M,Y,N,N,Y,42.82684,-75.54436,"(42.82684, -75.54436)"
Genesee,Genesee Country Friday Farmers' Market,Bank St. at Alva Place Batavia,Bank St and Alva Place,Batavia,NY,14020,Sharon Brent,7165600853,,Friday  9am-4pm,June 4-October 29,M,Y,Y,Y,Y,42.99905,-78.18151,"(42.99905, -78.18151)"
Saratoga,The Farmer's Wagon Farm Stand,534 Moe Rd @ corner of Grooms Rd  Clifton Park,Grooms Road & Moe Road,Clifton Park,NY,12065,Kevin Bowman,5188583306,,Daily  9am-5pm,May 1-October 1,P/M,Y,N,N,Y,42.84034,-73.79385,"(42.84034, -73.79385)"
Kings,Project EATS Rockaway Farm Stand,705 Rockaway Ave.  Brooklyn,702 Rockaway Avenue,Brooklyn,NY,11212,Shevan Durant,2126121528,http://www.projecteats.org,Friday  10am-4pm,June 4-November 19,M,Y,Y,N,Y,40.66289,-73.90907,"(40.66289, -73.90907)"
Allegany,Backporch Produce,10260 Fairview Rd Farmersville Station,10260 Fairview Rd,Farmersville Station,NY,14060,Cheri Stresing,7169468308,http://www.backporchproduce.com,Daily  9am-8pm,Year-round,YR,Y,N,N,Y,42.44791997,-78.29298113,"(42.44791997, -78.29298113)"
Niagara,North Tonawanda City Thurs Farmers' Market,Robinson Rd. & Payne Ave.,310 Robinson Road,North Tonawanda,NY,14120,Donna Braun,7166958555,,Thursday  7am-1pm,Year-round,YR,Y,Y,N,Y,43.03377,-78.87021,"(43.03377, -78.87021)"
Washington,Whitehall Rt. 22 Farmers' Market,Canal Park Pavillion Skenesborough Dr,Skenesborugh Drive Canal Park,Whitehall,NY,12887,Cyd Groff,5186421653,,Tuesday  1pm-4pm,June 8-October 19,M,Y,N,N,Y,43.55205,-73.40302,"(43.55205, -73.40302)"
Cayuga,Auburn Tue Farmers' Co-op Market,96 State Street  Curley's Restaurant Pkg Lot,96 State Street,Auburn,NY,13021,Mark Soper,3157048609,http://www.auburnfarmerscoopmarketinc.com,Tue 7am-2pm,June 1-October 26,M,Y,Y,Y,Y,42.93401,-76.57007,"(42.93401, -76.57007)"
New York,Rockefeller Center Wed Greenmarket,Rockefeller Plaza at 50th St.,Rockefeller Plaza and West 50th St,New York,NY,10112,Siobahn Keys,2127887476,http://www.grownyc.org/greenmarket,Wednesday  8am-5pm,July 21-August 25,M,Y,Y,N,Y,40.75907,-73.97846,"(40.75907, -73.97846)"
Albany,Veggie Mobile Sprout-St. Sophia Church,440 Whitehall Rd. Albany,440 Whitehall Road,Albany,NY,12208,Audrey Bridge,5182748685,http://www.capitalroots.org,Wed 12:40pm-1pm,Year-round,YR,Y,Y,Y,Y,42.65197,-73.81477,"(42.65197, -73.81477)"
Ontario,Outback Farm Farm Market,2135 County Rd. 8 Canandaigua,2135 County Rd 8,Canandaigua,NY,14424,Marlin & Leann Sensenig,7175870079,http://www.outbackfarmmarket.com,"Mon-Fri  8am-8pm, Saturday  8am-5pm",Year-round,YR,Y,N,N,Y,42.92848,-77.30929,"(42.92848, -77.30929)"
New York,Harvest Home Metropolitan Farmers' Market,2nd Ave.between East 99th St. & E97th St,2nd Ave. at East 99th St.,New York,NY,10029,Maritza Owens,2128283361,http://www.harvesthomefm.org,Friday  8am-5pm,June 18-November 19,M,Y,Y,N,Y,40.78553,-73.94615,"(40.78553, -73.94615)"
Bronx,Poe Park Greenmarket,2580 Grand Concourse at Valentine Ave.,2580 Grand Concourse,Bronx,NY,10458,Siobahn Keys,2127887476,http://www.grownyc.org,Tuesday  8am-3pm,June 29-November 23,M,Y,Y,N,Y,40.86412,-73.8955,"(40.86412, -73.8955)"
St. Lawrence,Hammond Farmers' and Artisans Market,"Hammond Museum , 14 North Main St. Route 37",1A North Main Street,Hammond,NY,13646,Lori Thistle,3153245032,,Wednesday  3pm-6pm,June 23-September 15,M,Y,Y,N,Y,44.45118,-75.69312,"(44.45118, -75.69312)"
Monroe,Curbside Market-Phillips Village,100 Krieger Rd. Webster,100 Krieger Rd.,Webster,NY,14580,Camille Verbofsky,5854135077,http://www.foodlinkny.org,"Sat 2pm-3pm, closed June 19, July 3 & Sept 4",June 5-November 27,M,Y,Y,N,Y,43.20943,-77.4189,"(43.20943, -77.4189)"
Tioga,Candor Farmers Market,Town Hall 101 Owego Rd.,101 Owego Rd,Candor,NY,13743,Joellen Riggs,6077684072,http://www.candorfarmersmarket.org,Thu 3:30pm-6:30pm,June 3-September 30,M,Y,Y,N,Y,42.23249,-76.33317,"(42.23249, -76.33317)"
Erie,Alden Farmers' Market,"13119 Broadway (Route 20) , btwn Tractor Supply Lot",13119 Broadway,Alden,NY,14004,Alyssa Cooper,7169376177,http://www.aldenny.org,Saturday  8:30am-1pm,May 8-October 9,M,Y,N,N,Y,42.89784,-78.49904,"(42.89784, -78.49904)"
Queens,Queens Botanical Garden Farmers' Market,82 Dahlia Ave. at Main St. Sidewalk,Main St and Dahlia Ave,Flushing,NY,11355,Mahalia Dees,9149234837,http://www.downtoearthmarkets.com,Friday  8:30am-4pm,June 11-November 26,M,Y,Y,N,Y,40.75186,-73.82636,"(40.75186, -73.82636)"
Bronx,Lincoln Hospital Tue Greenmarket,234 E. 149th St btwn Park and Morris Aves Bronx,East 149th St and Morris Ave,Bronx,NY,10451,Siobahn Keys,2127887476,http://www.grownyc.org/greenmarket,Tuesday  8am-3pm,June 29-November 23,M,Y,Y,N,Y,40.81739,-73.92274,"(40.81739, -73.92274)"
Orleans,Navarras Farm Market and Greenhouses,3272 Eagle Harbor Road,3272 Eagle Harbor Road,Albion,NY,14411,Amanda Mrzyuka,5855894674,,"Mon-Sat 9am-8pm, Sunday 9am-5pm",Year-Round,YR,N,N,N,Y,43.18941,-78.25422,"(43.18941, -78.25422)"
Monroe,Webster's Joe Obbie Farmers' Market,Webster Town Center  1028 Ridge Road,1028 Ridge Road,Webster,NY,14580,Jason Bliek,5852611533,http://www.webstersjoeobbiefarmersmarketinc.org,Saturday  8:30-1pm,June 12-October 30,M,Y,N,N,Y,43.20964,-77.45416,"(43.20964, -77.45416)"
Kings,Brooklyn Borough Hall Tuesday Greenmarket,211 Montague St. Supreme Court Plaza,Court St and Montague St,Brooklyn,NY,11201,Siobahn Keys,2127887476,http://www.grownyc.org/greenmarket/brooklyn/boro-hall-sa,Tuesday  8am-4pm,Year-round,YR,Y,Y,N,Y,40.69374,-73.99043,"(40.69374, -73.99043)"
Essex,Ticonderoga Area Farmers' Market,1114 Wicker Street near Walmart entrance,1114 Wicker Street,Ticonderoga,NY,12883,Kelly Carey,5185856619,http://www.ticonderogany.com,Saturday  10am-1pm,July 10-September 25,M,Y,N,N,Y,43.85688,-73.43642,"(43.85688, -73.43642)"
Nassau,New Cassel Farmers' Market,"First Baptist Church parking lot, 212 Garden St. Westbury",212 Garden St,Westbury,NY,11590,Traci Caines,5169840230,,Saturday  11am-3pm,July 10-October 30,M,Y,Y,N,Y,40.7622,-73.56767,"(40.7622, -73.56767)"
Saratoga,Halfmoon Farmers' Market,Abele Park 2 Halfmoon Town Plaza,2 Halfmoon Town Plaza,Halfmoon,NY,12065,Ross MacNeil,5183717410,,Wednesday 3pm-7pm,Year-round,YR,Y,N,N,Y,42.85348,-73.72559,"(42.85348, -73.72559)"
Chemung,EastSide Farmers' Market,"West Lawn of Holiday Inn  , 760 E. Water St. Elmira",760 East Water St,Elmira,NY,14901,Danielle Howie,6077344453,,Tuesday  3pm-6pm,June 22-September 21,M,Y,Y,Y,Y,42.08905,-76.7922,"(42.08905, -76.7922)"
Erie,East Aurora Wednesday Farmers' Market,Aurora Village (TOPS) Plaza 123 Grey St.,123 Grey St,East Aurora,NY,14052,Gail Fenton,5853439491,,Wednesday  7am-1pm,May 5-November 24,P/M,Y,N,N,Y,42.76593,-78.63413,"(42.76593, -78.63413)"
Sullivan,Narrowsburg Farmers Market,7 Erie Avenue Narrowsburg,7 Eric Ave,Narrowsburg,NY,12764,Greg Swartz,5709820050,,Saturday  10am-1pm,May 15-October 30,P/M,Y,N,N,Y,41.6052,-75.06393,"(41.6052, -75.06393)"
Franklin,JCEO MM-Brainardsville 4 Corners,2392 CR 24 at CR 374  Brainardsville,2392 CR 24,Brainardsville,NY,12915,Richard LaVigne,5183194028,http://www.jceo.org,Friday  12:30pm-2:00pm,June 4-October 1,M,Y,Y,N,Y,44.85809,-74.0333,"(44.85809, -74.0333)"
Niagara,Lockport Community Farmers' Market,57 Canal Street,57 Canal Street,Lockport,NY,14094,Jessica Dittly,7166222526,http://www.lockportcommunitymarket.com,"Saturday  9am-2pm, Wed  2pm-6pm",June 5-October 31,M,Y,Y,N,Y,43.1705,-78.694,"(43.1705, -78.694)"
Erie,MAP Mobile Market-Hispanics United,"254 Virginia St., Buffalo, NY 14201",254 Virginia St.,Buffalo,NY,14201,Danielle Rovillo,7168825327,http://www.mass-ave.org,Thursday  10am-12pm,April 20-October 28,P/M,Y,Y,N,Y,42.89508,-78.88197,"(42.89508, -78.88197)"
Columbia,Scarecrow Farm Stand,20 Old Barrington Rd  Hudson,20 Old Barrington Rd,Claverack,NY,12534,Virginia Ambrose,5188212453,http://www.scarecrowfarmny.com,Fr/Su/Mo 10am-6pm,June 1-December 24,P/M/X,Y,N,N,Y,42.2105,-73.67909,"(42.2105, -73.67909)"
Herkimer,Old Forge Farmers' Market,Park Ave behind Old Forge Hardware,Crosby Blvd and Park Ave,Old Forge,NY,13420,Robin Hill,3153693353,http://www.cap-21.org,Friday  1pm-5pm,June 18-October 8,M,Y,N,N,Y,43.70893,-74.97286,"(43.70893, -74.97286)"
Livingston,Mount Morris Farmers' Market,105 Main St.,105 Main Street,Mount Morris,NY,14510,Kathy Link,5856583775,,Friday  12pm-6pm,June 4-September 17,M,Y,N,N,Y,42.7245,-77.87333,"(42.7245, -77.87333)"
Oneida,Oneida County Public Market,"REA Wing  Union Station, 321 Main St. Downtown Utica",321 Main Street,Utica,NY,13501,Elizabeth Irons,3157983639,http://www.oneidacountymarket.com,Saturday  9am-1pm,May 15-December 18,P/M/W,Y,Y,Y,Y,43.10393,-75.2239,"(43.10393, -75.2239)"
Chautauqua,Fredonia Farmers' Market,"Village Hall Barker Commons , 9 Church St.",11 Church St,Fredonia,NY,14063,Rosemary Joy,7164107313,,Saturday  9am-1pm,May 15-October 30,P/M,Y,Y,Y,Y,42.44064,-79.33235,"(42.44064, -79.33235)"
New York,Gouverneur Health GrowNYC Farm Stand,Madison St. btwn Clinton & Jefferson Sts.,227 Madison Street,New York,NY,10002,Siobahn Keys,2127887476,https://www.grownyc.org/farmstands,Thursday  9am-2pm,July 8-November 18,M,Y,Y,N,Y,40.71321,-73.98779,"(40.71321, -73.98779)"
Kings,Bartel-Pritchard Square Sunday Greenmarket,205 Prospect Park at West 15th St. inside park,Prospect Park West and 14th Street,Brooklyn,NY,11215,Siobahn Keys,2127887476,http://www.grownyc.org/greenmarket,Sunday  9am-3pm,Year-round,YR,Y,Y,N,Y,40.66094,-73.97979,"(40.66094, -73.97979)"
New York,79th Street Greenmarket,366 Columbus Ave. btwn W 77th & W 81st Sts.,West 79th St and Columbus Ave,New York,NY,10024,Siobahn Keys,2127887476,http://www.grownyc.org/greenmarket/manhattan/79th-street,Sunday  9am-4pm,Year-Round,YR,Y,Y,N,Y,40.78195,-73.97548,"(40.78195, -73.97548)"
Orange,Montgomery Farmers' Market,110 Bracken Rd Town of Montgomery,110 Bracken Rd,Town of Montgomery,NY,12549,Randi Picarelli,8452872833,,Tuesday  11am-5pm,June 15-September 25,M,Y,N,N,Y,41.52115,-74.20015,"(41.52115, -74.20015)"
Cayuga,Owen Orchards Farm Stand,8174 Grant Ave.  Weedsport,8174 Grant Ave.,Weedsport,NY,13166,Gordon Tripp,3152524097,http://www.owenorchard.com,"Mon-Fri  9am-pm, Sat 9am-6pm  Sun 9am-4pm","Aug 1-March 30, 2022",M/X/W,Y,Y,N,Y,43.01314,-76.50749,"(43.01314, -76.50749)"
St. Lawrence,Canton Apples U-Pick Orchard Farm Stand,339 State Highway 310,CR 25  at Barnes Road Canton,Canton,NY,13617,Joel Howe,3152120950,,Sat/Sun  10am-4pm,July 1-November 1,M,Y,N,N,Y,44.55387,-75.13583,"(44.55387, -75.13583)"
Albany,Lansing Farm Market,204 LishaKill Rd Colonie,204 LishaKill,Colonie,NY,12309,Al Or Jessica Lansing,5184640889,http://www.lansingfarmmarket.com,Daily  9am-6pm,April 20-November 15,P/M,Y,N,N,Y,42.7629,-73.85447,"(42.7629, -73.85447)"
Kings,Flatbush Junction  GrowNYC Farm Stand,Flatbush & Nostrand Aves.,Flatbush Ave and Nostrand Ave,Brooklyn,NY,11210,Siobahn Keys,2127887476,https://www.grownyc.org/farmstands,Saturday  9am-2pm,July 10-November 20,M,Y,Y,N,Y,40.63286,-73.9477,"(40.63286, -73.9477)"
Monroe,Curbside Market-Salvation Army Geneva,41 North St Geneva,41 North St,Geneva,NY,14456,Camille Verbofsky,5854135077,http://www.foodlinkny.org,"Fri 11:15am-12:15pm, closed June 18 & July 2",June 4-November 26,M,Y,Y,N,Y,42.87554,-76.9801,"(42.87554, -76.9801)"
Rensselaer,Troy Waterfront Farmers' Market,"River Front Park River St Troy, (moved fromRussell Sage College lot)",282 River St,Troy,NY,12180,Stephen Ridler,5187084216,http://www.troymarket.org,Saturday  9am-2pm,April 3-October 30,P/M,Y,Y,Y,Y,42.73214,-73.6905,"(42.73214, -73.6905)"
Bronx,Fordham Plaza Greenmarket,"1 Fordham Plaza , Park Ave btwn 189th St. & Fordham Rd.",1 Fordham Plaza,Bronx,NY,10458,Siobahn Keys,2127887476,http://www.grownyc.org/greenmarket,Friday  8am-4pm,June 18-November 19,M,Y,Y,N,Y,40.86002,-73.89106,"(40.86002, -73.89106)"
Wayne,Wolcott Area Farmers' Market,Northup Park New Hartford St. Wolcott,Washington Street and New Hartford Street,Wolcott,NY,14590,David & Cindy Savary,3158790798,,Mon/Thu  1pm-6pm,May 28-June 15,P/M,Y,Y,N,Y,43.21855,-76.81491,"(43.21855, -76.81491)"
Onondaga,Skaeneateles Farmer's Market-Saturday,1 East Austin St. Austin Park Pavilion,1 East Austin Street,Pavilion,NY,13152,Sue Murphy,3157279320,https://www.townofskaneateles.com,Saturday 10am-1pm,May 29-September 12,P/M,Y,N,N,Y,42.95091,-76.43045,"(42.95091, -76.43045)"
Clinton,JCEO MM-Ellenburg Center Senior Ctr,5538 Old State Rd Ellenburg Center,5538 Old State Rd,Ellenburg Center,NY,12934,Richard LaVigne,5183194028,http://www.jceo.org,Monday 12:10pm-2pm,June 7-September 27,M,Y,Y,N,Y,44.89508,-73.87197,"(44.89508, -73.87197)"
Tompkins,Indian Creek Farm Farm Stand,1408 Trumansburg Rd Ithaca,1408 Trumansburg Rd,Ithaca,NY,14850,Alice Brigance,5044328696,http://www.indiancreekithaca.com,Daily  8am-8pm,June 1-December 1,M,Y,N,N,Y,42.4718,-76.54806,"(42.4718, -76.54806)"
Monroe,Curbside Market-Glenwood Gardens (Santee St),295 Santee St Rochester 14613,295 Santee St,Rochester,NY,14613,Camille Verbofsky,5854135077,http://www.foodlinkny.org,Tue 4:05pm-4:35pm,June 1-November 23,M,Y,Y,N,Y,43.17496,-77.64307,"(43.17496, -77.64307)"
Lewis,Lyons Falls Farmers' Market,Riverside Park 6904 Laura St.,6904 Laura St,Lyons Falls,NY,13368,Amanda Jones,6802225707,http://www.lyonsfallsalive.org,Tuesday  11am-4pm,June 22-October 28,M,Y,Y,N,Y,43.61458,-75.3562,"(43.61458, -75.3562)"
Greene,Black Horse Farms Farm Stand,10094 Rt. 9W Athens,10094 Rte 9W,Athens,NY,12015,Chellie Apa,5187318776,http://www.blackhorsefarms.com,Daily  9am-6pm,Year-round,YR,Y,Y,N,Y,42.30634,-73.85043,"(42.30634, -73.85043)"
Sullivan,Callicoon Farmers' Market,Callicoon Creek Park  23 Dorrer Drive,23 Dorrer Drive,Callicoon,NY,12723,Eugene Thalmann,6313327948,http://www.callicoonfarmersmarket.org,Sunday  11am-2pm,Year-round,YR,Y,N,N,Y,41.76559,-75.05797,"(41.76559, -75.05797)"
Otsego,Middlefield Orchard Farm Stand,2274 State Hwy 166 Cooperstown,2274 State Hwy 166,Cooperstown,NY,13326,Wilfred Bruneau,6075478212,http://www.middlefieldorchard.com,Mon-Sat  9am-5pm,July 1-October 31,M,Y,N,N,Y,42.70279,-74.8348,"(42.70279, -74.8348)"
New York,Oculus Plaza Greenmarket,185 Greenwich St,185 Greenwich St,New York,NY,10007,Siobahn Keys,2127887476,http://www.grownyc.org/greenmarket,Tuesday  7am-7pm,June 1-November 23,M,Y,Y,N,Y,40.71203,-74.01201,"(40.71203, -74.01201)"
Queens,Jackson Heights Greenmarket,79-09 34th Ave.,78-99 34th Ave,Jackson heights,NY,11372,Siobahn Keys,2127887476,http://www.grownyc.org/greenmarket/queens/jackson-heights,Sunday  8am-2pm,Year-round,YR,Y,Y,N,Y,40.7535,-73.88791,"(40.7535, -73.88791)"
Ulster,Woodstock Farm Festival Farmers' Market,20 Mountainview Ave parking lot,20 Mountainview Avenue,Woodstock,NY,12498,Jessica Lunt,8452420275,http://www.woodstockfarmfestival.com,Wednesday  3pm-7pm,May 19-October 13,P/M,Y,Y,Y,Y,42.04018,-74.11797,"(42.04018, -74.11797)"
Nassau,Country Fresh Farmingdale Farmers' Market,Village Green  361 Main St,361 Main St,Farmingdale,NY,11735,Mary Schneider,6316735844,,Sunday  10am-3pm,June 6-November 21,M,Y,N,N,Y,40.73166,-73.44566,"(40.73166, -73.44566)"
New York,Astor Place Greenmarket,149-179 E 8th St New York,149-179 E 8th St,t New York,NY,11218,Siobahn Keys,2127887476,,Tuesday 8am-5pm,June1-November 23,M,Y,Y,N,Y,40.64658,-73.97198,"(40.64658, -73.97198)"
Schenectady,Veggie Mobile-Father Leo Obrien,3151 Marra Lane Schenectady,3151 Marra Lane,Schenectady,NY,12303,Audrey Bridge,5182748685,http://www.capitalroots.org,Mon 1pm-1:45pm,Year-round,YR,Y,Y,Y,Y,42.76062,-73.94004,"(42.76062, -73.94004)"
Saratoga,Ballston Spa Thursday Farmers' Market,"Brookside Museum, 6 Charlton st.","Wiswall Park, Front Street",Ballston Spa,NY,12020,Nora Osuchowski,5185989222,https://www.ballston.org/category/farmers-market,Thursday 3pm-6pm,June17 -September 30,M,Y,N,N,Y,43.00241,-73.85154,"(43.00241, -73.85154)"
Clinton,Rulfs Orchard Farm Stand,531 Bear Swamp Road Peru,531 Bear Swamp Road,Peru,NY,12972,Shannon Wilkins,5186438636,http://www.rulfsorchard.com,Daily 6am-6pm,Year-round,YR,Y,Y,N,Y,44.5786,-73.49804,"(44.5786, -73.49804)"
Sullivan,Sullivan Fresh Market on the Move-Wurtsboro,"134 Sullivan St, Wurtsboro",134 Sullivan St,Wurtsboro,NY,12790,Melinda Meddaugh,8452926180,http://www.sullivancce.org,Thursday  10:30am-12:30pm,July 7-September 29,M,Y,Y,N,Y,41.57636,-74.48583,"(41.57636, -74.48583)"
Monroe,Curbside Market-YWCA Apartments,175 N. Clinton Ave. Rochester,175 North Clinton Ave,Rochester,NY,14604,Camille Verbofsky,5854135077,http://www.foodlinkny.org,"Thu 3pm-4pm, closed July 1",June 3-November 25,M,Y,Y,N,Y,43.16073,-77.6082,"(43.16073, -77.6082)"
Suffolk,Schneider's Farm Stand,316 Old Country Rd.  Melville,316 Old Country Road,Melville,NY,11747,Mary Schneider,6316735844,http://www.schneidersfarmmelville.com,Daily  9am-6pm,April 22-December 24,P/M/X,Y,N,N,Y,40.80186,-73.39911,"(40.80186, -73.39911)"
Dutchess,Rhinebeck Farmers' Market,Municipal lot 61 E. Market St.,61 East Market St,Rhinebeck,NY,12572,Andrea Bartolomeo,5188211481,http://www.rhinebeckfarmersmarket.com,Sunday  10am-2pm,May 2-December 26,P/M/X,Y,Y,N,Y,41.92704,-73.91027,"(41.92704, -73.91027)"
Hamilton,Speculator Farmers & Crafters Farmers' Market,Speculator Village Pavilion Route 30,State Route 30 and Elliot Ln,Speculator,NY,12164,Donna Benkovich,5185484521,http://www.speculatorchamber.com,Thursday  2pm-5pm,June 24-September 9,M,Y,N,N,Y,43.49679,-74.36073,"(43.49679, -74.36073)"
Tompkins,Ithaca WINTER Farmers' Market,"Triphammer Plaza, 2255 Triphammer Road",2255 Triphammer Road,Ithaca,NY,14850,Kelly Sauve,6072737109,http://www.ithacamarket.com,Saturday  10:30am-2pm,January 9-March 27,W/P,N,Y,N,Y,42.44097,-76.51093,"(42.44097, -76.51093)"
Chenango,Norwich Farmers' Market,East Park 2 North Broad St.,North Broad St. and Main St.,Norwich,NY,13815,Sandy Pierce,6073344928,,Wednesday  10am-2pm,May 5-November 24,M,Y,N,N,Y,42.53055,-75.52365,"(42.53055, -75.52365)"
Putnam,Hudson Valley Regional Farmers' Market,15 Mt Ebo Rd South Brewster,15 Mt Ebo Drive,Brewster,NY,10509,Melissa Kamin,8458789078,http://www.hudsonvalleyfarmersmarket.org,Sunday  10am-2pm,Year-round,YR,N,N,N,Y,41.43416,-73.57263,"(41.43416, -73.57263)"
Rensselaer,Veggie Mobile Sprout-Public Library Sr. Ctr,1501 Broadway #1 Watervliet,1501 Broadway,Watervliet,NY,12189,Audrey Bridge,5182748685,http://www.capitalroots.org,Thu 2pm-2:45pm,Year-round,YR,Y,Y,Y,Y,42.72629,-73.70008,"(42.72629, -73.70008)"
Cattaraugus,Putt Farm Stand,"3508 West Branch Road, Allegany NY",3508 West Branch Road,Allegany,NY,14706,Pamela Putt,7163727238,,"Fri  9am-12pm, Sat  10am-5pm  Sun  1pm-5pm",August 1-October 1,M,Y,N,N,Y,42.06489,-78.49288,"(42.06489, -78.49288)"
Kings,Bushwick Hope Ball Field Farmers' Market,Knickerbocker Ave btwn Menahan St & Grove St. Bushwick,Knickerbocker Ave,Bushwick,NY,10301,Novelette Scott,7188210254,http://www.riseboro.org,Wednesday 9am-3pm,May 26-November 24,P/M,Y,Y,N,Y,40.70117,-73.92252,"(40.70117, -73.92252)"
Kings,Hattie Carthan After Church Farmers' Market,49 Van Buren St. Hattie Carthan Herban Farm Brooklyn,49 Van Buren St,Brooklyn,NY,11221,David Greaves,2125617327,http://www.hattiecarthancommunitymarket.com,Sunday  1pm-6pm,August 1-November 22,M,Y,N,N,Y,40.69024,-73.94359,"(40.69024, -73.94359)"
Ulster,Kingston Farmers' Market,285 Wall Street,Wall St and John St,Kingston,NY,12401,Laura Crimmins,6462624672,http://www.kingstonfarmersmarket.org,Saturday  9am-2pm,May 8-November 20,P/M,Y,Y,Y,Y,41.93384,-74.01968,"(41.93384, -74.01968)"
Wyoming,Perry Farmers' Market,Perry Festival Plaza  S. Main Street,Main St and Borden Ave,Perry,NY,14530,Rick Hauser,5859913893,http://www.perryfarmersmarket.com,Sat  8:30am-12:30pm,June 19-September 25,M,Y,N,N,Y,42.71842,-78.00218,"(42.71842, -78.00218)"
Erie,Clinton Bailey Wed Farmers' Market,1443-1517 Clinton St. Buffalo,Bailey Ave and Clinton St,Buffalo,NY,14206,Sharon Baldi,7162080003,http://www.clintonbaileymarket.com,Wednesday 7am-5pm,May 1-October 31,P/M,Y,Y,N,Y,42.87206,-78.81997,"(42.87206, -78.81997)"
Franklin,Malone Farmers' Market,27 Airport Rd. (Rte 11)  Pavilion at Marcy Airfield,27 Airport Road,Malone,NY,12953,Dick Crawford,5185634777,http://www.adirondackfarmersmarket.com,Wed  12pm-4:30pm,May 26-October 6,P/M,Y,N,N,Y,44.84733,-74.32773,"(44.84733, -74.32773)"
Columbia,Germantown Farmers Market,50 Palatine Park Road Germantown,50 Palatine Park Road,Germantown,NY,12526,Lauren Williams,5185675691,,Saturday 10am-1pm,May 22-October 30,P/M,Y,N,N,Y,42.135,-73.88551,"(42.135, -73.88551)"
Monroe,Rochester Public Market-Saturday,280 N. Union St. off East Main St.,280 North Union St.,Rochester,NY,14609,Cindy De Coste,5854286907,http://www.cityofrochester.gov/publicmarket,Saturday 5am-3pm,Year-round,YR,Y,Y,Y,Y,43.1657,-77.59016,"(43.1657, -77.59016)"
Orleans,Albion Farmers' Market,19 North Main Street,19 North Main Street,Albion,NY,14411,Natasha Wasuck,5853158845,,Sunday  9am-2pm,June 13-October 17,M,Y,N,N,Y,43.24684,-78.19356,"(43.24684, -78.19356)"
Rensselaer,Veggie Mobile-Kennedy Towers Apts,2100 6th Ave. Troy,2100 6th Avenue,Troy,NY,12180,Audrey Bridge,5182748685,http://www.capitalroots.org,Thu 2:45pm-3:45pm,Year-round,YR,Y,Y,Y,Y,42.73495,-73.68493,"(42.73495, -73.68493)"
Dutchess,Beacon WINTER Farmers' Market,413 Main St. Beacon VFW Hall,413 Main Street,Beacon,NY,12508,Paloma Wake,5108514865,http://www.beaconfarmersmarket.org,Sunday  10am-2pm,December 6-April 24,X/W/P,N,Y,N,Y,41.50321,-73.96674,"(41.50321, -73.96674)"
New York,Union Square Friday Greenmarket,"31 Union Square W, NW side of Park",Broadway and East 17th St,New York,NY,10003,Siobahn Keys,2127887476,https://www.grownyc.org/greenmarket,Friday  8am-6pm,Year-round,YR,Y,Y,N,Y,40.73701,-73.99025,"(40.73701, -73.99025)"
Washington,Cambridge Valley WINTER Farmers' Market,"Brieman Building , Park Place",Park Place,Cambridge,NY,12816,Lindsay Fisk,5185389467,,Sunday  11am-3pm,Nov 7-December 19,M/X,N,N,N,Y,43.02872,-73.37955,"(43.02872, -73.37955)"
Madison,Debrucque's Produce Stand,3392 Seneca Turnpike Canastota,3392 Seneca Turnpike,Canastota,NY,13032,Gary J. Debrucque,3153801015,,"Mon-Fri  9am-5pm, Sat/Sun  9am-3pm",June 1-October 31,M,Y,N,N,Y,43.06975,-75.75169,"(43.06975, -75.75169)"
Orange,Port Jervis Farmers' Market,1 Hammond Street,1 Hammond Street,Port Jervis,NY,12771,Yelena Sirotin,2129663759,http://www.pjfarmmarket.com,Saturday  10am-1pm,June 5-October 30,M,Y,Y,Y,Y,41.37555,-74.69237,"(41.37555, -74.69237)"
Jefferson,Carthage Farmers' Market,"Farmers Market Pavilion , 150 Riverside Dr. (behind Carthage Rescue Squad)",150 Riverside Drive,Carthage,NY,13619,Rebecca Wallen,3154933590,http://www.carthageny.com,Friday  9am-4pm,May 28-October 8,P/M,Y,N,N,Y,43.97714,-75.61247,"(43.97714, -75.61247)"
Sullivan,Sullivan Fresh Market on the Move-S.Fallsburg,19 Railroad Plaza South Fallsburg,19 Railroad Plaza,South Fallsburg,NY,12779,Melinda Meddaugh,8452926180,http://www.sullivancce.org,Thursday  2:30pm-4pm,July 7-September 29,M,Y,Y,N,Y,41.70828,-74.6297,"(41.70828, -74.6297)"
New York,Tompkins Square Greenmarket,Tompkins Square Park 111 Ave at E 7 St.,Avenue A and East 7th St,New York,NY,10009,Siobahn Keys,2127887476,http://www.grownyc.org/greenmarket/manhattan/tompkins-square,Sunday  9am-5pm,Year-round,YR,Y,Y,N,Y,40.72602,-73.98353,"(40.72602, -73.98353)"
Monroe,Curbside Market-James Dobson Apts,150 Van Auker St. Rochester,150 Van Auker Street,Rochester,NY,14608,Camille Verbofsky,5854135077,http://www.foodlinkny.org,"Sat 11:30am-12:30pm, closed June 19, July 3 & Sept 4",June 5-November 27,M,Y,Y,N,Y,43.14997,-77.62109,"(43.14997, -77.62109)"
Dutchess,Millerton Farmers' Market,6 Dutchess Ave. Millerton Methodist Church,6 Dutchess Ave.,Millerton,NY,12546,Christine Sergent,5187894259,,Saturday 10am-2pm,Year-round,YR,Y,Y,N,Y,41.9543,-73.50977,"(41.9543, -73.50977)"
Schuyler,Watkins Glen Farmers' Market,Lafayette Park 4th and Decatur Sts.,Fifth St and Porter St,Watkins Glen,NY,14891,Jylle Benson-Gauss,6072271333,,Friday  3pm-6pm,May 28-October 29,P/M,Y,N,N,Y,42.38096,-76.86954,"(42.38096, -76.86954)"
Monroe,Curbside Market-ElderONE PACE Center,2066 Hudson Ave. Rochester,2066 Hudson Ave.,Rochester,NY,14617,Camille Verbofsky,5854135077,http://www.foodlinkny.org,Wed 12pm-1:15pm,June 2-November 24,M,Y,Y,N,Y,43.20568,-77.60067,"(43.20568, -77.60067)"
Jefferson,Watertown Saturday Farmers' Market,"Pavilion at J.B. Wise , 175 Black River Pkway",175 Black River Parkway,Watertown,NY,13601,Shawn Chamberlain,3154081088,,Saturday  9am-2pm,June 5-October 30,M,Y,N,N,Y,43.97651,-75.90988,"(43.97651, -75.90988)"
Albany,Delmar Saturday Farmers' Market,"Bethlehem Middle School, 332 Kenwood Avenue",332 Kenwood Avenue,Delmar,NY,12054,Ken Myer,5184871991,http://www.delmarmarket.org,Saturday  9am-1pm,May 1-December 18,P/M/X,Y,N,N,Y,42.60116,-73.84,"(42.60116, -73.84)"
Lewis,Colwell's Farm Stand and Garden Center,6007 State Route 12 Glenfield,6007 State Route 12,Glenfield,NY,13343,Michael Colwell,3153767402,http://www.colwellsfarmmarket.com,"Mon-Sat  8am-7pm, Sunday  9am-6pm",April 1-November 16,P/M,Y,Y,N,Y,43.71844,-75.41148,"(43.71844, -75.41148)"
Rensselaer,Capital Roots Produce Market,594 River Street Troy,594 River Street,Troy,NY,12180,Audrey Bridge,5182748685,http://www.capitalroots.org,Mon-Fri  9am-5:30pm,Year-round,YR,Y,Y,Y,Y,42.74208,-73.68525,"(42.74208, -73.68525)"
Ontario,Canandaigua Farmers' Market,167 Mill St.,167 Mill Street,Canandaigua,NY,14424,Brian Howell,5854064771,http://www.canandaiguafarmersmarket.com,Sat  8:30am-12:30pm,June 5-October 30,M,Y,N,N,Y,42.8857,-77.27849,"(42.8857, -77.27849)"
Onondaga,Emmi's Farm Market-Liverpool,1401 Buckley Rd. Liverpool,1401 Buckley Road,Liverpool,NY,13088,Anthony Emmi,3156357529,http://www.emmifarms.com,"Mon-Thu  10am-6pm, Fri-Sat  9am-6pm, Sun  10am-3pm",July 15-September 6,M,Y,N,N,Y,43.13879,-76.17373,"(43.13879, -76.17373)"
Kings,Bushwick Maria Hernandez Pk Farmers' Market,Knickerbocker Ave @ Starr & Suydam,Knickerbocker Avenue,Brooklyn,NY,11206,Novelette Scott,7188210254,http://www.riseboro.org,Saturday  9am-3pm,May 22-November 27,P/M,Y,Y,N,Y,40.70257,-73.92497,"(40.70257, -73.92497)"
Chautauqua,Falconer Farmers' Market,130 West Main St.,56 E. Main Street,Falconer,NY,14733,Anna Fales,7166654400,,Friday 12pm-6pm,June 6-October 29,M,N,N,N,Y,42.11763,-79.19952,"(42.11763, -79.19952)"
Westchester,Hastings WINTER Farmers' Market,"134 Southside Ave, Hastings-On-Hudson , Hastings Train Station parking lot",134 Southside Ave,Hastings on Huds,NY,10706,Pascale Le Draoulec,9148063380,http://www.hastingsfarmersmarket.org,Saturday 830am-130pm,Dec 7-May 23,X/W/P,N,Y,N,Y,40.9943,-73.88424,"(40.9943, -73.88424)"
Erie,Kwilos Farm Farm Stand,7678 Erie Rd.  Derby,7678 Erie Rd.,Derby,NY,14074,Joseph Kwilos,7165496201,,"Mon-Sat  10am-6pm, Sunday  10am-4pm",May 6-October 31,P/M,Y,N,N,Y,42.67729,-79.02178,"(42.67729, -79.02178)"
Bronx,Bissel Gardens Farmers' Market-Sat,Baychester Ave. below the E 241 St. intersection,Baychester Ave and East 241st St,Bronx,NY,10470,Heather Dombrowa,3474272547,http://www.bisselgardens.org,Sat  10am-5pm,July 10-November 20,M,Y,N,N,Y,40.90151,-73.84702,"(40.90151, -73.84702)"
Westchester,Ossining Farmers' Market,100 Main Street @ Spring St. Market Square,100 Main Street,Ossining,NY,10562,Mahalia Dees,9149234837,http://www.downtoearthmarkets.com,Saturday 8:30am-1pm,May 8-December 18,P/M/X,Y,Y,Y,Y,41.16105,-73.86351,"(41.16105, -73.86351)"
Oswego,Guppy's Berry Farm Farm Stand,512 County Route 26  West Monroe,512 County Route 26,West Monroe,NY,13617,Elaine Guppy,3156257920,http://www.guppysberryfarmllc.com,"Wed-Fri, Sun 9am-2pm, Saturday  9am-4pm",July 15-September 30,M,Y,N,N,Y,43.35052,-76.03094,"(43.35052, -76.03094)"
Queens,Elmhurst Hospital Greenmarket,79-11  41st Ave. btwn 80th & 81st Sts.,41st Ave and 80th St,Elmhurst,NY,11373,Siobahn Keys,2127887476,http://www.grownyc.org,Tuesday  8am-4pm,June 1-November 23,M,Y,Y,N,Y,40.7458,-73.88548,"(40.7458, -73.88548)"
Onondaga,Central NY Saturday Regional Market Authority,2100 Park St. Syracuse,2100 Park Street,Syracuse,NY,13208,Rachael Ristau,3154228647,http://www.cnyrma.com,Saturday  7am-2pm,Year-round,YR,Y,Y,Y,Y,43.07269,-76.16835,"(43.07269, -76.16835)"
Suffolk,Huntington Village Farmers' Market,"228 Main St Huntington, Elm St Parking Lot",228 Main St,Huntington,NY,11743,Lona Graepel,6319442661,http://www.longislandfarmersmarkets.com,Sat 7:30am-12:30pm,June 5-Nov 20,M,Y,N,N,Y,40.87163,-73.42456,"(40.87163, -73.42456)"
Erie,Groundwork Market Garden Farm Stand,52 Leslie St.  Buffalo,1698 Genesee St.,Buffalo,NY,14211,Mayda Pozantides,7167109394,http://www.groundworkmg.com,Tuesday  4pm-7pm,June 1-October 26,M,Y,Y,N,Y,42.91092,-78.81813,"(42.91092, -78.81813)"
Rockland,Piermont Farmers Market,Parelli Park  Hudson Way Piermont,Hudson Way,Piermont,NY,10968,Joe Serra,9143934533,,Sunday  10am-3pm,May 2-November 21,P/M,Y,N,N,Y,41.04211395,-73.91644342,"(41.04211395, -73.91644342)"
Westchester,Rye Farmers' Market,"9 Theodore Fremd Ave. Rye , behind Purchase Street Stores",9 Theodore Fremd Ave,Rye,NY,10580,Mahalia Dees,9149234837,http://www.downtoearthmarkets.com,Sunday  8:30am-2pm,May 9-December 5,P/M/X,Y,Y,Y,Y,40.98485,-73.68464,"(40.98485, -73.68464)"
Schenectady,Niskayuna Farmers' Market,1 Niskayuna Circle  Niskayuna NY,1 Niskayuna Circle,Niskayuna,NY,12309,Elisabeth Cococcia,5184244215,,Saturday  8:30am-12:30pm,July 10-October 16,M,Y,N,N,Y,42.81911,-73.8854,"(42.81911, -73.8854)"
New York,Dag Hammarskjold Plaza Greenmarket,245 E 47th St. btwn 1st & 2nd Aves.,East 47th St and Second Ave,New York,NY,10017,Siobahn Keys,2127887476,http://www.grownyc.org/greenmarket/manhattan/dag-hammarskjold,Wednesday  8am-4pm,Year-round,YR,Y,Y,N,Y,40.75298,-73.96989,"(40.75298, -73.96989)"
Kings,McCarren Park Greenmarket,228 N. 12th St at Union Ave,N 12th Street and Driggs Ave,Brooklyn,NY,11222,Siobahn Keys,2127887476,http://www.grownyc.org/greenmarket/brooklyn/greenpoint-sa,Saturday  8am-2pm,Year-round,YR,Y,Y,N,Y,40.72046,-73.95269,"(40.72046, -73.95269)"
Wayne,The Apple Shed Farm Stand,"3391 Fairville Maple Ridge Rd.  , Newark",3391 Fairville Maple Ridge Rd,Newark,NY,14513,Barbara Wells,3153316294,http://www.theappleshed.com,Daily  9am-5pm,June 12-December 19,M/X,Y,N,N,Y,43.12967,-77.09774,"(43.12967, -77.09774)"
Greene,Bulich Creekside Farm Farm Stand,1682 Route 23B  Leeds,1682 Route 23B,Leeds,NY,12451,Ron Bulich,5185885320,,Daily  10am-5pm,May 1-October 31,P/M,Y,N,N,Y,42.26297,-73.92541,"(42.26297, -73.92541)"
Queens,Corona Greenmarket,Roosevelt Ave. btwn 103rd & 104th Sts.,Roosevelt Ave and 103rd St,Corona,NY,11368,Siobahn Keys,2127887476,http://www.grownyc.org/greenmarket,Friday  8am-3pm,June 18-November 19,M,Y,Y,N,Y,40.74994,-73.86221,"(40.74994, -73.86221)"
Columbia,New Lebanon WINTER Farmers Market,528 Routes 20 &22 New Lebanon,route 20 &22 New Lebanon,New Lebanon,NY,12125,Chelsea Vigue,5083173502,,"Virtual Market , Order-Monday-Wednesday, Pick-up -Thursday",November 17-May 17,M/X/W/P,N,Y,N,Y,42.46421,-73.39698,"(42.46421, -73.39698)"
Tompkins,Ithaca Farmers' Market (Dewitt Park Tue),Dewitt Park at Buffalo & Cayuga St.,North Cayuga St and East Buffalo St,Ithaca,NY,14850,Kelly Sauve,6072737109,http://www.ithacamarket.com,Tuesday  9am-2pm,June 1-October 26,P/M,Y,Y,Y,Y,42.44131,-76.49911,"(42.44131, -76.49911)"
Rensselaer,Veggie Mobile Sprout-Mayor John Warden Apts,85 Aiken Ave Rensselaer,85 Aiken Ave,Rensselaer,NY,12144,Audrey Bridge,5182748685,http://www.capitalroots.org,Tue 2:15pm-3pm,Year-round,YR,Y,Y,Y,Y,42.63326,-73.73991,"(42.63326, -73.73991)"
Montgomery,Haven of Hope Farm Stand,19 Cemetery St. Fonda,19 Cemetery Street,Fonda,NY,12068,Pat Brooking,5185223342,http://www.havenofhopefarm.org,"Thu/Fri/Sat  9am-4pm, Sunday  12pm-2pm",Year-round,YR,Y,Y,N,Y,42.95627,-74.36841,"(42.95627, -74.36841)"
Delaware,Delhi Farmers' Market,Courthouse Square Main St.,Main St and Court St,Delhi,NY,13753,Meg Kennedy,6074342407,,Wednesday  9am-2pm,June 2-September 29,M,Y,N,N,Y,42.27744,-74.91673,"(42.27744, -74.91673)"
Nassau,Seaford Farmers' Market,"Seaford Railroad Station Parking lot 3, Sunrise Highway & Washington Ave",Sunrise Highway and Washington St.,Seaford,NY,11783,Ethel Terry,6313233653,http://www.longislandgrowersmarket.com,Saturday  7am-12pm,June 5-November 20,M,Y,N,N,Y,40.67572,-73.48657,"(40.67572, -73.48657)"
Schenectady,Veggie Mobile-Hillside View Apts,602 Craig Street  Schenectady,602 Craig Street,Schenectady,NY,12307,Audrey Bridge,5182748685,http://www.captialroots.org,Friday 2:15pm-3pm,Year-round,YR,Y,Y,Y,Y,42.80323,-73.93741,"(42.80323, -73.93741)"
Orange,Tuxedo Farmers' Market,"Tuxedo Train Station,  240 Rt. 17N",240 State Route 17,Tuxedo,NY,10987,Lorraine Barbarash,8453251278,http://www.tuxedofarmersmarket.com,Saturday  9am-2pm,June 12-October 30,M,Y,N,N,Y,41.19447,-74.18447,"(41.19447, -74.18447)"
Franklin,JCEO MM-Riverside Haven Apartments,77 Catherine St. Malone,50 Catherine St.,Malone,NY,12953,Richard LaVigne,5183194028,http://www.jceo.org,Thursday 10am-11:15am,June 3-September 30,M,Y,Y,N,Y,44.84783,-74.29156,"(44.84783, -74.29156)"
Erie,Bowman Farms Farm stand,11259 Gowanda State Rd. North Collins,11259 Gowanda State Rd.,North Collins,NY,14111,Susan Bowman,7163372695,http://www.bowmanfarmsinc.com,Daily  9am-5pm,June 15-October 11,M,Y,Y,N,Y,42.57506,-78.93838,"(42.57506, -78.93838)"
Bronx,Lincoln Hospital Fri Greenmarket,234 E 149th St btwn Park and Morris Aves Bronx,East 149th St and Morris Ave,Bronx,NY,10451,Siobahn Keys,2127887476,http://www.grownyc.org/greenmarket,Friday  8am-3pm,Year-round,YR,Y,Y,N,Y,40.8174,-73.92276,"(40.8174, -73.92276)"
Richmond,Staten Island Mall Greenmarket,77 Marsh Ave. and Ring Rd. Commuter Lot,2655 Richmond Ave,Staten Island,NY,10314,Siobahn Keys,2127887476,http://www.grownyc.org/greenmarket,Saturday  8am-3pm,May 1-December 18,P/M,Y,Y,N,Y,40.58199,-74.16607,"(40.58199, -74.16607)"
Schenectady,Veggie Mobile-Summit Towers,720 Albany St. Schenectady,720 Albany street,Schenectady,NY,12307,Audrey Bridge,5182748685,http://www.capitalroots.org,Fri 1:30pm-2pm,Year-round,YR,Y,Y,Y,Y,42.80923,-73.93822,"(42.80923, -73.93822)"
Steuben,Dave's Produce Farm Stand,6719 State Route 415 S Bath,6719 State Route 415 South,Bath,NY,14810,David Hyer,6077947043,,"Mon-Fri  10am-6pm, Sat-Sun  10am-5pm",April 1-December 24,P/M/X,Y,N,N,Y,42.32583,-77.29073,"(42.32583, -77.29073)"
Cattaraugus,Miller's Farm Market,1685 Olean Portville Rd. Olean,1685 Olean Portville Rd.,Olean,NY,14760,Keith Miller,7163073843,,"Mon-Sat  9am-6pm, Sun  9am-5pm",April 1-December 24,P/M/X,Y,Y,N,Y,42.071439,-78.39814,"(42.071439, -78.39814)"
Washington,Slateville Farm Stand,"304 County Route 28, Granville NY",304 County Route 28,Granville,NY,12832,Heather Magee,5186423699,http://www.slateville.com,Thursday  1pm-5pm,May 6-November 18,M,Y,N,N,Y,43.34386,-73.29593,"(43.34386, -73.29593)"
Monroe,Curbside Market-Danforth Towers,140 West Ave Rochester,140 West Avenue,Rochester,NY,14611,Camille Verbofsky,5854135077,http://www.foodlinkny.org,"Thu  1:30pm-2:30pm, closed July 1",June 3-November 25,M,Y,Y,N,Y,43.15038,-77.64166,"(43.15038, -77.64166)"
Albany,Veggie Mobile-Howe Library,Schuyler & Broad St. Albany,Schuyler St and Broad Street,Albany,NY,12202,Audrey Bridge,5182748685,http://www.capitalroots.org,Tue 3pm-3:45pm,Year-round,YR,Y,Y,Y,Y,42.64112,-73.75802,"(42.64112, -73.75802)"
Monroe,Brightly's Farm Market,525 Drake Rd.  Hamlin,525 Drake Rd.,Hamlin,NY,14464,Betsy Brightly,5856364337,http://www.brightlyfarms.com,"Daily  9am-5pm, Friday  9am-8pm, Sat  9am-6pm",Year-round,YR,Y,N,N,Y,43.29471,-77.94344,"(43.29471, -77.94344)"
Erie,Clinton Bailey Mon Farmers' Market,1443-1517 Clinton St. Buffalo,Bailey Ave and Clinton St,Buffalo,NY,14206,Sharon Baldi,7162080003,http://www.clintonbaileymarket.com,Monday 7am-5pm,May 1-October 31,P/M,Y,Y,N,Y,42.87206,-78.81997,"(42.87206, -78.81997)"
Niagara,North Tonawanda City Tue Farmers' Market,Robinson Rd. & Payne Ave.,310 Robinson Road,North Tonawanda,NY,14120,Donna Braun,7166958555,,Tuesday  7am-1pm,Year-round,YR,Y,Y,N,Y,43.03377,-78.87021,"(43.03377, -78.87021)"
Clinton,Champlain Farmers' Market,Paquette Park Gazebo Main Street (rte 9),Main Street,Champlain,NY,12919,Janet McFetridge,5182984152,http://www.vchamplain.com,Saturday  9am-12pm,July 3-September 25,M,Y,N,N,Y,44.98721,-73.44961,"(44.98721, -73.44961)"
Monroe,Partyka Farms Farm Stand,1420 County Line Rd. Kendall,1420 County Line Rd.,Kendall,NY,14470,Lora Partyka,5857520258,http://www.partykafarms.com,Daily  9am-7pm,Year-round,YR,Y,Y,N,Y,43.29811,-77.99548,"(43.29811, -77.99548)"
Niagara,Niagara Falls City Friday Market,19th St. & Pine Ave.,1800-1808 Pine Ave,Niagara Falls,NY,14301,Victor Muto,7167540798,,Friday  9am-3pm,Year-round,YR,Y,N,N,Y,43.09513,-79.03972,"(43.09513, -79.03972)"
Kings,TFFJ Fresh Farm Market-Brooklyn,85 Watkins St Brooklyn,85 Watkins St,Brooklyn,NY,11212,Katherine Soll,9292411029,http://www.teensforjustice.org,Tuesday 2:30pm-5pm,Year-Round,YR,N,Y,N,Y,40.67083,-73.90815,"(40.67083, -73.90815)"
Monroe,Curbside Market-Liberty Apartments,5251 Parkside Drive Canandaigua,5251 Parkside Drive,Canandaigua,NY,14424,Camille Verbofsky,5854135077,http://www.foodlinkny.org,Tue 1:15pm-3pm,June 2-November 24,M,Y,Y,N,Y,42.91153,-77.29313,"(42.91153, -77.29313)"
Bronx,Mott Haven Farm Stand,545 East 142nd St. Bronx,545 East 142nd Street,Bronx,NY,10454,Rachel Gill,7185083156,http://www.bronxworks.org,Wednesday  9am-3pm,July 7-November 17,M,Y,N,N,Y,40.80979,-73.91585,"(40.80979, -73.91585)"
Cattaraugus,Salamanca Farmers Market,768 Broad St Salamanca,768 Broad St,Salamanca,NY,14779,Rachael Ferguson,7168608419,,Tuesday 11am-5pm,May 25-October 26,P/M,Y,N,N,Y,42.1593,-78.74484,"(42.1593, -78.74484)"
Franklin,Saranac Lake Village Farmers' Market,"Riverside Park , Corner of Main St. & Route 3",Corner of Main St. & Route 3,Saranac Lake,NY,12983,Dan Rivera,5185634777,http://www.ausablevalleygrangefarmersmarkets.com,Saturday  9am-1pm,May 29-October 9,M,Y,Y,Y,Y,44.32503,-74.13178,"(44.32503, -74.13178)"
Erie,Springville Farmers' Market,Gentner Auction 341 W. Main St. (Rt. 39),341 West Main St,Springville,NY,14141,Donna Goldhawk,7165600198,,"Wednesday  7am-3pm, winter hours change",Year-round,YR,N,N,N,Y,42.50906,-78.67989,"(42.50906, -78.67989)"
Franklin,Akwesasne Farmers' Market,30 Margaret Terrance Memorial Way,30 Margaret Terrance Memorial Way,Akwesasne,NY,13655,Jessica Ayotte,5183583141,,Wed/Sat  11am-2pm,June 30-October 16,M,Y,N,N,Y,44.9867,-74.6755,"(44.9867, -74.6755)"
Monroe,The Mall at Greece Ridge Sat Farmers' Market,271 Greece Ridge Center Drive  Rochester,271 Greece Ridge Center Drive,Rochester,NY,14626,Melanie Fazio,5852251140,http://www.themallatgreeceridge.com,Saturday  8am-2pm,June 5-October 30,M,Y,N,N,Y,43.20677,-77.69406,"(43.20677, -77.69406)"
Ontario,Curbside Market-Lycelm Heights,150 Lyceum Street Geneva,150 Lyceum Street,Geneva,NY,14456,Camille Verbofsky,5854135077,http://www.foodlinkny.org,"Fri 1:15am-2:15pm, closed June 18 & July 2",June 4-November 26,M,Y,Y,N,Y,42.86819,-76.99829,"(42.86819, -76.99829)"
Albany,Veggie Mobile-Cohoes Senior Ctr,100 Cayuga Plaza Cohoes,100 Cayuga Plaza,Cohoes,NY,12047,Audrey Bridge,5182748685,http://www.capitalroots.org,Wednesday 3pm-4pm,Year-round,YR,Y,Y,Y,Y,42.77712,-73.70101,"(42.77712, -73.70101)"
Suffolk,Dobler's Farm Stand,1989 Deer Park Avenue,1989 Deer Park Avenue,Deer Park,NY,11729,Erika Dobler,5769651568,,Daily 9am-5pm,June 1-December 24,M/X,Y,N,N,Y,40.76618,-73.33076,"(40.76618, -73.33076)"
New York,Bro/Sis Green Youth Market,"Johnny Hartman Plaza (North Corner), Across from 140 Hamilton Place",143rd Street and Amsterdam Ave,Manhattan,NY,10031,Wendy Flores,2122837044,http://brotherhood-sistersol.org/programs/environmental-program,Wed  10:30am-6pm,May 12-November 24,P/M,Y,Y,N,Y,40.82396,-73.94855,"(40.82396, -73.94855)"
Queens,Ridgewood GrowNYC Farm Stand,Cypress Ave. btwn Myrtle & Putnam Aves.,Myrtle Ave and Cypress Ave,Ridgewood,NY,11385,Siobahn Keys,2127887476,https://www.grownyc.org/farmstands,Saturday  8:30am-3pm,July 10-November 20,M,Y,Y,N,Y,40.70011,-73.90619,"(40.70011, -73.90619)"
Orleans,Canal Village Farmers' Market,127 W Center St. Medina,127 W Center St.,Medina,NY,14103,Gail Miller,5857983904,,Sat  9am-2pm,Year-round,YR,Y,Y,Y,Y,43.220217,-78.38851,"(43.220217, -78.38851)"
Dutchess,Amenia WINTER Farmers' Market,Amenia Town Hall 4988 Route 22,4988 New York 22,Amenia,NY,12501,Sophie Purdy Meili,4133297389,http://www.ameniafarmersmarket.com,"Saturday  10am-2pm, 1st & 3rd Saturday  Jan-Apr",November-April,M/X/W/P,N,Y,N,Y,41.851397,-73.554943,"(41.851397, -73.554943)"
Montgomery,Canajoharie Farmers' Market,24 Church Street Wagner Square parking lot,24 Church Street,Canajoharie,NY,13317,Janet L. Stanley,5186730292,,Sunday  11am-2pm,May 9-October 31,M,Y,N,N,Y,42.90515,-74.57222,"(42.90515, -74.57222)"
Oswego,Fulton Farmers' Market,"Canalview Mall Parking Lot , Off Route 41 Fulton",Canalview Mall,Fulton,NY,13069,Sara Broadwell,3155915491,,Saturday  8am-12pm,June 5-October 9,M,Y,Y,N,Y,43.3111,-76.40499,"(43.3111, -76.40499)"
St. Lawrence,Veggies R Us,"452 County Route 46 Lot 2, Massena",452 County Route 46,Massena,NY,13662,Shirley Peck,3157695322,,"Tue-Sun  8am-8pm, Mon  11am-2pm",June 30-October 30,M,Y,N,N,Y,44.94473,-74.79344,"(44.94473, -74.79344)"
New York,175th Street Greenmarket,651 W 175th St. btwn Wadsworth & Broadway,651 West 175th St and Broadway,New York,NY,10038,Siobahn Keys,2127887476,http://www.grownyc.org/greenmarket,Thursday  8am-4pm,June 24-November 18,M,Y,Y,N,Y,40.84622,-73.93847,"(40.84622, -73.93847)"
Wayne,Henderberg Farms Farm Stand,3820 Hwy 414 Rose,3820 Hwy 414,Rose,NY,14542,Charles Henderberg,3155879062,,"Mon-Sat  10am-6pm, Sunday  10am-2pm",April 20-November 25,P/M,Y,N,N,Y,43.14429,-76.87492,"(43.14429, -76.87492)"
Saratoga,Spa City Farmers' Market,"65 South Broadway Saratoga Spa St Pk, Lincoln Bath House Building",65 South Broadway,Saratoga Springs,NY,12866,Colleen Zorbas,5183390958,http://www.spacityfarmersmarket.com,Sundays  10am-2pm,Year-round,YR,N,N,N,Y,43.06474,-73.78876,"(43.06474, -73.78876)"
Allegany,Riverside Farms Farm Market,3314 Riverside Drive  Scio,3314 Riverside Drive,Scio,NY,14895,Stephen Demarte,7165605594,,"Mon-Sat  10am-6pm, Sun  12pm-5pm",April 30-November 15,P/M,Y,N,N,Y,42.14093,-77.97553,"(42.14093, -77.97553)"
Monroe,Westside Farmers' Market,"St. Monica's Church parking lot, 831 Genesee St. Rochester",831 Genesee St,Rochester,NY,14611,Jackie Farrell,5854368999,http://www.westsidemarketrochester.com,Tuesday  4pm-7pm,June 8-October 12,M,Y,Y,Y,Y,43.134058,-77.636523,"(43.134058, -77.636523)"
Westchester,Mamaroneck WINTER Farmers' Market,"1 Harbor Island Park Mamaronec, Inside Pavillion",168 W. Boston Post Rd.,Mamaroneck,NY,10543,Mahalia Dees,9149234837,http://www.downtoearthmarkets.com,Saturday  9am-1pm,January 9-April 17,W/P,N,Y,N,Y,40.948085,-73.734649,"(40.948085, -73.734649)"
Tioga,Seven Counties Farmers' Market-Tues,Rite Aid parking lot 153 Main St. Owego,Main St and Central Ave,Owego,NY,13827,John Purdy,6076428439,,Tuesday  9am-1pm,June 15-October 26,M,Y,N,N,Y,42.10324,-76.26314,"(42.10324, -76.26314)"
Erie,Clinton Bailey Tues Farmers' Market,1443-1517 Clinton St. Buffalo,Bailey Ave and Clinton St,Buffalo,NY,14206,Sharon Baldi,7162080003,http://www.clintonbaileymarket.com,Tuesday 4am-5pm,May 1-October 31,P/M,Y,Y,N,Y,42.87206,-78.81997,"(42.87206, -78.81997)"
Sullivan,Kauneonga Lake Farmers' Market,Village Square 3594 Rt 55 Kauneonga Lake,3597 State Route 55,Kauneonga Lake,NY,12749,Chris Cunningham,8455834350,http://www.kauneongalakefarmersmarket.org,Saturday  10am-1pm,June 26-September 4,M,Y,N,N,Y,41.68587,-74.83132,"(41.68587, -74.83132)"
Albany,Veggie Mobile Sprout-Robert Whalen,305 Colonie Street Albany,305 Colonie Street,Albany,NY,12210,Audrey Bridge,5182748685,http://www.capitalroots.org,Wed 11:15am-12pm,Year-round,YR,Y,Y,Y,Y,42.66338,-73.75595,"(42.66338, -73.75595)"
Cayuga,Badman's Bushel Basket,14698 Route 90  Cortland,14698 Route 90,Cortland,NY,13045,Scott Badman,6077495233,,"Tue-Sat  9am-6:30pm, Sun  9am-5pm",May 5-October 30,P/M,Y,N,N,Y,42.63978,-76.27522,"(42.63978, -76.27522)"
Erie,MAP Mobile Market-Neighborhood Health Center Mattina,300 Niagara Street Buffalo,300 Niagara Street,Buffalo,NY,14201,Danielle Rovillo,7168825327,,Wednesday 10am-12pm,June 2-December 31,M/X,Y,Y,N,Y,42.89206,-78.88399,"(42.89206, -78.88399)"
New York,Mount Sinai Hospital Greenmarket,1425 Madison Ave. at E 99th St.,East 99th St and Madison Ave,New York,NY,10029,Siobahn Keys,2127887476,http://www.grownyc.org/greenmarket,Wednesday  8am-5pm,June 16-November 24,M,Y,Y,N,Y,40.78918,-73.95276,"(40.78918, -73.95276)"
Monroe,Curbside Market-Pinnacle Place Apartments,919 South Clinton Ave. Rochester,919 South Clinton Ave,Rochester,NY,14620,Camille Verbofsky,5854135077,http://www.foodlinkny.org,Wed  10:45am-12pm,June 2-November 24,M,Y,Y,N,Y,43.14006,-77.59637,"(43.14006, -77.59637)"
Ontario,Victor Farmers' Market,Village Hall Parking Lot 60 East Main St.,60 East Main St,Victor,NY,14564,Roseanne Turner-Adams,5859243311,http://www.victorny.org,Wednesday  3pm-6pm,June 2-October 27,M,Y,N,N,Y,42.98236,-77.4088,"(42.98236, -77.4088)"
St. Lawrence,Gouverneur Farmers' Market,East Main Street Park,East Main Street and Village Park,Gouverneur,NY,13642,Linda E. Brown,3152870384,http://www.gouverneurchamber.net,Thursday  9am-2pm,June 3-October 28,M,Y,Y,N,Y,44.33871,-75.45766,"(44.33871, -75.45766)"
Suffolk,Thera Farms Farm Stand,1725 Brentwood Road Brentwood,1725 Brentwood Road,Brentwood,NY,11717,Teddy Bolkas,6314785229,,Daily  9am-5pm,May 15-October 31,P/M,Y,N,N,Y,40.77235,-73.24614,"(40.77235, -73.24614)"
Tioga,Seven Counties Farmers' Market-Fri,153 Main Street Owego,153 Main Street,Owego,NY,13827,John Purdy,6076428439,,Friday  9am-1pm,June 18-October 29,M,Y,N,N,Y,42.10315,-76.26336,"(42.10315, -76.26336)"
Erie,5 Loaves Farm Stand-Delavan Ave,70 West Delavan Ave Buffalo,70 West Delevan Ave,Buffalo,NY,14213,Matt Kauffman,7168039241,,Friday  4pm-7pm,July 2-September 30,M,Y,N,N,Y,42.9223,-78.8969,"(42.9223, -78.8969)"
Queens,NYC Health+Hospitals Farmers' Market-Queens 2,WIC Clinic 114-02 Guy R Brewer Blvd. Jamaica,114-02 Guy R Brewer Blvd,Queens,NY,11434,Sherly Thomas,7188832134,http://www.nychealthandhospitals.org/queens,Tuesday  8am-4pm,July 21-November 23,M,Y,N,N,Y,40.68851,-73.78588,"(40.68851, -73.78588)"
Bronx,Harvest Home Mt. Eden Farmers' Market,"Claremont Park, Mt. Eden PKWY  & Morris Ave",Mt Eden Pkwy and Morris Ave,Bronx,NY,10457,Maritza Owens,2128283361,http://www.harvesthomefm.org,Tue/Thu  8am-4pm,June 22-November 23,M,Y,Y,N,Y,40.84305,-73.90947,"(40.84305, -73.90947)"
Kings,Harvest Home Kings Co. Hospital Farmers' Market,Clarkson Ave btwn E 37th & E 39th Sts.,511 Clarkson Ave,Brooklyn,NY,11203,Maritza Owens,2128283361,http://www.harvesthomefm.org,Wednesday  8am-5pm,June 16-November 24,M,Y,Y,N,Y,40.65588,-73.94245,"(40.65588, -73.94245)"
Orleans,Lori's Market Basket Farm Stand,51 State St.  Holley,51 State Street,Holley,NY,14470,Lori Passarell,5856387113,,Daily  9am-6pm,May 1-November 30,P/M,Y,N,N,Y,43.22135,-78.02329,"(43.22135, -78.02329)"
Kings,Bartel-Pritchard Square Wed Greenmarket,205 Prospect Park at West 15th St. inside park,Prospect Park West and 14th Street,Brooklyn,NY,11215,Siobahn Keys,2127887476,http://www.grownyc.org/greenmarket,Wednesday 8am-3pm,Year-round,YR,Y,Y,N,Y,40.6616,-73.97939,"(40.6616, -73.97939)"
Ulster,Kingston WINTER Farmers' Market,"County Courthouse lot  285 Wall St, Jan/Feb only:  Senate Garage 4 N. Front St.",272 Wall Street,Kingston,NY,12401,Laura Crimmins,6462624672,http://www.kingstonfarmersmarket.org,Alt Saturdays  10am-2pm,December 4-April 23,X/W/P,N,Y,Y,Y,41.93286,-74.01884,"(41.93286, -74.01884)"
Orange,Middletown Farmers' Market,Erie Way Park 1-31 Union St. Middletown,1-31 Union St.,Middletown,NY,10940,Stephania Sande,8453438075,http://www.middletownbid.org,Saturday  8am-1pm,June 5-October 23,M,Y,N,N,Y,41.44814,-74.41459,"(41.44814, -74.41459)"
Clinton,Northern Orchard Farm Stand,470 Union Road Peru,470 Union Road,Peru,NY,12972,Jenna Mulbury,5186439718,http://www.northernorchard.com,"Daily  10am-5pm, Closed Tuesday",May 10-December 23,P/M/X,Y,Y,N,Y,44.5569,-73.53324,"(44.5569, -73.53324)"
New York,82nd Street Saint Stephen's Greenmarket,408 E 82nd St.  btwn 1st & York Aves.,408 East 82nd Street,New York,NY,10128,Siobahn Keys,2127887476,http://www.grownyc.org/greenmarket/manhattan/82nd-street,Saturday  9am-2:30pm,Year-round,YR,Y,Y,N,Y,40.77394,-73.9506,"(40.77394, -73.9506)"
Schenectady,Veggie Mobile-Schenectady DSS,797 Broadway Schenectady,797 Broadway,Schenectady,NY,12305,Audrey Bridge,5182748685,http://www.capitalroots.org,Mon  3pm-3:45pm,Year-round,YR,Y,Y,Y,Y,42.80375,-73.95193,"(42.80375, -73.95193)"
Saratoga,Gifford Farms Shelly Park Farm Stand,Shelly Park Coconut Dr at Putman Rd Gansevoort,Coconut Dr at Putman Rd,Gansevoort,NY,12831,Tessie Winslow,5187965762,,Monday 1pm-4pm,July 5-September 27,M,Y,N,N,Y,43.17249,-73.64908,"(43.17249, -73.64908)"
Chemung,Grove Park Farm Stand,4th St. & Walnut Ave. Elmira,Walnut Ave and West 4th St,Elmira,NY,14901,Matthew Glenn,6075464535,,Monday  3pm-6pm,June 1-October 26,M,N,N,N,Y,42.09212,-76.82014,"(42.09212, -76.82014)"
Putnam,Cold Spring WINTER Farmers' Market,"St. Mary's Episcopal Church Parish Hall, 1 Chestnut Street Cold Spring",1 Chestnut St,Cold Spring,NY,10516,Colin Wright,9179570695,http://www.csfarmmarket.org,Saturday  9:30am-1:30pm,November 2-April 26,M/X/W/P,N,Y,N,Y,41.419897,-73.954688,"(41.419897, -73.954688)"
Genesee,Curbside Market-400 Towers,400 E Main St St. Batavia,400 East Main St.,Batavia,NY,14020,Camille Verbofsky,5854135077,http://www.foodlinkny.org,Mon 2pm-3pm,May 31-November 22,M,Y,Y,N,Y,42.99659,-78.17634,"(42.99659, -78.17634)"
Yates,Yates County Co-op Farm & Craft Market,"""Penn Yan Farmers Market"", Jacob Street Penn Yan",Jacob Street,Penn Yan,NY,14527,Rivka Davis,6072435234,,Saturday  8:00am-12:30pm,May 29-October 16,P/M,Y,N,N,Y,42.66095,-77.05365,"(42.66095, -77.05365)"
Richmond,Saint George Greenmarket,35 Hyatt St. at St. Mark's Place Staten Island,St Marks Pl and Hyatt St,Staten Island,NY,10301,Siobahn Keys,2127887476,http://www.grownyc.org/greenmarket/staten-island/saint-george,Saturday  9am-1pm,Year-round,YR,Y,Y,N,Y,40.64159,-74.07791,"(40.64159, -74.07791)"
Suffolk,Andrews Family Farm Farm Stand,1038 Sound Ave Calverton,1038 Sound Ave,Calverton,NY,11933,Robert Andrews,6319295963,,Daily  9am-5pm,April 1-December 30,P/M,Y,N,N,Y,40.94993,-72.80243,"(40.94993, -72.80243)"
Queens,Jamaica Hospital Farm Stand,134-20 Jamaica Ave. Jamaica,134-20 Jamaica Ave.,Jamaica,NY,11418,Javier or Estella Perez,9569037539,,Wednesday 9am-4pm,June 9-November 25,M,Y,N,N,Y,40.7024,-73.81767,"(40.7024, -73.81767)"
Herkimer,MAWS Farm Stand,7342 Main Street Newport,7342 Main Street,Newport,NY,13416,Michael Skwara,3159850088,http://www.mawsfarm.com,Daily  9am-6pm,Year-round,YR,Y,Y,N,Y,43.18096,-75.01054,"(43.18096, -75.01054)"
Clinton,Shield's Vegetables Farm Stand,6303 State Route 22  Plattsburgh,6303 State Route 22,Plattsburgh,NY,12901,Sam Dyer,5185610473,,Daily  10am-6pm,July 15-October 31,M,Y,Y,N,Y,44.73789,-73.47064,"(44.73789, -73.47064)"
New York,Bowling Green Thursday Greenmarket,1 Bowling Green,1 Bowling Green,New York,NY,10004,Siobahn Keys,2127887476,http://www.grownyc.org/greenmarket,Thursday  8am-5pm,Year-round,YR,Y,Y,N,Y,40.70445,-74.01423,"(40.70445, -74.01423)"
Suffolk,HOG Farm Stand-Brookhaven,319 Beaverdam Rd. Brookhaven,319 Beaverdam Rd,Brookhaven,NY,11719,Lauren Napoli,6317902561,,"M/W/F  3pm-6:30pm, Saturday  9am-1pm",May 20-December 20,P/M/X,Y,Y,N,Y,40.77329,-72.90525,"(40.77329, -72.90525)"
Rensselaer,Veggie Mobile Sprout-Monument Square Apts,2  1st Street #1 Troy,1st Street #1,Troy,NY,12180,Audrey Bridge,5182748685,http://www.captialroots.org,Tue 12:15pm-12:45pm,Year-round,YR,Y,Y,Y,Y,42.73123,-73.69261,"(42.73123, -73.69261)"
Monroe,Curbside Market-Seneca Towers,200 Seth Green Dr Rochester,200 Seth Green St,Rochester,NY,14621,Camille Verbofsky,5854135077,http://www.foodlinkny.org,Tue 1:30pm-3pm,June 1-November 23,M,Y,Y,N,Y,43.1904,-77.61943,"(43.1904, -77.61943)"
Bronx,Harvest Home Co-op City Farm Stand,Asch Loop & Aldrich St.,199 Aldrich St.,Bronx,NY,10475,Maritza Owens,2128283361,http://www.harvesthomefm.org,Wednesday  8am-4pm,June 16-November 24,M,Y,Y,N,Y,40.87025,-73.83097,"(40.87025, -73.83097)"
Monroe,Curbside Market-Heritage Gardens,950 Commons Way Rochester 14623,950 Commons Way,Rochester,NY,14623,Camille Verbofsky,5854135077,http://www.foodlinkny.org,Mon 4pm-5pm,May 31-November 22,M,Y,Y,N,Y,43.08327,-77.60406,"(43.08327, -77.60406)"
Allegany,Alfred Farmers' Market,3 South Main St.,3 South Main Street,Alfred,NY,14802,Amanda Khodarkavskaya,6075878834,http://www.alfredfarmersmarket.com,Sunday  11am-3pm,June 13-October 31,M,N,Y,Y,Y,42.25359,-77.79036,"(42.25359, -77.79036)"
Kings,Project EATS Essex Crossing Farm Stand,125 Delancey St New York,125 Delancey St,New York,NY,10002,Shevan Durant,2126121528,,Sat  10am-4pm,June 5-November 20,M,Y,Y,N,Y,40.71818,-73.98757,"(40.71818, -73.98757)"
Erie,East Aurora Saturday Farmers' Market,Aurora Village (TOPS) Plaza 123 Grey St.,123 Grey St,East Aurora,NY,14052,Gail Fenton,5853439491,http://www.eastaurorafarmersmarket.com,Saturday  7am-1pm,May 1-November 20,P/M,Y,N,N,Y,42.76593,-78.63413,"(42.76593, -78.63413)"
Westchester,Hartsdale Farmers' Market,"E. Hartsdale and Fenimore Rd, next to Train Station",East Hartsdale Ave and Fenimore Rd,Hartsdale,NY,10530,Nancy Chiocchi,9149499403,,Saturday  8am-4pm,June 5-November 20,M,Y,N,N,Y,41.01072,-73.79656,"(41.01072, -73.79656)"
Nassau,Port Washington Organic Farmers' Market,Port Washington Town Dock 347 Main St.,347 Main St.,Port Washington,NY,11050,Patti Wood,5168830887,http://www.grassrootsinfo.org,Saturday  8am-12pm,June 5-November 20,M,Y,N,N,Y,40.83153,-73.7019,"(40.83153, -73.7019)"
New York,Rockefeller Center Thu Greenmarket,Rockefeller Plaza at 50th St.,Rockefeller Plaza and West 50th St,New York,NY,10112,Siobahn Keys,2127887476,http://www.grownyc.org/greenmarket,Thursday  8am-5pm,July 22-August 26,M,Y,Y,N,Y,40.75914,-73.97873,"(40.75914, -73.97873)"
Franklin,JCEO MM-Alice Hyde Medical Center,135 Park St. at 6th St Malone,135 Park St.,Malone,NY,12953,Richard LaVigne,5183194028,http://www.jceo.org,Wed  11:15am-12:30pm,June 2-September 29,M,Y,Y,N,Y,44.85654,-74.29187,"(44.85654, -74.29187)"
Bronx,Project EATS St. Barnabas,4522 Third Ave. Bronx,4522 Third Ave.,Bronx,NY,10457,Shevan Durant,2126121528,http://www.projecteats.org,Thursday  12pm-4pm,June 3-November 18,M,Y,Y,N,Y,40.85495,-73.89033,"(40.85495, -73.89033)"
Cortland,Cincinnatus Farmers' Market,"Cortland-Chenango Rural Services, 2704 Lower Cincinnatus Rd.",2704 Lower Cincinnatus Rd,Cincinnatus,NY,13040,Paul Halstead,6078368972,,Saturday  9am-12pm,May 30-October 31,M,Y,N,N,Y,42.53812,-75.89662,"(42.53812, -75.89662)"
Warren,Glens Falls Farmers' Market,South Street Market Pavilion,25 South Street,Glens Falls,NY,12801,Richard Sandora,5187920438,http://www.glensfallsfarmersmarket.com,Saturday  8am-12pm,May 1-October 30,P/M,Y,Y,Y,Y,43.3099,-73.64699,"(43.3099, -73.64699)"
New York,Union Square Saturday Greenmarket,"31 Union Square W , NW side of Park",Broadway and East 17th St,New York,NY,10003,Siobahn Keys,2127887476,https://www.grownyc.org/greenmarket,Saturday  8am-6pm,Year-round,YR,Y,Y,N,Y,40.7371,-73.99032,"(40.7371, -73.99032)"
Erie,MAP Mobile Market-Elim Fellowship,"70 Chalmers Ave. Buffalo, Parking lot, at Holden St.",70 Chalmers Avenue,Buffalo,NY,14214,Danielle Rovillo,7168825327,http://www.mass-ave.org,Wednesday 4pm-6pm,June 2-October 27,M,Y,Y,N,Y,42.93779,-78.83581,"(42.93779, -78.83581)"
Dutchess,Poughkeepsie Waterfront Farmers' Market,75 North Water St.,75 North Water St.,Poughkeepsie,NY,12601,Lara Litchfield-Kimber,8454710589,,Monday  3pm-6:30pm,May 3-October 25,M,Y,Y,N,Y,41.70891,-73.93896,"(41.70891, -73.93896)"
Oneida,Clinton Farmers' Market,Village Green  21 West Park Row,21 West Park Row,Clinton,NY,13323,Jackie Walters,3158531735,http://www.clintonnychamber.org,Thursday  10am-4pm,June 3-October 7,M,Y,Y,Y,Y,43.04932,-75.37881,"(43.04932, -75.37881)"
Albany,Veggie Mobile-Thurlow Terrace,2 Thurlow Terrace Albany,2 Thurlow Terrace,Albany,NY,12203,Audrey Bridge,5182748685,http://www.capitalroots.org,Wed 12pm-1pm,Year-round,YR,Y,Y,Y,Y,42.65998,-73.77276,"(42.65998, -73.77276)"
Albany,New Covenant Farmers' Market,"New Covenant Presbyterian Church, 916 Western Ave. Albany",916 Western Ave,Albany,NY,12203,Katy Stenta,5184828063,,Tuesday  3pm-6pm,June 1-October 12,M,Y,N,N,Y,42.67228,-73.81026,"(42.67228, -73.81026)"
Cayuga,Moravia Farmers' Market,Kinney Drug Store pkg lot 130 Main St.,130 Main St,Moravia,NY,13118,Jayne Andrews,3157301412,,Thursday  10am-2pm,June 3-October 28,M,Y,N,N,Y,42.71209,-76.42079,"(42.71209, -76.42079)"
St. Lawrence,Canton Friday Farmers' Market,Village Green Park 17 Park St @ Main St.,Village Green Park  Main St.,Canton,NY,13617,Sonja Jenson,3156058133,,Friday  9am-2pm,May 14-October 29,P/M,Y,Y,N,Y,44.59564,-75.16728,"(44.59564, -75.16728)"
Monroe,Curbside Market-Carriage Factory Apts,33 Litchfield St. Rochester,33 Litchfield Street,Rochester,NY,14608,Camille Verbofsky,5854135077,http://www.foodlinkny.org,Tue 1:30pm-2:30pm,June 1-November 23,M,Y,Y,N,Y,43.15396,-77.62575,"(43.15396, -77.62575)"
Cortland,Valley View Farms Farm Stand,"44 James St Homer, at Old Homer House",44 James St,Homer,NY,13077,Joan Franklin,6077493424,,Thursday  1pm-5pm,July 1-October 28,M,Y,N,N,Y,42.63646,-76.18335,"(42.63646, -76.18335)"
Broome,Broome Co Regional Sat Farmers' Market,840 Upper Front St. Binghamton,840 Upper Front St.,Binghamton,NY,13905,Amy Willis,6075845019,http://www.broomecountyregionalmarket.com,Saturday  9am-1pm,Year-round,YR,Y,Y,Y,Y,42.12921,-75.90609,"(42.12921, -75.90609)"
New York,Grass Roots Farmers' Market,"Jackie Robinson Park W 145th St., btwn Edgecomb & Bradhurst Aves.",West 145th St and Edgecombe Ave,New York,NY,10030,Gabrielle Girigorie,2122522113,,Sat/Tue  9am-4pm,July 10-November 27,M,Y,Y,N,Y,40.82365,-73.94385,"(40.82365, -73.94385)"
Kings,Brooklyn Borough Hall Saturday Greenmarket,211 Montague St. Supreme Court Plaza,Court St and Montague St,Brooklyn,NY,11201,Siobahn Keys,2127887476,http://www.grownyc.org/greenmarket,Saturday 8am-4pm,Year-round,YR,Y,Y,N,Y,40.69374,-73.99043,"(40.69374, -73.99043)"
Kings,Fort Greene Park Greenmarket,Washington Park btwn Dekalb Ave. & Willoughby St.,Washington Park and DeKalb Ave,Brooklyn,NY,11205,Siobahn Keys,2127887476,http://www.grownyc.org/greenmarket/brooklyn/fort-greene,Saturday  8am-3pm,Year-round,YR,Y,Y,N,Y,40.68962,-73.97313,"(40.68962, -73.97313)"
Onondaga,Gillie Brook Farm Stand,6147 Gillie Brook Rd.  Memphis,6147 Gillie Brook Road,Memphis,NY,13112,Robert Nogash,3156723706,http://www.gilliefarms.com,Sunday  9am-3pm,May 31-December 31,M/X,Y,Y,N,Y,43.07172,-76.35375,"(43.07172, -76.35375)"
Rensselaer,Troy Waterfront WINTER Farmers' Market,"new 2020-21 location, 865 2nd Avenue, Troy NY 12182 (the former Price Chopper Plaza)",865 2nd Avenue,Troy,NY,12182,Stephen Ridler,5187084216,http://www.troymarket.org,Saturday  9am-2pm,"Dec 5-March 27, 2021",X/W/P,N,Y,N,Y,42.73196,-73.68893,"(42.73196, -73.68893)"
Genesee,LeRoy Farmers' Market,Trigon Park Route 5 (Main St.),Trigon Park,Le Roy,NY,14482,Mary Margaret Ripley,5852972441,http://www.leroyfarmersmarket.wordpress.com,Saturday  9am-12:30pm,June 12-October 2,M,Y,N,N,Y,42.97756,-77.98592,"(42.97756, -77.98592)"
Wyoming,Farm & Artisan Market at the Villa,Artisan Villa  140 North Main St.  Warsaw,140 North Main Street,Warsaw,NY,14569,Lisa Seewaldt,5857868766,http://www.marketatthevilla.com,Wednesday  2pm-6pm,May 5-October 13,P/M,Y,Y,N,Y,42.74311,-78.13256,"(42.74311, -78.13256)"
Otsego,Morris Farmers' Market,"Guy Rathbon Park 117 Main St., behind Firehouse",Main St and Church St,Morris,NY,13808,Kristina Shields,6072635203,,Thu  2:30pm-5:30pm,May 27-October 28,P/M,Y,N,N,Y,42.54813,-75.24686,"(42.54813, -75.24686)"
Lewis,Roads End Orchards,5044 Crofoot Hill Road,5044 Crofoot Hill Road,Constableville,NY,13325,Matthew Swiernik,3157833695,http://www.roadsendorchards.com,"Mon-Thurs  11am-4pm, , Fri-Sun  12pm-7pm",Year-round,YR,Y,N,N,Y,43.59227,-75.48159,"(43.59227, -75.48159)"
New York,Inwood Greenmarket,"620 Isham St., Isham Park, btwn Seaman Ave. & Cooper St.",Isham St and Seaman St,New York,NY,10034,Siobahn Keys,2127887476,http://www.grownyc.org/greenmarket/manhattan/inwood,Saturday  8am-3pm,Year-round,YR,Y,Y,N,Y,40.86988,-73.9209,"(40.86988, -73.9209)"
Nassau,Crossroads Farm Farm Stand,480 Hempstead Ave. Malverne,480 Hempstead Ave,Malverne,NY,11565,Nella Stranieri,5168817900,http://www.xroadsfarmliny.com,"Fri  3pm-6pm;, Sat  9am-2pm; Sun  10am-2pm",July 2-October 30,M,Y,N,N,Y,40.68066,-73.66376,"(40.68066, -73.66376)"
Schenectady,Schenectady City Hall Farmers' Market,"105 Jay Street, City Hall",105 Jay Street,Schenectady,NY,12305,Steve Feeney,5183862225,http://www.schenectadycounty.com/farmersmarket,Thu  9:30am-1:30pm,May 6-October 28,P/M,Y,Y,Y,Y,42.81378,-73.94032,"(42.81378, -73.94032)"
Saratoga,Bowman Orchards Farm Stand,141 Sugarhill Road Rexford,141 Sugarhill Road,Rexford,NY,12148,Kevin Bowman,5188583306,http://www.bowmanorchards.com,"Daily  9am-5pm, Closed Sunday",May 1-December 23,P/M/X,Y,N,N,Y,42.81576,-73.83953,"(42.81576, -73.83953)"
Chautauqua,Fredonia WINTER Farmers' Market,329 East Main St. (Rt 20) Masonic Lodge,321 East Main St. (Rte 20),Fredonia,NY,14063,Rosemary Joy,7164107313,,Saturday 10am-1pm,"Nov 6-May 14, 2022",M/X/W/P,N,Y,N,Y,42.44764,-79.315,"(42.44764, -79.315)"
Herkimer,Dolgeville Farmers' Market,"Plowe Park, Corner of South Main and Cramer Lane",South Helmer Avenue,Dolgeville,NY,13329,Christin Reynolds,3158684557,,Saturday  9am-1pm,June 5-October 9,M,Y,Y,N,Y,43.10057,-74.7755,"(43.10057, -74.7755)"
Monroe,Curbside Market-Andrews Terrace,125 St. Paul St. Rochester,125 Saint Paul Street,Rochester,NY,14604,Camille Verbofsky,5854135077,http://www.foodlinkny.org,Wed  1pm-2:30pm,June 2-November 24,M,Y,Y,N,Y,43.15872,-77.61047,"(43.15872, -77.61047)"
Erie,Clinton Bailey Sat Farmers' Market,"1443-1517 Clinton St. Buffalo, corner of Clinton & Bailey Sts.",Bailey Ave and Clinton St,Buffalo,NY,14206,Sharon Baldi,7162080003,http://www.clintonbaileymarket.com,"Saturday  4am-5pm, Nov-Apr  6am-12pm",Year-round,YR,Y,Y,N,Y,42.87205,-78.81998,"(42.87205, -78.81998)"
Monroe,Curbside Market-Ellison Park Apts,44 Bobrich Drive Rochester,4 Bobrich Drive,Rochester,NY,14610,Camille Verbofsky,5854135077,http://www.foodlinkny.org,Tue 10:30am-11:45am,June 1-November 23,M,Y,Y,N,Y,43.14804,-77.54569,"(43.14804, -77.54569)"
Tompkins,Ithaca Farmers' Market (Steamboat Sun),"Steamboat Landing, 545 Third St. Extension off Rt. 13",545 Third Street,Ithaca,NY,14850,Kelly Sauve,6072737109,http://www.ithacamarket.com,Sunday  10am-2pm,May 2-November 28,P/M/X,Y,Y,Y,Y,42.44958,-76.50782,"(42.44958, -76.50782)"
Orange,Florida NY Farmers' Market,133 N Main St across from Quick Check,133 N Main Street,Florida,NY,10921,Janet Picarelli,8456518310,http://www.floridafarmersmarket.org,Tue 10am-4pm,June 22-Oct 26,M,Y,N,N,Y,41.33775,-74.35873,"(41.33775, -74.35873)"
Monroe,Curbside Market-Plymouth Gardens,1400 S Plymouth Ave. Rochester,1400 S Plymouth Ave.,Rochester,NY,14611,Camille Verbofsky,5854135077,http://www.foodlinkny.org,"Fri 10:30am-11:45pm, closed June 18 & July 2",June 4-November 26,M,Y,Y,N,Y,43.13192,-77.6339,"(43.13192, -77.6339)"
Onondaga,Fayetteville Farmers' Market,Fayetteville Town Ctr 504 Burdick St.,504 Burdick Street,Fayetteville,NY,13066,Lacey Cashman,3013351434,http://www.fayettevillefarmersmarketcny.com,Thur 12pm-6pm,Year-round,YR,Y,N,N,Y,43.02764,-76.01608,"(43.02764, -76.01608)"
Niagara,Niagara Falls City Monday Market,19th St. & Pine Ave.,1800-1808 Pine Ave,Niagara Falls,NY,14301,Victor Muto,7167540798,,Monday  9am-3pm,Year-round,YR,Y,N,N,Y,43.09513,-79.03972,"(43.09513, -79.03972)"
Bronx,Bronx Borough Hall Greenmarket,Suspended for Covid  Grand Concourse btwn 161st & 163rd Sts.,901 Grand Concourse,Bronx,NY,10451,Siobahn Keys,2127887476,http://www.grownyc.org/greenmarket,Tuesday  8am-4pm,June 1-November 23,M,Y,Y,N,Y,40.82715,-73.92276,"(40.82715, -73.92276)"
Erie,MAP Farm Stand,"387 Massachusetts Ave. Buffalo, between Barton & Shields",389 Massachusetts Ave.,Buffalo,NY,14213,Danielle Rovillo,7168825327,http://www.mass-ave.org,Thursdays  3pm-6pm,Year-round,YR,Y,Y,N,Y,42.9128,-78.88774,"(42.9128, -78.88774)"
Kings,Seeds in the Middle Farm Stand-Brownsville,PS 284  213 Osborn St Brooklyn,213 Osborn St,Brooklyn,NY,11212,Nancie Katz,9176973745,,Friday 2pm-5pm,Year-round,YR,N,Y,N,Y,40.66699,-73.90811,"(40.66699, -73.90811)"
Erie,Broadway Farmers' Market,999 Broadway Buffalo parking entrances on Gibson or Lombard St.,999 Broadway,Buffalo,NY,14212,Kathleen Peterson,7168930705,,Mon-Sat  8am-5pm,year-round,YR,N,Y,N,Y,42.893162,-78.837667,"(42.893162, -78.837667)"
Allegany,On the River Farm Stand,7579 Route 19 Belfast,7579 Route 19,Belfast,NY,14711,Stephen Demarte,7165605594,,"Mon-Fri  3pm-6pm, Sat 10am-7pm; Sun 12pm-6pm",June 1-November 15,M,Y,N,N,Y,42.34485,-78.11563,"(42.34485, -78.11563)"
Bronx,New Roots Community Farm Stand,670 Grand Concourse  Bronx,670 Grand Concourse,Bronx,NY,10451,Sheryll Durrant,2123774747,,Tuesday  3pm-7pm,July 6-October 26,M,Y,Y,N,Y,40.82172,-73.92524,"(40.82172, -73.92524)"
Niagara,Huntington Farm Stand I,9715 Ridge Rd. Middleport,9715 Ridge Rd.,Middleport,NY,14105,Dan Huntington,7163930590,,Daily  11am-7pm,June 10-October 15,M,Y,N,N,Y,43.24672,-78.48848,"(43.24672, -78.48848)"
Franklin,JCEO MM-Malone DSS,184 Finney Blvd Malone,184 Finney Blvd,Malone,NY,12953,Richard LaVigne,5183194028,http://www.jceo.org,Friday  11:45am-2pm,June 4-October 1,M,Y,Y,N,Y,44.83873,-74.30102,"(44.83873, -74.30102)"
Franklin,Bickford Acres Farm Stand,10 Maple Drive Ft. Covington,10 Maple Drive,Fort Covington,NY,12937,Kay-Lynn Bickford,5183197105,,"Daily  1pm-4pm, Closed Wed & Sat",July 1-October 1,M,Y,N,N,Y,44.98738,-74.50265,"(44.98738, -74.50265)"
Albany,Veggie Mobile-Koinonia Primary Care,553 Clinton Ave. & N. Lake Ave. Albany,553 Clinton Avenue,Albany,NY,12206,Audrey Bridge,5182748685,http://www.capitalroots.org,Tue 2pm-2:45pm,Year-round,YR,Y,Y,Y,Y,42.66508,-73.76804,"(42.66508, -73.76804)"
Oneida,Wagner Farms Farm Stand,5841 Old Oneida Rd. Rome,5841 Old Oneida Rd,Rome,NY,13440,Ronald Wagner,3153395182,http://wagnerfarmsny.com,Daily  10am-6pm,Year-round,YR,Y,N,N,Y,43.1805,-75.50086,"(43.1805, -75.50086)"
Livingston,Lima Presbyterian Church Farmers' Market,"7295 W. Main St., Corner of Route 15A",7295 W. Main St.,Lima,NY,14485,Suzanne Muehleisen,5857529238,,Tuesday  3pm-6pm,June 22-October 26,M,Y,N,N,Y,42.90496,-77.61175,"(42.90496, -77.61175)"
New York,Columbia Thu Greenmarket,Broadway btwn W 114th &  W 115th Sts.,Broadway and West 115th St,New York,NY,10027,Siobahn Keys,2127887476,http://www.grownyc.org/greenmarket/manhattan/columbia-th,Thursday  8am-5pm,Year-round,YR,Y,Y,N,Y,40.80731,-73.9643,"(40.80731, -73.9643)"
Sullivan,Mamakating Farmers Market,2948 Route 209 Wurtsboro,2948 Route 209 Wurtsboro,Wurtsboro,NY,12790,Fred Harding,8458202932,http://www.visitmamakating.org,Friday  4pm-7pm,May 28-September 3,P/M,Y,N,N,Y,41.56637,-74.49704,"(41.56637, -74.49704)"
Seneca,Ovid Farmers Market,Main Street Ovid at Three Bears Park,Main Street,Ovid,NY,14521,Patti Paine Battley,3155399251,,Friday  3pm-7pm,June 18-October 1,M,Y,Y,Y,Y,42.67552,-76.82293,"(42.67552, -76.82293)"
Monroe,Curbside Market-Hudson Ridge Tower,401 Seneca Manor Dr. Rochester,401 Seneca Manor Drive,Rochester,NY,14621,Camille Verbofsky,5854135077,http://www.foodlinkny.org,Wed 1:45pm-3pm,June 2-November 24,M,Y,Y,N,Y,43.19309,-77.60324,"(43.19309, -77.60324)"
Greene,Coxsackie Farmers' Market,Coxsackie Boat Launch 1 Betke Blvd,1 Betke Boulevard,Coxsackie,NY,12051,Nikki Bereznak,5817312718,http://www.coxsackiefarmersmarket.org,Wednesday  4pm-7pm,May 19-September 29,P/M,Y,N,N,Y,42.3525,-73.79622,"(42.3525, -73.79622)"
Monroe,North Chili Farmers' Market,Methodist Church  2200 Westside Drive,2200 Westside Dr,North Chili,NY,14514,John Standinger,5852816538,http://www.umcofnorthchili.org,Saturday  8am-1pm,June 12-October 23,M,Y,N,N,Y,43.12648,-77.78969,"(43.12648, -77.78969)"
Columbia,Copake Hillsdale Farmers' Market,Roeliff Jansen Park 9140 Route 22,9140 Route 22,Hillsdale,NY,12529,Diane Creed,5183251430,http://www.copakehillsdalefarmersmarket.com,Saturday  9am-1pm,May 22-November 20,P/M,Y,Y,N,Y,42.17077,-73.51771,"(42.17077, -73.51771)"
Kings,Bushwick Bethel Farm Stand,215 Cooper St. Brooklyn,215 Cooper St.,Brooklyn,NY,11207,Novelette Scott,7188210254,http://www.riseboro.org,Thursday  11am-3pm,June 24-November 18,M,Y,N,N,Y,40.6898,-73.9056,"(40.6898, -73.9056)"
Kings,Carroll Gardens Greenmarket,330 Carroll St. btwn Smith & Court Sts.,Carroll St and Court St,Brooklyn,NY,11231,Siobahn Keys,2127887476,http://www.grownyc.org/greenmarket/brooklyn/carroll-gardens,Sunday  8am-2pm,Year-round,YR,Y,Y,N,Y,40.68106,-73.99653,"(40.68106, -73.99653)"
Albany,Delmar Tuesday Farmers' Market,"First United Methodist Church Lot, 428 Kenwood Ave.",428 Kenwood Ave,Delmar,NY,12054,Frank Stanton,5187568228,,Tuesday  2:30pm-6pm,May 4-November 23,P/M,Y,N,N,Y,42.62298,-73.83623,"(42.62298, -73.83623)"
Monroe,Curbside Market-Creek House Commons,3000 White Swan Dr. Rochester,3000 White Swan Dr,Rochester,NY,14626,Camille Verbofsky,5854135077,http://www.foodlinkny.org,"Sat 3:45pm-4:45pm, closed June 19, July 3 & Sept 4",June 5-November 27,M,Y,Y,N,Y,43.21894,-77.73798,"(43.21894, -77.73798)"
Delaware,Walton Farmers' Market,Veteran's Plaza  181 Delaware St.,181 Delware Street,Walton,NY,13856,Jeanne Darling,6078656531,http://www.ccedelaware.org,Friday  10am-2pm,July 2-September 24,M,Y,N,N,Y,42.16855,-75.13157,"(42.16855, -75.13157)"
Dutchess,Obercreek Farm Stand,81 New Hamburg Road Wappingers Falls,87 New Hamburg Road,Wappingers Falls,NY,12590,Nina Doig,8452980888,http://www.obercreekfarm.com,"Wed-Fri  10am-6pm, Sat-Sun  10am-5pm",Year-round,YR,Y,Y,N,Y,41.58378,-73.93705,"(41.58378, -73.93705)"
Montgomery,Fort Plain Farm Stand,Parking lot on 12 Willet St. Ft. Plain,12 Willet Street,Fort Plain,NY,13339,Annette Rorick,5189934271,http://www.villageoffortplain.com,Thu/Fri  10am-3pm,June 17-October 15,M,Y,N,N,Y,42.9316,-74.62182,"(42.9316, -74.62182)"
Rensselaer,Capital Roots Produce Project Farm Stand,261 8th Street Troy,261 8th Street,Troy,NY,12180,Nell Roberts,5182748685,http://www.capitalroots.org,"Tuesday  4pm-6pm, Saturday 9am-1pm",May 3-October 30,P/M,Y,Y,Y,Y,42.73697,-73.68247,"(42.73697, -73.68247)"
Lewis,Harrisville Farmers' Market,"Scenic View lot , State Street  Harrisville",State Street and Main Street,Harrisville,NY,13648,Laura La Platney,3157771689,,Saturday  9am-4pm,May 29-October 30,P/M,Y,N,N,Y,44.14849,-75.31571,"(44.14849, -75.31571)"
Nassau,Valley Stream Farmers' Market,"Arthur Hendrickson Park , 123 W Merrick Rd",123 W Merrick Rd,Valley Stream,NY,11580,Ethel Terry,6313233653,,Thursday 7am-1pm,June 10-November 18,M,Y,N,N,Y,40.66599,-73.70221,"(40.66599, -73.70221)"
Chautauqua,Dunkirk Farmers' Market,Dunkirk Senior Center 45 Cliffstar Court,45 Cliffstar Court,Dunkirk,NY,14048,Edward Hayes,7163669876,http://www.cityofdunkirk.com,Wednesday  9am-2pm,June 9-October 13,M,Y,Y,N,Y,42.48481,-79.32751,"(42.48481, -79.32751)"
Franklin,JCEO MM-Tallon's Store,1141 State Rte 122 Constable,1141 State Rte 122,Constable,NY,12926,Richard LaVigne,5183194028,http://www.jceo.org,Tue  12:30pm-2:00pm,June 1-September 28,M,Y,Y,N,Y,44.9233,-74.29372,"(44.9233, -74.29372)"
Onondaga,Syracuse Farm Fresh Mobile Market,"Contact market for locations & times, 315-345-0600",500 West Newell Street,Syracuse,NY,13205,Diane Turner,3153450600,https://ssinterfaithcdc.org/projects/farm-fresh-mobile-market,"Contact market for locations & times, 315-345-0600",Year-round,YR,N,Y,N,Y,43.016878,-76.153714,"(43.016878, -76.153714)"
Oswego,Oswego Farmers' Market,West 1st btwn Bridge & W. Oneida St.,West Bridge St and West 1st St,Oswego,NY,13126,Sara Broadwell,3155915491,,Thu  4:15pm-8pm,June 3-October 7,M,Y,Y,N,Y,43.45656,-76.51127,"(43.45656, -76.51127)"
Westchester,Saint John's Church Farmers' Market,Church Courtyard 1 Hudson St. Yonkers,1 Hudson St,Yonkers,NY,10701,Sara Brody,9149696660,,Thursday  7am-4pm,July 8-October 28,M,Y,N,N,Y,40.93364,-73.89879,"(40.93364, -73.89879)"
New York,Union Square Monday Greenmarket,"31 Union Square W, NW side of Park",Broadway and East 17th St,New York,NY,10003,Siobahn Keys,2127887476,https://www.grownyc.org/greenmarket/manhattan-union-square-w,Monday  8am-6pm,Year-round,YR,Y,Y,N,Y,40.73712,-73.99029,"(40.73712, -73.99029)"
Washington,Cambridge Valley Farmers' Market,24 South Park Street,4 Bro24 South Park Street,Cambridge,NY,12816,Lindsay Fisk,5185389467,http://www.cambridgevalleyfarmersmarket.com,Sunday  10am-2pm,May 23-October 31,P/M,Y,N,N,Y,43.02833,-73.38093,"(43.02833, -73.38093)"
Rockland,Piermont WINTER Farmers' Market,527 Piermont Ave. in M & T Bank lot,527 Piermont Ave,Piermont,NY,10968,Joe Serra,9143934533,https://www.facebook.com/piermontfm,Sunday  10am-2pm,December 5-March 27,X/W,N,N,N,Y,41.04158,-73.91632,"(41.04158, -73.91632)"
Chenango,Sunrise Farms Farm Stand,252 Plymouth-North Norwich Rd.  Plymouth,252 Plymouth-North Norwich Rd.,Plymouth,NY,13832,Kathryn Clemens,6073365834,,"Mon-Fri  9am-5pm, Sunday  9am-2pm",Year-round,YR,Y,N,N,Y,42.62427,-75.59152,"(42.62427, -75.59152)"
Monroe,Brighton Farmers' Market,"Brighton High School lot, 1150 Winton Rd. South",1150 Winton Rd South,Rochester,NY,14618,Sue Gardner-Smith,5852698918,http://www.brightonfarmersmarket.org,Sunday  9am-1pm,May 9-November 21,P/M,Y,Y,Y,Y,43.12204,-77.56808,"(43.12204, -77.56808)"
Niagara,Randy Becken Farm Stand,3302 Upper Mountain Road,3302 Upper Mountain Road,Sanborn,NY,14132,Sarah Becken,7165445255,,"Thu-Sat  10am-6pm, Sunday  11am-3pm",August 12-October 31,M,Y,N,N,Y,43.16543,-78.86239,"(43.16543, -78.86239)"
New York,Tribeca Greenmarket Saturday,315 Greenwich St. at Chambers St,Greenwich St and Chambers St,New York,NY,10023,Siobahn Keys,2127887476,http://www.grownyc.org/greenmarket/manhattan/tribeca-sa,Saturday  8am-3pm,Year-round,YR,Y,Y,N,Y,40.7163,-74.01097,"(40.7163, -74.01097)"
Tompkins,Trumansburg Farmers' Market,"Trumansburg Village Park, corner of  Main & 227 Trumansburg",69-71 W Main St.,Trumansburg,NY,14886,Victoria Badalmenti,6073876501,http://www.tburgfarmersmarket.com,Wednesday  4pm-7pm,May 5-October 27,P/M,N,N,N,Y,42.54349,-76.6675,"(42.54349, -76.6675)"
Orleans,Circle R Farm Market,13490 Roosevelt Highway  Waterport,13490 Roosevelt Highway,Waterport,NY,14571,Laurie Gregori,5856824435,,Daily  9am-8pm,May 1-October 15,P/M,Y,N,N,Y,43.36049,-78.24848,"(43.36049, -78.24848)"
Monroe,The Mall at Greece Ridge Thu Farmers' Market,271 Greece Ridge Center Drive  Rochester,271 Greece Ridge Center Drive,Rochester,NY,14626,Melanie Fazio,5852251140,http://www.themallatgreeceridge.com,Thursday  8am-2pm,June 10-October 28,M,Y,N,N,Y,43.20677,-77.69406,"(43.20677, -77.69406)"
St. Lawrence,Potsdam Farmers' Market,Main St. near Ives Park adjacent to Clarkson Inn,Main St and Union St,Potsdam,NY,13676,Jennifer McAvoy,3155282454,,Saturday  9am-2pm,May 15-October 30,P/M,Y,Y,N,Y,44.66865,-74.98493,"(44.66865, -74.98493)"
Onondaga,Central NY Sunday Regional Market Authority,2100 Park St. Syracuse,2100 Park Street,Syracuse,NY,13208,Rachael Ristau,3154228647,http://www.cnyrma.com,Sunday  7am-2pm,Year-round,YR,Y,Y,Y,Y,43.07269,-76.16835,"(43.07269, -76.16835)"
Suffolk,Three Village Farmers Market,93 North Country Rd Setauket,93 North Country Rd,Setaucet,NY,11733,Linda Johnson,6319017151,https://www.tvmobilemarket.com,Friday 3pm-7pm,May 14-October 8,M,Y,N,N,Y,40.93391,-73.11775,"(40.93391, -73.11775)"
Rockland,Nyack WINTER Farmers' Market,Nyack Center 58 Depew Ave. Inside,"56 Depew Ave, NY",Nyack,NY,10960,Pam Moskowitz,8454943408,http://www.nyackchamber.org,Thursday  8am-2pm,January 3-March 28,W,N,Y,N,Y,41.089496,-73.919311,"(41.089496, -73.919311)"
Wayne,LaMora Farms Farm Stand,5925 Ontario Center Rd.  Ontario,5925 Ontario Center Road,Ontario,NY,14519,Lindsay LaMora,5857348904,http://www.lamorafarms.com,Daily  7am-7pm,June 15-November 1,M,Y,N,N,Y,43.21573,-77.30373,"(43.21573, -77.30373)"
Orange,Village of Monroe Farmers' Market,"Park & Ride Commuter Lot , Millpond Parkway",68 Millpond Pkwy,Monroe,NY,10950,Tony Romagnino,8437072819,,Sunday  9am-2pm,June 6-October 31,M,Y,N,N,Y,41.32983,-74.189196,"(41.32983, -74.189196)"
Dutchess,Dykeman Farm Farm Stand,31 Dykeman Lane Pawling,31 Dykeman Lane,Pawling,NY,12564,Amanda Dykeman,8458326068,http://www.dykemanfarm.com,Daily  9am-6pm,July 1-October 31,M,Y,N,N,Y,41.62739,-73.60795,"(41.62739, -73.60795)"
Bronx,"Learn it, Grow it, Eat it  GrowNYC Farm Stand",169th St. & Boston Rd. at McKinley Square,E. 169th St. and Boston Rd.,Bronx,NY,10456,Siobahn Keys,2127887476,https://www.grownyc.org/farmstands,Wednesday  8am-3pm,July 7-November 17,M,Y,Y,N,Y,40.83121,-73.90022,"(40.83121, -73.90022)"
Albany,Veggie Mobile-Center for Disability,700 South Pearl Street Albany,700 South Pearl Street,Albany,NY,12202,Audrey Bridge,5182748685,http://www.capitalroots.org,Tue 12:15pm-1pm,Year-round,YR,Y,Y,Y,Y,42.63003,-73.76585,"(42.63003, -73.76585)"
Erie,Hamburg Farmers' Market,45 Church St. Hamburg,45 Church St.,Hamburg,NY,14075,Jamie Decker,7166497917,,Saturday  7:30am-1pm,May 2-October 31,P/M,Y,N,N,Y,42.71677,-78.82994,"(42.71677, -78.82994)"
Fulton,Broadalbin Farmers' Market,3687 Highway 30 Broadalbin,3687 Highway 30,Broadalbin,NY,12025,Michael Tillson,5188829306,http://www.fmfma.org,Friday 3pm-6pm,June 11-October 1,M,Y,N,N,Y,43.04809,-74.2173,"(43.04809, -74.2173)"
Cattaraugus,South Dayton Farmers' Market,Village Square Park  Rt 322 & Park St,Rt 322 and Park st.,South Dayton,NY,14138,Karen Strickland,7166729004,,Saturday  9am-3pm,May 1-November 20,P/M,Y,N,N,Y,42.3609,-79.04925,"(42.3609, -79.04925)"
Cattaraugus,Little Valley Farmers' Market,103 Rock City Street  Little Valley NY,103 Rock City Street,Little Valley,NY,14475,Tina Armstrong,7162006946,,Thursday  2pm-6pm,June 3-October 28,M,Y,N,N,Y,42.2489,-78.7989,"(42.2489, -78.7989)"
Erie,Westside Tilth Market Farm Stand,246 Normal Ave. Buffalo,246 Normal Ave.,Buffalo,NY,14213,Carrie Nader,7163616591,http://www.westsidetilth.com,Sat  10am-3pm,June 5-November 20,M,Y,N,N,Y,42.90687,-78.88899,"(42.90687, -78.88899)"
Madison,Cottage Lawn Farmers' Market,"435 Main St. Oneida, Madison Co. Historical Society",435 Main St.,Oneida,NY,13421,Colleen Donahue,3153634136,http://www.mchsfarmersmarket.org,Tuesday  3pm-7pm,May 25-August 31,P/M,Y,N,N,Y,43.08719,-75.64705,"(43.08719, -75.64705)"
Ontario,Curbside Market-Trolley Station Apts,2464 Co Rd 28 Canandaigua,2464 Co Rd 28,Canandaigua,NY,14424,Camille Verbofsky,5854135077,http://www.foodlinkny.org,Tue 1pm-2pm,June 1-November 23,M,Y,Y,N,Y,42.9118,-77.29036,"(42.9118, -77.29036)"
Queens,Queens County Farm-Jamaica Hospital Farm Stand,134-20 Jamaica Avenue Richmond Hill,134-20 Jamaica Avenue,Richmond Hill,NY,11418,Anne Mastrogiacomo,7183473276,http://www.queensfarm.org,Friday  10:30am-3:30pm,June 18-November 5,M,Y,N,N,Y,40.70134,-73.81631,"(40.70134, -73.81631)"
New York,Bowling Green Tuesday Greenmarket,1 Bowling Green,1 Bowling Green,New York,NY,10004,Siobahn Keys,2127887476,http://www.grownyc.org/greenmarket/manhattan/bowling-green-tu,Tuesday  8am-5pm,Year-round,YR,Y,Y,N,Y,40.70454,-74.01418,"(40.70454, -74.01418)"
Sullivan,Sullivan Fresh Market on the Move-PHS,"50 Community Lane Liberty, Public Health Services WIC Clinic",50 Community Lane,Liberty,NY,12754,Melinda Meddaugh,8452926180,,Wednesday 11am-1pm,June 2-October 27,M,Y,Y,N,Y,41.79551,-74.71228,"(41.79551, -74.71228)"
Chenango,Lamb's Quarters Organic Farm Stand,213 Pierce Rd.  Plymouth,213 Pierce Road,Plymouth,NY,13832,Sandy Pierce,6073344928,http://www.lambsquarterorganicfarm.com,"Daily  12pm-6pm, Closed  Wed & Sat",Year-round,YR,Y,Y,N,Y,42.60058,-75.59991,"(42.60058, -75.59991)"
Columbia,New Lebanon Virtual Farmers' Market,502 State Rte 20/Columbia Pike,516 NYS Route 20,New Lebanon,NY,12125,Joshua Young,9174881061,,Sunday  10am-2pm,Year-round,YR,N,Y,N,Y,42.46715,-73.3917,"(42.46715, -73.3917)"
Kings,Kensington  GrowNYC Farm Stand,McDonald Ave. and Albermarle Rd,Fort Hamilton Pkwy and East 5th St,Brooklyn,NY,11218,Siobahn Keys,2127887476,https://www.grownyc.org/farmstands,Saturday  8:30am-3pm,July 10-November 20,M,Y,Y,N,Y,40.64917,-73.97659,"(40.64917, -73.97659)"
Jefferson,Windswept Meadows Farm Stand,17025 Cty Rt 68  Watertown,17025 County Road 68,Watertown,NY,13601,Delta Keeney,3157881933,http://www.keeneyswindsweptmeadowsfarm.com,Daily  8am-7pm,June 7-October 31,M,Y,Y,N,Y,43.91784,-75.87206,"(43.91784, -75.87206)"
Monroe,Curbside Market-Winton Gardens Towers,2052 East Main St Rochester,2052 East Main St,Rochester,NY,14609,Camille Verbofsky,5854135077,http://www.foodlinkny.org,Mon 2pm-3pm,May 31-November 22,M,Y,Y,N,Y,43.16076,-77.55556,"(43.16076, -77.55556)"
Queens,Brooklyn Grange Farm Stand @ LIC,"On the rooftop 37-18 Northern Blvd. , Long Island City",37-18 Northern Blvd.,Long Island City,NY,11101,Calliope Bosen,7744542967,http://www.brooklyngrangefarm.com,Saturday  10am-4pm,May 29-October 30,P/M,Y,Y,N,Y,40.75201,-73.92583,"(40.75201, -73.92583)"
Monroe,Whittier Fruit Farm Stand,219 Whittier Road  Rochester,219 Whittier Road,Rochester,NY,14624,Judy Russell,5857481898,http://www.whittierfruitfarm.com,"Mon-Fri  12pm-5pm, Sat  10am-4pm, Sun  12pm-4pm",August 20-November 4,M,Y,N,N,Y,43.14905,-77.77737,"(43.14905, -77.77737)"
Delaware,Covered Bridge Farm Market,309 Covered Bridge Rd,309 Covered Bridge Rd,Unadilla,NY,13849,Erin Johnson,9147992078,,Daily  10am-6pm,July 1-October 31,M,Y,N,N,Y,42.33657,-75.28612,"(42.33657, -75.28612)"
Oswego,B30 Farm Farm Stand,676 Baldwin Road  Fulton,676 Baldwin Road,Fulton,NY,13069,Timothy F. Moshier,3154399991,http://www.b30f.com,Mon-Wed  11am-5pm,Year-round,YR,Y,N,N,Y,43.38285,-76.34859,"(43.38285, -76.34859)"
Nassau,Roslyn Farmers' Market,Christopher Morley Park 500 Searingtown Rd.,500 Searingtown Rd,Roslyn Heights,NY,11577,Ethel Terry,6313233653,http://www.longislandgrowersmarket.com,Wednesday  7am-1pm,June 9-December 22,M/X,Y,N,N,Y,40.78188,-73.66277,"(40.78188, -73.66277)"
Chautauqua,Jamestown Public Market,Cherry St. btwn W 2nd & W 3rd Sts.,Cherry and West 2nd St,Jamestown,NY,14701,Linnea Carlson,7169696490,,Saturday  10am-2pm,June 12-October 30,M,Y,Y,N,Y,42.09567,-79.24234,"(42.09567, -79.24234)"
Monroe,Curbside Market-Lake Tower,321 Lake Ave. Rochester,321 Lake Ave.,Rochester,NY,14608,Camille Verbofsky,5854135077,http://www.foodlinkny.org,Tue 11am-12:15pm,June 1-November 23,M,Y,Y,N,Y,43.17054,-77.62751,"(43.17054, -77.62751)"
Westchester,Peekskill WINTER Farmers' Market,828 Main St Peekskill Parking lot,828 Main St,Peekskill,NY,10566,Corinna Makris,9144184920,http://www.peekskillfarmersmarket.com,Saturday  10am-2pm,December 7-April 24,X/W/P,N,N,N,Y,41.29141,-73.9231,"(41.29141, -73.9231)"
Saratoga,Saratoga Farmers' Market-Wednesday,112 High Rock Avenue Saratoga Springs,112 High Rock Avenue,Saratoga Springs,NY,12866,Emily Meagher,5187083698,http://www.saratogafarmersmarket.org,Wednesday 3pm-6pm,May 5-October 27,P/M,Y,Y,Y,Y,43.08653,-73.77965,"(43.08653, -73.77965)"
Herkimer,Exeter Park Produce and Garlic Farm Stand,"147 South Rd.  West Winfield, close to intersection of Route 51",147 South Road,West Winfield,NY,13491,David or Cynthia Ball,3159823589,http://www.exeterparkproduceandgarlic.com,Daily  10am-6pm,June 1-October 31,M,Y,N,N,Y,42.83092,-75.1367,"(42.83092, -75.1367)"
Schoharie,Parsons Vegetable Farm Farm Stand,756 US Highway 20 Sharon Springs,756 US Highway 20,Sharon Springs,NY,13459,Kenyon Parsons,5182842330,,Daily  10am-6pm,Year-round,YR,Y,N,N,Y,42.78332,-74.60004,"(42.78332, -74.60004)"
Washington,Salem Rt. 22 Farmers' Market,Village Park Gazebo Rt. 22 Main St,Route 22 and Railroad St.,Salem,NY,12865,Cyd Groff,5186421653,,Saturday  10am-1pm,June 5-October 16,M,Y,N,N,Y,43.17322,-73.32837,"(43.17322, -73.32837)"
Queens,Flushing Greenmarket,42-45 Kissena Blvd. and Maple Ave. (Maple Playground),Kissena Boulevard and Maple Avenue,Flushing,NY,11355,Siobahn Keys,2127887476,https://www.grownyc.org/farmstands,Wednesday  8am-3pm,July 7-November 24,M,Y,Y,N,Y,40.75636,-73.82579,"(40.75636, -73.82579)"
Jefferson,Cape Street Market,Village Green 357 Broadway St.,357 Gouvello St.,Cape Vincent,NY,13618,Shelley Higgins,3156542481,http://www.capevincent.org,Tuesday  10am-3pm,June 22-September 14,M,Y,N,N,Y,44.12838,-76.33472,"(44.12838, -76.33472)"
Suffolk,Patchogue (Sun) Farmers' Market,"Division & Ocean St., Patchogue LIRR, East Side Parking Lot",210 S. Ocean Ave.,Patchogue,NY,11772,Ethel Terry,6313233653,http://www.longislandgrowersmarket.com,Sunday  9am-2pm,June 6-November 7,M,Y,N,N,Y,40.76165,-73.01337,"(40.76165, -73.01337)"
Queens,NYC Health+Hospitals Farmers' Market-Queens 1,82-68 164th St. Jamaica Side of Pavillion,82-68 164th St,Jamaica,NY,11432,Sandra Springer,7188832576,http://www.nychealthandhospitals.org,Thursday  8am-5pm,June 10-November 24,M,Y,N,N,Y,40.71753,-73.80373,"(40.71753, -73.80373)"
Orange,Pine Bush Farmers' Market,62 Main St lot behind Crawford Cultural Center Pine Bush,New and Main Streets,Pine Bush,NY,12566,Douglas Drossell,8452170785,http://www.pinebushfarmersmarket.com,Saturday  9am-1pm,May 29-October 23,P/M,Y,N,N,Y,41.60918,-74.3005,"(41.60918, -74.3005)"
New York,92nd Street Greenmarket,1780 1st Ave. at E 92nd st,East 92nd St and First Ave,New York,NY,10128,Siobahn Keys,2127887476,http://www.grownyc.org/greenmarket,Sunday  9am-4pm,June 20-November 21,M,Y,Y,N,Y,40.78071,-73.94658,"(40.78071, -73.94658)"
Kings,Bay Ridge Greenmarket,9408  3rd Ave. at 95th St. inside Walgreen's parking lot,Third Ave and 95th St,Brooklyn,NY,11209,Siobahn Keys,2127887476,http://www.grownyc.org/greenmarket,Saturday  8am-3pm,May 1-November 20,P/M,Y,Y,N,Y,40.61724,-74.03362,"(40.61724, -74.03362)"
Clinton,Plattsburgh Farmers' and Craft Sat Market,City parking lot  Durkee & Broad St.,Broad St and Durkee St,Plattsburgh,NY,12901,Julie Baughn,5188027164,http://www.facebook.com/pages/Plattsburgh-Farmers-and-Crafters-Market/121588034547095,Saturday  9am-2pm,May 8-October 9,P/M,Y,N,N,Y,44.69535,-73.45226,"(44.69535, -73.45226)"
